{
  "type": "FeatureCollection",
  "generator": "overpass-turbo",
  "copyright": "The data included in this document is from www.openstreetmap.org. The data is made available under ODbL.",
  "timestamp": "2025-10-13T12:23:45Z",
  "features": [
    {
      "type": "Feature",
      "properties": {
        "@id": "relation/2221428",
        "admin_level": "9",
        "boundary": "administrative",
        "name": "Caballito",
        "type": "boundary",
        "wikidata": "Q536312",
        "wikipedia": "es:Caballito"
      },
      "geometry": {
        "type": "Polygon",
        "coordinates": [
          [
            [
              -58.4339566,
              -34.6280329
            ],
            [
              -58.4338099,
              -34.6280154
            ],
            [
              -58.4336687,
              -34.6279914
            ],
            [
              -58.4323349,
              -34.6277927
            ],
            [
              -58.4309323,
              -34.627604
            ],
            [
              -58.4301212,
              -34.6274817
            ],
            [
              -58.4296336,
              -34.6274097
            ],
            [
              -58.428674,
              -34.6272709
            ],
            [
              -58.4285736,
              -34.6272575
            ],
            [
              -58.4281303,
              -34.6271981
            ],
            [
              -58.4267564,
              -34.6269874
            ],
            [
              -58.4268061,
              -34.6267551
            ],
            [
              -58.426843,
              -34.6265878
            ],
            [
              -58.4269163,
              -34.6262631
            ],
            [
              -58.4268944,
              -34.6261146
            ],
            [
              -58.4269109,
              -34.6260336
            ],
            [
              -58.4269297,
              -34.6259693
            ],
            [
              -58.427023,
              -34.6256497
            ],
            [
              -58.4270767,
              -34.6255832
            ],
            [
              -58.4270834,
              -34.625537
            ],
            [
              -58.4271706,
              -34.6251272
            ],
            [
              -58.4274632,
              -34.6237725
            ],
            [
              -58.427497,
              -34.6236061
            ],
            [
              -58.4277142,
              -34.6224625
            ],
            [
              -58.4277347,
              -34.6223545
            ],
            [
              -58.4277963,
              -34.6220678
            ],
            [
              -58.4278573,
              -34.6217525
            ],
            [
              -58.4278892,
              -34.6215875
            ],
            [
              -58.4279154,
              -34.6214521
            ],
            [
              -58.4279396,
              -34.6213269
            ],
            [
              -58.4279706,
              -34.6211592
            ],
            [
              -58.4280263,
              -34.6208578
            ],
            [
              -58.4280598,
              -34.6206766
            ],
            [
              -58.4283059,
              -34.6194182
            ],
            [
              -58.4284287,
              -34.6187739
            ],
            [
              -58.4285223,
              -34.618632
            ],
            [
              -58.4285825,
              -34.6182829
            ],
            [
              -58.4285961,
              -34.618207
            ],
            [
              -58.4285898,
              -34.6180784
            ],
            [
              -58.4285854,
              -34.6179952
            ],
            [
              -58.4286479,
              -34.6177278
            ],
            [
              -58.4287719,
              -34.6171864
            ],
            [
              -58.4290705,
              -34.6159371
            ],
            [
              -58.4290889,
              -34.615852
            ],
            [
              -58.4291114,
              -34.6157524
            ],
            [
              -58.4292157,
              -34.6152799
            ],
            [
              -58.4292594,
              -34.6151108
            ],
            [
              -58.4300407,
              -34.6154459
            ],
            [
              -58.4300454,
              -34.6153165
            ],
            [
              -58.4300512,
              -34.6151534
            ],
            [
              -58.4300536,
              -34.6150863
            ],
            [
              -58.4300922,
              -34.6140152
            ],
            [
              -58.4301088,
              -34.613553
            ],
            [
              -58.4301147,
              -34.6133663
            ],
            [
              -58.4301169,
              -34.6133422
            ],
            [
              -58.4302341,
              -34.6119023
            ],
            [
              -58.4303262,
              -34.610927
            ],
            [
              -58.4303762,
              -34.6101806
            ],
            [
              -58.4304135,
              -34.609493
            ],
            [
              -58.4304415,
              -34.6088474
            ],
            [
              -58.4304747,
              -34.6087415
            ],
            [
              -58.4305139,
              -34.6086123
            ],
            [
              -58.4305431,
              -34.6077605
            ],
            [
              -58.4305865,
              -34.6070587
            ],
            [
              -58.4306784,
              -34.6059546
            ],
            [
              -58.4315375,
              -34.6049376
            ],
            [
              -58.432328,
              -34.6039427
            ],
            [
              -58.4333349,
              -34.6026665
            ],
            [
              -58.433913,
              -34.6029473
            ],
            [
              -58.4348209,
              -34.6034091
            ],
            [
              -58.4349892,
              -34.6034867
            ],
            [
              -58.4351024,
              -34.6035398
            ],
            [
              -58.4351654,
              -34.6035694
            ],
            [
              -58.435309,
              -34.6036446
            ],
            [
              -58.436355,
              -34.6041774
            ],
            [
              -58.4365767,
              -34.6042942
            ],
            [
              -58.4371175,
              -34.6045574
            ],
            [
              -58.437898,
              -34.6049333
            ],
            [
              -58.4380062,
              -34.6049851
            ],
            [
              -58.4385549,
              -34.6052656
            ],
            [
              -58.4386443,
              -34.6053109
            ],
            [
              -58.4389601,
              -34.6054515
            ],
            [
              -58.4390677,
              -34.6054994
            ],
            [
              -58.4391702,
              -34.6055449
            ],
            [
              -58.4391864,
              -34.6055513
            ],
            [
              -58.4392954,
              -34.6055927
            ],
            [
              -58.4394156,
              -34.605629
            ],
            [
              -58.440068,
              -34.6058125
            ],
            [
              -58.4402932,
              -34.6058795
            ],
            [
              -58.4404245,
              -34.6059127
            ],
            [
              -58.4411815,
              -34.6061253
            ],
            [
              -58.4413468,
              -34.6061711
            ],
            [
              -58.4416344,
              -34.606251
            ],
            [
              -58.4429983,
              -34.6066217
            ],
            [
              -58.443467,
              -34.6067439
            ],
            [
              -58.4437937,
              -34.6068292
            ],
            [
              -58.4439726,
              -34.6068758
            ],
            [
              -58.4441454,
              -34.6069209
            ],
            [
              -58.4445036,
              -34.6070115
            ],
            [
              -58.4452173,
              -34.6072014
            ],
            [
              -58.4452953,
              -34.6072264
            ],
            [
              -58.4454042,
              -34.6072591
            ],
            [
              -58.4455099,
              -34.6072977
            ],
            [
              -58.4456037,
              -34.607335
            ],
            [
              -58.4457238,
              -34.6073875
            ],
            [
              -58.445851,
              -34.6074402
            ],
            [
              -58.4461277,
              -34.6075598
            ],
            [
              -58.4461396,
              -34.6075649
            ],
            [
              -58.4462905,
              -34.6076282
            ],
            [
              -58.4465683,
              -34.607552
            ],
            [
              -58.4466302,
              -34.6075344
            ],
            [
              -58.4466432,
              -34.607531
            ],
            [
              -58.4473231,
              -34.6073539
            ],
            [
              -58.4480876,
              -34.6071562
            ],
            [
              -58.4481661,
              -34.6071359
            ],
            [
              -58.4482647,
              -34.6071102
            ],
            [
              -58.449064,
              -34.6069024
            ],
            [
              -58.4492739,
              -34.6068478
            ],
            [
              -58.4502203,
              -34.606614
            ],
            [
              -58.4503031,
              -34.6065935
            ],
            [
              -58.4507353,
              -34.6064867
            ],
            [
              -58.4508259,
              -34.6064613
            ],
            [
              -58.4510169,
              -34.6064079
            ],
            [
              -58.45107,
              -34.606393
            ],
            [
              -58.4511454,
              -34.606374
            ],
            [
              -58.4515887,
              -34.6062623
            ],
            [
              -58.4520321,
              -34.6061505
            ],
            [
              -58.4523733,
              -34.6060685
            ],
            [
              -58.4526421,
              -34.606004
            ],
            [
              -58.4528511,
              -34.6059538
            ],
            [
              -58.4529658,
              -34.6059262
            ],
            [
              -58.4533153,
              -34.6058318
            ],
            [
              -58.453983,
              -34.6056514
            ],
            [
              -58.4540342,
              -34.6056375
            ],
            [
              -58.4543649,
              -34.6055516
            ],
            [
              -58.4544764,
              -34.6055225
            ],
            [
              -58.4545277,
              -34.6055091
            ],
            [
              -58.4548696,
              -34.6054199
            ],
            [
              -58.4550321,
              -34.6053804
            ],
            [
              -58.4553954,
              -34.6052796
            ],
            [
              -58.4557946,
              -34.6051689
            ],
            [
              -58.4565777,
              -34.6049686
            ],
            [
              -58.457362,
              -34.6047593
            ],
            [
              -58.457724,
              -34.6046674
            ],
            [
              -58.4578161,
              -34.604644
            ],
            [
              -58.4581112,
              -34.6045691
            ],
            [
              -58.4583815,
              -34.604503
            ],
            [
              -58.4585788,
              -34.6046468
            ],
            [
              -58.4594686,
              -34.605281
            ],
            [
              -58.46045,
              -34.6059518
            ],
            [
              -58.4615134,
              -34.606647
            ],
            [
              -58.4621051,
              -34.60705
            ],
            [
              -58.4625733,
              -34.6073739
            ],
            [
              -58.46267,
              -34.607442
            ],
            [
              -58.4626412,
              -34.6074984
            ],
            [
              -58.4626048,
              -34.6075687
            ],
            [
              -58.4621958,
              -34.6083898
            ],
            [
              -58.4616505,
              -34.6095197
            ],
            [
              -58.4610719,
              -34.6106507
            ],
            [
              -58.4610156,
              -34.6107675
            ],
            [
              -58.4605625,
              -34.6117073
            ],
            [
              -58.4600484,
              -34.6127418
            ],
            [
              -58.4595273,
              -34.6137691
            ],
            [
              -58.4594501,
              -34.6138867
            ],
            [
              -58.4593765,
              -34.6139866
            ],
            [
              -58.4593058,
              -34.6141312
            ],
            [
              -58.4590447,
              -34.6147223
            ],
            [
              -58.4589586,
              -34.6149073
            ],
            [
              -58.4585555,
              -34.6157859
            ],
            [
              -58.4585066,
              -34.6158947
            ],
            [
              -58.4584646,
              -34.6159797
            ],
            [
              -58.4584062,
              -34.6160959
            ],
            [
              -58.4583245,
              -34.6162749
            ],
            [
              -58.4581939,
              -34.6165571
            ],
            [
              -58.4577519,
              -34.6175162
            ],
            [
              -58.4574225,
              -34.6182544
            ],
            [
              -58.4573897,
              -34.6183279
            ],
            [
              -58.457297,
              -34.6185266
            ],
            [
              -58.4572325,
              -34.618679
            ],
            [
              -58.4566292,
              -34.6199984
            ],
            [
              -58.4561816,
              -34.6209706
            ],
            [
              -58.4560764,
              -34.621194
            ],
            [
              -58.4560308,
              -34.6212967
            ],
            [
              -58.4560048,
              -34.6213533
            ],
            [
              -58.4558227,
              -34.6217584
            ],
            [
              -58.4555554,
              -34.6223339
            ],
            [
              -58.4550408,
              -34.6234605
            ],
            [
              -58.4548229,
              -34.6239332
            ],
            [
              -58.454807,
              -34.6239728
            ],
            [
              -58.4547879,
              -34.6240095
            ],
            [
              -58.4547731,
              -34.6240416
            ],
            [
              -58.4547653,
              -34.6240587
            ],
            [
              -58.4547381,
              -34.6241182
            ],
            [
              -58.4545695,
              -34.624476
            ],
            [
              -58.4542211,
              -34.6252167
            ],
            [
              -58.4540865,
              -34.6255009
            ],
            [
              -58.454018,
              -34.6256106
            ],
            [
              -58.4539524,
              -34.6257282
            ],
            [
              -58.4534212,
              -34.6267764
            ],
            [
              -58.4528743,
              -34.6278905
            ],
            [
              -58.4527373,
              -34.6281779
            ],
            [
              -58.4525678,
              -34.6285337
            ],
            [
              -58.4520885,
              -34.6295392
            ],
            [
              -58.4517381,
              -34.6302931
            ],
            [
              -58.4515836,
              -34.6306186
            ],
            [
              -58.4505228,
              -34.6304742
            ],
            [
              -58.4493621,
              -34.6303108
            ],
            [
              -58.4485412,
              -34.6301802
            ],
            [
              -58.4484247,
              -34.6301686
            ],
            [
              -58.4482457,
              -34.6301459
            ],
            [
              -58.4475449,
              -34.6300439
            ],
            [
              -58.4463934,
              -34.6298704
            ],
            [
              -58.4462397,
              -34.6298453
            ],
            [
              -58.4460694,
              -34.6298175
            ],
            [
              -58.4444823,
              -34.6295753
            ],
            [
              -58.4442676,
              -34.6295431
            ],
            [
              -58.4430965,
              -34.6293673
            ],
            [
              -58.4429158,
              -34.6293402
            ],
            [
              -58.4427166,
              -34.6293137
            ],
            [
              -58.442564,
              -34.6292935
            ],
            [
              -58.4417608,
              -34.6291868
            ],
            [
              -58.4406848,
              -34.6290382
            ],
            [
              -58.4405112,
              -34.629018
            ],
            [
              -58.4403728,
              -34.6289993
            ],
            [
              -58.4401034,
              -34.6289629
            ],
            [
              -58.4395206,
              -34.628867
            ],
            [
              -58.4385905,
              -34.628721
            ],
            [
              -58.4371662,
              -34.6285145
            ],
            [
              -58.4358881,
              -34.6283289
            ],
            [
              -58.4356349,
              -34.6282943
            ],
            [
              -58.4347489,
              -34.6281521
            ],
            [
              -58.4342834,
              -34.6280832
            ],
            [
              -58.4340217,
              -34.628043
            ],
            [
              -58.4339566,
              -34.6280329
            ]
          ]
        ]
      },
      "id": "relation/2221428"
    },
    {
      "type": "Feature",
      "properties": {
        "@id": "node/349129660",
        "@relations": [
          {
            "role": "label",
            "rel": 2221428,
            "reltags": {
              "admin_level": "9",
              "boundary": "administrative",
              "name": "Caballito",
              "type": "boundary",
              "wikidata": "Q536312",
              "wikipedia": "es:Caballito"
            }
          }
        ]
      },
      "geometry": {
        "type": "Point",
        "coordinates": [
          -58.4424893,
          -34.6200773
        ]
      },
      "id": "node/349129660"
    }
  ]
}