{
  "type": "FeatureCollection",
  "generator": "overpass-turbo",
  "copyright": "The data included in this document is from www.openstreetmap.org. The data is made available under ODbL.",
  "timestamp": "2025-10-07T17:25:00Z",
  "features": [
    {
      "type": "Feature",
      "properties": {
        "@id": "relation/2223126",
        "admin_level": "9",
        "boundary": "administrative",
        "name": "Villa Lugano",
        "type": "boundary",
        "wikidata": "Q731094",
        "wikipedia": "es:Villa Lugano"
      },
      "geometry": {
        "type": "Polygon",
        "coordinates": [
          [
            [
              -58.4596554,
              -34.673275
            ],
            [
              -58.4596593,
              -34.6731921
            ],
            [
              -58.4597891,
              -34.6728675
            ],
            [
              -58.4598641,
              -34.6727491
            ],
            [
              -58.4598912,
              -34.6727058
            ],
            [
              -58.4600223,
              -34.6725629
            ],
            [
              -58.4622566,
              -34.6705378
            ],
            [
              -58.4623973,
              -34.6703948
            ],
            [
              -58.4625338,
              -34.6702371
            ],
            [
              -58.4629644,
              -34.6696936
            ],
            [
              -58.4630034,
              -34.6696262
            ],
            [
              -58.4630488,
              -34.6695615
            ],
            [
              -58.463155,
              -34.6694447
            ],
            [
              -58.4632821,
              -34.6693428
            ],
            [
              -58.4634269,
              -34.6692585
            ],
            [
              -58.4635234,
              -34.6692161
            ],
            [
              -58.4636241,
              -34.6691808
            ],
            [
              -58.4649358,
              -34.6687155
            ],
            [
              -58.4658494,
              -34.6679916
            ],
            [
              -58.4679174,
              -34.6663866
            ],
            [
              -58.4682506,
              -34.666124
            ],
            [
              -58.4684008,
              -34.6660074
            ],
            [
              -58.4691408,
              -34.6654621
            ],
            [
              -58.4697653,
              -34.6649432
            ],
            [
              -58.4701597,
              -34.6646472
            ],
            [
              -58.4702526,
              -34.6645729
            ],
            [
              -58.4703439,
              -34.6644981
            ],
            [
              -58.4704251,
              -34.6643622
            ],
            [
              -58.4704224,
              -34.6642227
            ],
            [
              -58.4704628,
              -34.6641514
            ],
            [
              -58.4704474,
              -34.6640217
            ],
            [
              -58.4704434,
              -34.6639113
            ],
            [
              -58.4704235,
              -34.6638283
            ],
            [
              -58.4703729,
              -34.6637529
            ],
            [
              -58.4703109,
              -34.6636754
            ],
            [
              -58.4702665,
              -34.6636469
            ],
            [
              -58.4701253,
              -34.663603
            ],
            [
              -58.4700452,
              -34.6635809
            ],
            [
              -58.4699102,
              -34.6635814
            ],
            [
              -58.4697932,
              -34.6636004
            ],
            [
              -58.4696828,
              -34.663641
            ],
            [
              -58.4695482,
              -34.6637056
            ],
            [
              -58.4694536,
              -34.6637777
            ],
            [
              -58.4692409,
              -34.6638257
            ],
            [
              -58.4691135,
              -34.6638368
            ],
            [
              -58.4690263,
              -34.6638401
            ],
            [
              -58.4688958,
              -34.6638425
            ],
            [
              -58.4687419,
              -34.6638113
            ],
            [
              -58.4686509,
              -34.663775
            ],
            [
              -58.4685664,
              -34.6637292
            ],
            [
              -58.4684612,
              -34.6636494
            ],
            [
              -58.4683778,
              -34.6635784
            ],
            [
              -58.4681289,
              -34.6633677
            ],
            [
              -58.4678413,
              -34.6631244
            ],
            [
              -58.4678096,
              -34.6630976
            ],
            [
              -58.467484,
              -34.662822
            ],
            [
              -58.4673188,
              -34.6626822
            ],
            [
              -58.4671907,
              -34.6625731
            ],
            [
              -58.4660097,
              -34.6615596
            ],
            [
              -58.4656344,
              -34.6612346
            ],
            [
              -58.4653924,
              -34.6610085
            ],
            [
              -58.4649694,
              -34.6605729
            ],
            [
              -58.4646825,
              -34.6602878
            ],
            [
              -58.4644451,
              -34.6600723
            ],
            [
              -58.4649242,
              -34.6596631
            ],
            [
              -58.4653648,
              -34.6593033
            ],
            [
              -58.465827,
              -34.6589408
            ],
            [
              -58.4664355,
              -34.6584585
            ],
            [
              -58.4675946,
              -34.6575548
            ],
            [
              -58.4676548,
              -34.6575078
            ],
            [
              -58.4691527,
              -34.658742
            ],
            [
              -58.4695687,
              -34.6590844
            ],
            [
              -58.4696746,
              -34.6590137
            ],
            [
              -58.4698762,
              -34.6588789
            ],
            [
              -58.4701107,
              -34.6587193
            ],
            [
              -58.470573,
              -34.6584013
            ],
            [
              -58.4713277,
              -34.6600683
            ],
            [
              -58.4725102,
              -34.6627725
            ],
            [
              -58.4729838,
              -34.6624258
            ],
            [
              -58.4730716,
              -34.6623672
            ],
            [
              -58.4731188,
              -34.6623356
            ],
            [
              -58.4733984,
              -34.6621064
            ],
            [
              -58.4734251,
              -34.6620852
            ],
            [
              -58.4734852,
              -34.6620375
            ],
            [
              -58.4736292,
              -34.6619233
            ],
            [
              -58.4743196,
              -34.6613694
            ],
            [
              -58.474533,
              -34.6612127
            ],
            [
              -58.4749899,
              -34.6608463
            ],
            [
              -58.4751129,
              -34.6607538
            ],
            [
              -58.4758776,
              -34.6601558
            ],
            [
              -58.4766012,
              -34.6595824
            ],
            [
              -58.4768184,
              -34.6594114
            ],
            [
              -58.4770428,
              -34.6592348
            ],
            [
              -58.4772509,
              -34.6590713
            ],
            [
              -58.477902,
              -34.6585598
            ],
            [
              -58.4782691,
              -34.6582714
            ],
            [
              -58.4784824,
              -34.6581039
            ],
            [
              -58.4786039,
              -34.6580084
            ],
            [
              -58.4786904,
              -34.6579308
            ],
            [
              -58.4787747,
              -34.6578342
            ],
            [
              -58.4793594,
              -34.6582058
            ],
            [
              -58.4796452,
              -34.6583901
            ],
            [
              -58.4798487,
              -34.6585171
            ],
            [
              -58.4802796,
              -34.6588198
            ],
            [
              -58.4805099,
              -34.6589735
            ],
            [
              -58.4808294,
              -34.6591749
            ],
            [
              -58.4814275,
              -34.6595518
            ],
            [
              -58.4823441,
              -34.6601398
            ],
            [
              -58.4832183,
              -34.6607104
            ],
            [
              -58.4841279,
              -34.6613204
            ],
            [
              -58.485023,
              -34.6618653
            ],
            [
              -58.4853565,
              -34.6620611
            ],
            [
              -58.4858664,
              -34.6623877
            ],
            [
              -58.4859545,
              -34.6624399
            ],
            [
              -58.4860543,
              -34.6624829
            ],
            [
              -58.4871176,
              -34.6627984
            ],
            [
              -58.4887742,
              -34.6632842
            ],
            [
              -58.4888533,
              -34.6633156
            ],
            [
              -58.4889267,
              -34.6633519
            ],
            [
              -58.4889881,
              -34.6633873
            ],
            [
              -58.4890491,
              -34.6634298
            ],
            [
              -58.4900858,
              -34.6643822
            ],
            [
              -58.4910167,
              -34.6652598
            ],
            [
              -58.4917577,
              -34.6659903
            ],
            [
              -58.4920122,
              -34.6662392
            ],
            [
              -58.4922741,
              -34.666507
            ],
            [
              -58.492566,
              -34.6668181
            ],
            [
              -58.4929035,
              -34.6671836
            ],
            [
              -58.4934621,
              -34.6677812
            ],
            [
              -58.4936191,
              -34.6679354
            ],
            [
              -58.4937237,
              -34.6680453
            ],
            [
              -58.4938073,
              -34.6681332
            ],
            [
              -58.4939478,
              -34.6682809
            ],
            [
              -58.4939821,
              -34.6683158
            ],
            [
              -58.4940484,
              -34.6683805
            ],
            [
              -58.4941202,
              -34.6684504
            ],
            [
              -58.4941903,
              -34.6685188
            ],
            [
              -58.4942429,
              -34.66857
            ],
            [
              -58.4943457,
              -34.6686752
            ],
            [
              -58.4945252,
              -34.6688492
            ],
            [
              -58.4947617,
              -34.6690793
            ],
            [
              -58.4948056,
              -34.6691217
            ],
            [
              -58.4951076,
              -34.6694136
            ],
            [
              -58.4953617,
              -34.6696594
            ],
            [
              -58.495638,
              -34.6699412
            ],
            [
              -58.4957434,
              -34.6700437
            ],
            [
              -58.4959453,
              -34.6702295
            ],
            [
              -58.4961167,
              -34.6703733
            ],
            [
              -58.4961891,
              -34.6704352
            ],
            [
              -58.4964245,
              -34.6706362
            ],
            [
              -58.4964592,
              -34.6706658
            ],
            [
              -58.49672,
              -34.6708874
            ],
            [
              -58.4969991,
              -34.6711234
            ],
            [
              -58.4974202,
              -34.6714376
            ],
            [
              -58.4979317,
              -34.6718089
            ],
            [
              -58.4980921,
              -34.6719169
            ],
            [
              -58.4982637,
              -34.6720371
            ],
            [
              -58.4987764,
              -34.6724119
            ],
            [
              -58.498931,
              -34.6725055
            ],
            [
              -58.499147,
              -34.6726346
            ],
            [
              -58.4997336,
              -34.6729469
            ],
            [
              -58.5001104,
              -34.6731468
            ],
            [
              -58.5006758,
              -34.6734529
            ],
            [
              -58.500862,
              -34.673552
            ],
            [
              -58.5010516,
              -34.6736528
            ],
            [
              -58.5011901,
              -34.6737252
            ],
            [
              -58.5012912,
              -34.673778
            ],
            [
              -58.5013732,
              -34.6738209
            ],
            [
              -58.5016587,
              -34.6739785
            ],
            [
              -58.501931,
              -34.6741288
            ],
            [
              -58.5022071,
              -34.6742816
            ],
            [
              -58.5025741,
              -34.6744857
            ],
            [
              -58.5024762,
              -34.6745612
            ],
            [
              -58.5021771,
              -34.6748066
            ],
            [
              -58.5002443,
              -34.6763633
            ],
            [
              -58.4992005,
              -34.6771429
            ],
            [
              -58.4991049,
              -34.6772191
            ],
            [
              -58.4989568,
              -34.6773244
            ],
            [
              -58.4988349,
              -34.6774204
            ],
            [
              -58.4986143,
              -34.67758
            ],
            [
              -58.4981341,
              -34.6779521
            ],
            [
              -58.4971201,
              -34.6787155
            ],
            [
              -58.4969992,
              -34.6788074
            ],
            [
              -58.49665,
              -34.6790764
            ],
            [
              -58.4961658,
              -34.6794407
            ],
            [
              -58.4953569,
              -34.6800448
            ],
            [
              -58.4947706,
              -34.6804933
            ],
            [
              -58.4945651,
              -34.6806516
            ],
            [
              -58.4942125,
              -34.6809198
            ],
            [
              -58.4941943,
              -34.6809329
            ],
            [
              -58.494032,
              -34.6810576
            ],
            [
              -58.4938691,
              -34.6811892
            ],
            [
              -58.4937536,
              -34.6812708
            ],
            [
              -58.4926753,
              -34.6820756
            ],
            [
              -58.492243,
              -34.6823914
            ],
            [
              -58.4918602,
              -34.6826906
            ],
            [
              -58.4918365,
              -34.6827056
            ],
            [
              -58.4916334,
              -34.6828691
            ],
            [
              -58.4910522,
              -34.6833116
            ],
            [
              -58.4909792,
              -34.6833541
            ],
            [
              -58.490698,
              -34.6835108
            ],
            [
              -58.4905894,
              -34.6835703
            ],
            [
              -58.4905397,
              -34.6836068
            ],
            [
              -58.4904976,
              -34.6836383
            ],
            [
              -58.490486,
              -34.6836472
            ],
            [
              -58.4901161,
              -34.6839318
            ],
            [
              -58.4899985,
              -34.684019
            ],
            [
              -58.4898299,
              -34.6841438
            ],
            [
              -58.4893344,
              -34.6845103
            ],
            [
              -58.4891717,
              -34.6846306
            ],
            [
              -58.4887826,
              -34.6849184
            ],
            [
              -58.4885623,
              -34.685126
            ],
            [
              -58.4883921,
              -34.6853144
            ],
            [
              -58.4882663,
              -34.6854778
            ],
            [
              -58.4881676,
              -34.685624
            ],
            [
              -58.4880523,
              -34.6858062
            ],
            [
              -58.4879846,
              -34.6859399
            ],
            [
              -58.4878897,
              -34.6861374
            ],
            [
              -58.4878186,
              -34.6863177
            ],
            [
              -58.4877735,
              -34.6864699
            ],
            [
              -58.4877506,
              -34.6865474
            ],
            [
              -58.4875564,
              -34.687022
            ],
            [
              -58.487427,
              -34.687326
            ],
            [
              -58.4873598,
              -34.6874588
            ],
            [
              -58.4872644,
              -34.6875949
            ],
            [
              -58.4869991,
              -34.687909
            ],
            [
              -58.4868284,
              -34.6880507
            ],
            [
              -58.4866093,
              -34.6882183
            ],
            [
              -58.4864642,
              -34.6883011
            ],
            [
              -58.4863119,
              -34.6883812
            ],
            [
              -58.486126,
              -34.688483
            ],
            [
              -58.4860001,
              -34.68853
            ],
            [
              -58.4857607,
              -34.6885982
            ],
            [
              -58.4853202,
              -34.6886945
            ],
            [
              -58.4848988,
              -34.6887865
            ],
            [
              -58.4839814,
              -34.6889809
            ],
            [
              -58.4836388,
              -34.689076
            ],
            [
              -58.483406,
              -34.6891409
            ],
            [
              -58.4833788,
              -34.6891135
            ],
            [
              -58.4824528,
              -34.6881672
            ],
            [
              -58.482434,
              -34.6881262
            ],
            [
              -58.4818699,
              -34.687644
            ],
            [
              -58.4811191,
              -34.6869518
            ],
            [
              -58.4803938,
              -34.6862809
            ],
            [
              -58.4796365,
              -34.6855894
            ],
            [
              -58.4788315,
              -34.6848596
            ],
            [
              -58.4781068,
              -34.6842083
            ],
            [
              -58.4773228,
              -34.6835097
            ],
            [
              -58.476552,
              -34.6828112
            ],
            [
              -58.4758197,
              -34.6821355
            ],
            [
              -58.4755661,
              -34.6823236
            ],
            [
              -58.4746362,
              -34.6830172
            ],
            [
              -58.4734259,
              -34.6839527
            ],
            [
              -58.4732388,
              -34.6840972
            ],
            [
              -58.472372,
              -34.6847925
            ],
            [
              -58.4723227,
              -34.6848321
            ],
            [
              -58.4717378,
              -34.6852674
            ],
            [
              -58.4710978,
              -34.6857631
            ],
            [
              -58.470038,
              -34.686604
            ],
            [
              -58.4699351,
              -34.6866837
            ],
            [
              -58.4695785,
              -34.6869537
            ],
            [
              -58.4687984,
              -34.6875507
            ],
            [
              -58.4680608,
              -34.6881255
            ],
            [
              -58.4676105,
              -34.688501
            ],
            [
              -58.4671953,
              -34.6888102
            ],
            [
              -58.467112,
              -34.6888723
            ],
            [
              -58.4670555,
              -34.6889161
            ],
            [
              -58.4664593,
              -34.6893792
            ],
            [
              -58.4661165,
              -34.6896507
            ],
            [
              -58.4658862,
              -34.6898322
            ],
            [
              -58.4653843,
              -34.6902131
            ],
            [
              -58.4652557,
              -34.6903143
            ],
            [
              -58.4649702,
              -34.6905375
            ],
            [
              -58.4641672,
              -34.6911588
            ],
            [
              -58.4640814,
              -34.691222
            ],
            [
              -58.4639804,
              -34.6912978
            ],
            [
              -58.4634889,
              -34.6916831
            ],
            [
              -58.4633829,
              -34.6917619
            ],
            [
              -58.4633155,
              -34.6916969
            ],
            [
              -58.4628135,
              -34.6912368
            ],
            [
              -58.4620115,
              -34.6905154
            ],
            [
              -58.4618911,
              -34.6904028
            ],
            [
              -58.4609753,
              -34.6895458
            ],
            [
              -58.460728,
              -34.689296
            ],
            [
              -58.4601236,
              -34.6887715
            ],
            [
              -58.4599186,
              -34.6885936
            ],
            [
              -58.4591074,
              -34.6878527
            ],
            [
              -58.4588353,
              -34.6875822
            ],
            [
              -58.4587448,
              -34.6874796
            ],
            [
              -58.4586955,
              -34.6874165
            ],
            [
              -58.4585068,
              -34.6871721
            ],
            [
              -58.458484,
              -34.6871412
            ],
            [
              -58.4584578,
              -34.6871114
            ],
            [
              -58.4583241,
              -34.6869808
            ],
            [
              -58.4577752,
              -34.6864544
            ],
            [
              -58.457662,
              -34.6863468
            ],
            [
              -58.4576381,
              -34.6863237
            ],
            [
              -58.4575036,
              -34.6862013
            ],
            [
              -58.4574866,
              -34.6861841
            ],
            [
              -58.4569807,
              -34.6857335
            ],
            [
              -58.4568437,
              -34.6856172
            ],
            [
              -58.4566495,
              -34.6854567
            ],
            [
              -58.4564569,
              -34.6853253
            ],
            [
              -58.4563823,
              -34.6852648
            ],
            [
              -58.456285,
              -34.6851965
            ],
            [
              -58.4562138,
              -34.6851462
            ],
            [
              -58.4559808,
              -34.6849539
            ],
            [
              -58.4554254,
              -34.6844449
            ],
            [
              -58.454016,
              -34.6831387
            ],
            [
              -58.4533281,
              -34.6825012
            ],
            [
              -58.4518067,
              -34.6811096
            ],
            [
              -58.4517517,
              -34.6810594
            ],
            [
              -58.4516934,
              -34.6810065
            ],
            [
              -58.4512586,
              -34.68061
            ],
            [
              -58.4509603,
              -34.6803627
            ],
            [
              -58.4508682,
              -34.680273
            ],
            [
              -58.4507281,
              -34.6801367
            ],
            [
              -58.4507247,
              -34.6800347
            ],
            [
              -58.450725,
              -34.6799725
            ],
            [
              -58.4507336,
              -34.6799215
            ],
            [
              -58.4507523,
              -34.6798726
            ],
            [
              -58.4507927,
              -34.6798148
            ],
            [
              -58.4508427,
              -34.6797643
            ],
            [
              -58.4511776,
              -34.6794856
            ],
            [
              -58.4513697,
              -34.6793371
            ],
            [
              -58.4514725,
              -34.6792577
            ],
            [
              -58.4530814,
              -34.6779931
            ],
            [
              -58.453146,
              -34.6779424
            ],
            [
              -58.4538802,
              -34.6773661
            ],
            [
              -58.4541983,
              -34.677116
            ],
            [
              -58.454989,
              -34.6764979
            ],
            [
              -58.4550152,
              -34.6764775
            ],
            [
              -58.4552036,
              -34.6763264
            ],
            [
              -58.4559505,
              -34.675758
            ],
            [
              -58.4564154,
              -34.6753927
            ],
            [
              -58.456466,
              -34.6753546
            ],
            [
              -58.4566108,
              -34.6752396
            ],
            [
              -58.4575692,
              -34.67448
            ],
            [
              -58.4575999,
              -34.6744538
            ],
            [
              -58.4577593,
              -34.6743272
            ],
            [
              -58.4581268,
              -34.6740629
            ],
            [
              -58.4581684,
              -34.674039
            ],
            [
              -58.4584109,
              -34.6739055
            ],
            [
              -58.4584536,
              -34.673886
            ],
            [
              -58.4585116,
              -34.6738648
            ],
            [
              -58.4586161,
              -34.6738305
            ],
            [
              -58.4587411,
              -34.6737949
            ],
            [
              -58.4589654,
              -34.6737373
            ],
            [
              -58.4590521,
              -34.6737386
            ],
            [
              -58.4592697,
              -34.6736976
            ],
            [
              -58.459457,
              -34.6735976
            ],
            [
              -58.459591,
              -34.6734508
            ],
            [
              -58.4596554,
              -34.673275
            ]
          ]
        ]
      },
      "id": "relation/2223126"
    },
    {
      "type": "Feature",
      "properties": {
        "@id": "relation/2223172",
        "admin_level": "9",
        "boundary": "administrative",
        "name": "Villa Soldati",
        "type": "boundary",
        "wikidata": "Q1686228",
        "wikipedia": "es:Villa Soldati (Buenos Aires)"
      },
      "geometry": {
        "type": "Polygon",
        "coordinates": [
          [
            [
              -58.4384049,
              -34.6554813
            ],
            [
              -58.4385079,
              -34.6553994
            ],
            [
              -58.4393475,
              -34.6547239
            ],
            [
              -58.4395133,
              -34.6545903
            ],
            [
              -58.4396156,
              -34.6545089
            ],
            [
              -58.4397215,
              -34.6544265
            ],
            [
              -58.4404265,
              -34.6538817
            ],
            [
              -58.4410386,
              -34.6534206
            ],
            [
              -58.4414991,
              -34.6530591
            ],
            [
              -58.4415676,
              -34.653004
            ],
            [
              -58.4416686,
              -34.652918
            ],
            [
              -58.4417303,
              -34.6528698
            ],
            [
              -58.4430277,
              -34.6518767
            ],
            [
              -58.4431851,
              -34.6516922
            ],
            [
              -58.4432691,
              -34.651506
            ],
            [
              -58.4433023,
              -34.6514042
            ],
            [
              -58.443301,
              -34.6513094
            ],
            [
              -58.4432557,
              -34.6512223
            ],
            [
              -58.443238,
              -34.6512039
            ],
            [
              -58.4432088,
              -34.6511749
            ],
            [
              -58.4431983,
              -34.6511657
            ],
            [
              -58.4431476,
              -34.6511266
            ],
            [
              -58.443205,
              -34.6511346
            ],
            [
              -58.4433097,
              -34.6511493
            ],
            [
              -58.4434413,
              -34.6511556
            ],
            [
              -58.4435979,
              -34.6511402
            ],
            [
              -58.4436534,
              -34.6511242
            ],
            [
              -58.4441513,
              -34.6510771
            ],
            [
              -58.444318,
              -34.6510567
            ],
            [
              -58.4444378,
              -34.6510378
            ],
            [
              -58.4445151,
              -34.651028
            ],
            [
              -58.4445784,
              -34.6510257
            ],
            [
              -58.4448214,
              -34.6510378
            ],
            [
              -58.4449796,
              -34.6510464
            ],
            [
              -58.4453557,
              -34.6510624
            ],
            [
              -58.4490435,
              -34.6511872
            ],
            [
              -58.4507666,
              -34.6511925
            ],
            [
              -58.45158,
              -34.6511539
            ],
            [
              -58.4527257,
              -34.6510656
            ],
            [
              -58.4533412,
              -34.6510014
            ],
            [
              -58.454432,
              -34.6508817
            ],
            [
              -58.4544695,
              -34.6508788
            ],
            [
              -58.4546463,
              -34.6508593
            ],
            [
              -58.454668,
              -34.6511184
            ],
            [
              -58.4547081,
              -34.651198
            ],
            [
              -58.4547236,
              -34.6512595
            ],
            [
              -58.4548374,
              -34.6518894
            ],
            [
              -58.4548792,
              -34.6520167
            ],
            [
              -58.4549415,
              -34.6521357
            ],
            [
              -58.4550025,
              -34.652224
            ],
            [
              -58.4550757,
              -34.652306
            ],
            [
              -58.4569234,
              -34.6538647
            ],
            [
              -58.4569936,
              -34.6539286
            ],
            [
              -58.4571203,
              -34.6540402
            ],
            [
              -58.457512,
              -34.6543858
            ],
            [
              -58.4578635,
              -34.6547025
            ],
            [
              -58.4580575,
              -34.6548789
            ],
            [
              -58.4586798,
              -34.6554222
            ],
            [
              -58.4588268,
              -34.6555287
            ],
            [
              -58.4591317,
              -34.6557515
            ],
            [
              -58.4592196,
              -34.6558166
            ],
            [
              -58.4604125,
              -34.6568349
            ],
            [
              -58.4604738,
              -34.6568872
            ],
            [
              -58.4605658,
              -34.6569707
            ],
            [
              -58.4606955,
              -34.6571088
            ],
            [
              -58.460835,
              -34.6572519
            ],
            [
              -58.4613552,
              -34.6576783
            ],
            [
              -58.4619768,
              -34.6581691
            ],
            [
              -58.4623876,
              -34.6585074
            ],
            [
              -58.4626045,
              -34.6586726
            ],
            [
              -58.4631078,
              -34.6590247
            ],
            [
              -58.4631774,
              -34.659077
            ],
            [
              -58.4640686,
              -34.6597548
            ],
            [
              -58.4644451,
              -34.6600723
            ],
            [
              -58.4646825,
              -34.6602878
            ],
            [
              -58.4649694,
              -34.6605729
            ],
            [
              -58.4653924,
              -34.6610085
            ],
            [
              -58.4656344,
              -34.6612346
            ],
            [
              -58.4660097,
              -34.6615596
            ],
            [
              -58.4671907,
              -34.6625731
            ],
            [
              -58.4673188,
              -34.6626822
            ],
            [
              -58.467484,
              -34.662822
            ],
            [
              -58.4678096,
              -34.6630976
            ],
            [
              -58.4678413,
              -34.6631244
            ],
            [
              -58.4681289,
              -34.6633677
            ],
            [
              -58.4683778,
              -34.6635784
            ],
            [
              -58.4684612,
              -34.6636494
            ],
            [
              -58.4685664,
              -34.6637292
            ],
            [
              -58.4686509,
              -34.663775
            ],
            [
              -58.4687419,
              -34.6638113
            ],
            [
              -58.4688958,
              -34.6638425
            ],
            [
              -58.4690263,
              -34.6638401
            ],
            [
              -58.4691135,
              -34.6638368
            ],
            [
              -58.4692409,
              -34.6638257
            ],
            [
              -58.4694536,
              -34.6637777
            ],
            [
              -58.4695482,
              -34.6637056
            ],
            [
              -58.4696828,
              -34.663641
            ],
            [
              -58.4697932,
              -34.6636004
            ],
            [
              -58.4699102,
              -34.6635814
            ],
            [
              -58.4700452,
              -34.6635809
            ],
            [
              -58.4701253,
              -34.663603
            ],
            [
              -58.4702665,
              -34.6636469
            ],
            [
              -58.4703109,
              -34.6636754
            ],
            [
              -58.4703729,
              -34.6637529
            ],
            [
              -58.4704235,
              -34.6638283
            ],
            [
              -58.4704434,
              -34.6639113
            ],
            [
              -58.4704474,
              -34.6640217
            ],
            [
              -58.4704628,
              -34.6641514
            ],
            [
              -58.4704224,
              -34.6642227
            ],
            [
              -58.4704251,
              -34.6643622
            ],
            [
              -58.4703439,
              -34.6644981
            ],
            [
              -58.4702526,
              -34.6645729
            ],
            [
              -58.4701597,
              -34.6646472
            ],
            [
              -58.4697653,
              -34.6649432
            ],
            [
              -58.4691408,
              -34.6654621
            ],
            [
              -58.4684008,
              -34.6660074
            ],
            [
              -58.4682506,
              -34.666124
            ],
            [
              -58.4679174,
              -34.6663866
            ],
            [
              -58.4658494,
              -34.6679916
            ],
            [
              -58.4649358,
              -34.6687155
            ],
            [
              -58.4636241,
              -34.6691808
            ],
            [
              -58.4635234,
              -34.6692161
            ],
            [
              -58.4634269,
              -34.6692585
            ],
            [
              -58.4632821,
              -34.6693428
            ],
            [
              -58.463155,
              -34.6694447
            ],
            [
              -58.4630488,
              -34.6695615
            ],
            [
              -58.4630034,
              -34.6696262
            ],
            [
              -58.4629644,
              -34.6696936
            ],
            [
              -58.4625338,
              -34.6702371
            ],
            [
              -58.4623973,
              -34.6703948
            ],
            [
              -58.4622566,
              -34.6705378
            ],
            [
              -58.4600223,
              -34.6725629
            ],
            [
              -58.4598912,
              -34.6727058
            ],
            [
              -58.4598641,
              -34.6727491
            ],
            [
              -58.4597891,
              -34.6728675
            ],
            [
              -58.4596593,
              -34.6731921
            ],
            [
              -58.4596554,
              -34.673275
            ],
            [
              -58.459591,
              -34.6734508
            ],
            [
              -58.459457,
              -34.6735976
            ],
            [
              -58.4592697,
              -34.6736976
            ],
            [
              -58.4590521,
              -34.6737386
            ],
            [
              -58.4589654,
              -34.6737373
            ],
            [
              -58.4587411,
              -34.6737949
            ],
            [
              -58.4586161,
              -34.6738305
            ],
            [
              -58.4585116,
              -34.6738648
            ],
            [
              -58.4584536,
              -34.673886
            ],
            [
              -58.4584109,
              -34.6739055
            ],
            [
              -58.4581684,
              -34.674039
            ],
            [
              -58.4581268,
              -34.6740629
            ],
            [
              -58.4577593,
              -34.6743272
            ],
            [
              -58.4575999,
              -34.6744538
            ],
            [
              -58.4575692,
              -34.67448
            ],
            [
              -58.4566108,
              -34.6752396
            ],
            [
              -58.456466,
              -34.6753546
            ],
            [
              -58.4564154,
              -34.6753927
            ],
            [
              -58.4559505,
              -34.675758
            ],
            [
              -58.4552036,
              -34.6763264
            ],
            [
              -58.4550152,
              -34.6764775
            ],
            [
              -58.454989,
              -34.6764979
            ],
            [
              -58.4541983,
              -34.677116
            ],
            [
              -58.4538802,
              -34.6773661
            ],
            [
              -58.453146,
              -34.6779424
            ],
            [
              -58.4530814,
              -34.6779931
            ],
            [
              -58.4514725,
              -34.6792577
            ],
            [
              -58.4513697,
              -34.6793371
            ],
            [
              -58.4511776,
              -34.6794856
            ],
            [
              -58.4508427,
              -34.6797643
            ],
            [
              -58.4507927,
              -34.6798148
            ],
            [
              -58.4507523,
              -34.6798726
            ],
            [
              -58.4507336,
              -34.6799215
            ],
            [
              -58.450725,
              -34.6799725
            ],
            [
              -58.4507247,
              -34.6800347
            ],
            [
              -58.4507281,
              -34.6801367
            ],
            [
              -58.4508682,
              -34.680273
            ],
            [
              -58.4509603,
              -34.6803627
            ],
            [
              -58.4510777,
              -34.6805559
            ],
            [
              -58.4511125,
              -34.6806201
            ],
            [
              -58.4511251,
              -34.6806876
            ],
            [
              -58.4511166,
              -34.6807362
            ],
            [
              -58.4510874,
              -34.680778
            ],
            [
              -58.4510268,
              -34.6808173
            ],
            [
              -58.4509627,
              -34.6808307
            ],
            [
              -58.45089,
              -34.6808355
            ],
            [
              -58.4508168,
              -34.6808316
            ],
            [
              -58.4507457,
              -34.6808201
            ],
            [
              -58.45041,
              -34.6805037
            ],
            [
              -58.4503062,
              -34.6804712
            ],
            [
              -58.450203,
              -34.6804532
            ],
            [
              -58.4500985,
              -34.6804533
            ],
            [
              -58.4499778,
              -34.6804871
            ],
            [
              -58.449884,
              -34.6805376
            ],
            [
              -58.4492902,
              -34.6809864
            ],
            [
              -58.4462608,
              -34.6833544
            ],
            [
              -58.444485,
              -34.6847582
            ],
            [
              -58.4443676,
              -34.684851
            ],
            [
              -58.4439141,
              -34.6850519
            ],
            [
              -58.4417609,
              -34.6826933
            ],
            [
              -58.4407894,
              -34.6818109
            ],
            [
              -58.4403473,
              -34.681354
            ],
            [
              -58.4400539,
              -34.6808326
            ],
            [
              -58.440024,
              -34.6806389
            ],
            [
              -58.4390229,
              -34.6792185
            ],
            [
              -58.437362,
              -34.6773259
            ],
            [
              -58.436,
              -34.675657
            ],
            [
              -58.4351074,
              -34.674619
            ],
            [
              -58.4340286,
              -34.6734441
            ],
            [
              -58.4334356,
              -34.6727328
            ],
            [
              -58.4327154,
              -34.6718709
            ],
            [
              -58.4319164,
              -34.6709413
            ],
            [
              -58.4318447,
              -34.6708579
            ],
            [
              -58.4313951,
              -34.6703152
            ],
            [
              -58.4311983,
              -34.6700736
            ],
            [
              -58.4310539,
              -34.6698963
            ],
            [
              -58.4305906,
              -34.669345
            ],
            [
              -58.4296446,
              -34.6681732
            ],
            [
              -58.4289268,
              -34.6673649
            ],
            [
              -58.4280156,
              -34.6662654
            ],
            [
              -58.4273548,
              -34.6654695
            ],
            [
              -58.4265327,
              -34.6645449
            ],
            [
              -58.4252836,
              -34.6634302
            ],
            [
              -58.4243303,
              -34.6627552
            ],
            [
              -58.4236974,
              -34.6623015
            ],
            [
              -58.4239588,
              -34.6620094
            ],
            [
              -58.424706,
              -34.6611744
            ],
            [
              -58.4249326,
              -34.6608817
            ],
            [
              -58.4249647,
              -34.6608403
            ],
            [
              -58.4250471,
              -34.6607456
            ],
            [
              -58.4256526,
              -34.6600495
            ],
            [
              -58.4257249,
              -34.6599664
            ],
            [
              -58.4257755,
              -34.6599019
            ],
            [
              -58.4263342,
              -34.6591898
            ],
            [
              -58.4264372,
              -34.6590584
            ],
            [
              -58.4264836,
              -34.6589968
            ],
            [
              -58.4265297,
              -34.6589356
            ],
            [
              -58.426702,
              -34.6587198
            ],
            [
              -58.4267493,
              -34.6586647
            ],
            [
              -58.4268648,
              -34.6585744
            ],
            [
              -58.4270264,
              -34.6584482
            ],
            [
              -58.4271167,
              -34.6583776
            ],
            [
              -58.4272163,
              -34.6583129
            ],
            [
              -58.4278845,
              -34.6578789
            ],
            [
              -58.427993,
              -34.6578084
            ],
            [
              -58.4280785,
              -34.6577444
            ],
            [
              -58.4287434,
              -34.6572469
            ],
            [
              -58.4288258,
              -34.6571853
            ],
            [
              -58.4289115,
              -34.6571239
            ],
            [
              -58.4295797,
              -34.6566457
            ],
            [
              -58.4296684,
              -34.6565822
            ],
            [
              -58.4297577,
              -34.6565146
            ],
            [
              -58.4306941,
              -34.655806
            ],
            [
              -58.4307476,
              -34.6557658
            ],
            [
              -58.430969,
              -34.6556193
            ],
            [
              -58.4312589,
              -34.6554191
            ],
            [
              -58.4313438,
              -34.6553604
            ],
            [
              -58.4318816,
              -34.6549685
            ],
            [
              -58.4319938,
              -34.6548867
            ],
            [
              -58.4321032,
              -34.6548073
            ],
            [
              -58.4329888,
              -34.6541647
            ],
            [
              -58.433063,
              -34.6541108
            ],
            [
              -58.4331665,
              -34.654034
            ],
            [
              -58.4343217,
              -34.6531776
            ],
            [
              -58.4344318,
              -34.6530959
            ],
            [
              -58.434505,
              -34.6531542
            ],
            [
              -58.4350782,
              -34.653602
            ],
            [
              -58.4351431,
              -34.6536523
            ],
            [
              -58.4360377,
              -34.6543577
            ],
            [
              -58.4361965,
              -34.6544652
            ],
            [
              -58.4370606,
              -34.6550439
            ],
            [
              -58.4372435,
              -34.6551757
            ],
            [
              -58.4379026,
              -34.655713
            ],
            [
              -58.4380019,
              -34.6557902
            ],
            [
              -58.4382226,
              -34.655621
            ],
            [
              -58.4384049,
              -34.6554813
            ]
          ]
        ]
      },
      "id": "relation/2223172"
    },
    {
      "type": "Feature",
      "properties": {
        "@id": "relation/2223176",
        "admin_level": "9",
        "boundary": "administrative",
        "name": "Villa Riachuelo",
        "type": "boundary",
        "wikidata": "Q1026678",
        "wikipedia": "es:Villa Riachuelo"
      },
      "geometry": {
        "type": "Polygon",
        "coordinates": [
          [
            [
              -58.4507457,
              -34.6808201
            ],
            [
              -58.4508168,
              -34.6808316
            ],
            [
              -58.45089,
              -34.6808355
            ],
            [
              -58.4509627,
              -34.6808307
            ],
            [
              -58.4510268,
              -34.6808173
            ],
            [
              -58.4510874,
              -34.680778
            ],
            [
              -58.4511166,
              -34.6807362
            ],
            [
              -58.4511251,
              -34.6806876
            ],
            [
              -58.4511125,
              -34.6806201
            ],
            [
              -58.4510777,
              -34.6805559
            ],
            [
              -58.4509603,
              -34.6803627
            ],
            [
              -58.4512586,
              -34.68061
            ],
            [
              -58.4516934,
              -34.6810065
            ],
            [
              -58.4517517,
              -34.6810594
            ],
            [
              -58.4518067,
              -34.6811096
            ],
            [
              -58.4533281,
              -34.6825012
            ],
            [
              -58.454016,
              -34.6831387
            ],
            [
              -58.4554254,
              -34.6844449
            ],
            [
              -58.4559808,
              -34.6849539
            ],
            [
              -58.4562138,
              -34.6851462
            ],
            [
              -58.456285,
              -34.6851965
            ],
            [
              -58.4563823,
              -34.6852648
            ],
            [
              -58.4564569,
              -34.6853253
            ],
            [
              -58.4566495,
              -34.6854567
            ],
            [
              -58.4568437,
              -34.6856172
            ],
            [
              -58.4569807,
              -34.6857335
            ],
            [
              -58.4574866,
              -34.6861841
            ],
            [
              -58.4575036,
              -34.6862013
            ],
            [
              -58.4576381,
              -34.6863237
            ],
            [
              -58.457662,
              -34.6863468
            ],
            [
              -58.4577752,
              -34.6864544
            ],
            [
              -58.4583241,
              -34.6869808
            ],
            [
              -58.4584578,
              -34.6871114
            ],
            [
              -58.458484,
              -34.6871412
            ],
            [
              -58.4585068,
              -34.6871721
            ],
            [
              -58.4586955,
              -34.6874165
            ],
            [
              -58.4587448,
              -34.6874796
            ],
            [
              -58.4588353,
              -34.6875822
            ],
            [
              -58.4591074,
              -34.6878527
            ],
            [
              -58.4599186,
              -34.6885936
            ],
            [
              -58.4601236,
              -34.6887715
            ],
            [
              -58.460728,
              -34.689296
            ],
            [
              -58.4609753,
              -34.6895458
            ],
            [
              -58.4618911,
              -34.6904028
            ],
            [
              -58.4620115,
              -34.6905154
            ],
            [
              -58.4628135,
              -34.6912368
            ],
            [
              -58.4633155,
              -34.6916969
            ],
            [
              -58.4633829,
              -34.6917619
            ],
            [
              -58.4634889,
              -34.6916831
            ],
            [
              -58.4639804,
              -34.6912978
            ],
            [
              -58.4640814,
              -34.691222
            ],
            [
              -58.4641672,
              -34.6911588
            ],
            [
              -58.4649702,
              -34.6905375
            ],
            [
              -58.4652557,
              -34.6903143
            ],
            [
              -58.4653843,
              -34.6902131
            ],
            [
              -58.4658862,
              -34.6898322
            ],
            [
              -58.4661165,
              -34.6896507
            ],
            [
              -58.4664593,
              -34.6893792
            ],
            [
              -58.4670555,
              -34.6889161
            ],
            [
              -58.467112,
              -34.6888723
            ],
            [
              -58.4671953,
              -34.6888102
            ],
            [
              -58.4676105,
              -34.688501
            ],
            [
              -58.4680608,
              -34.6881255
            ],
            [
              -58.4687984,
              -34.6875507
            ],
            [
              -58.4695785,
              -34.6869537
            ],
            [
              -58.4699351,
              -34.6866837
            ],
            [
              -58.470038,
              -34.686604
            ],
            [
              -58.4710978,
              -34.6857631
            ],
            [
              -58.4717378,
              -34.6852674
            ],
            [
              -58.4723227,
              -34.6848321
            ],
            [
              -58.472372,
              -34.6847925
            ],
            [
              -58.4732388,
              -34.6840972
            ],
            [
              -58.4734259,
              -34.6839527
            ],
            [
              -58.4746362,
              -34.6830172
            ],
            [
              -58.4755661,
              -34.6823236
            ],
            [
              -58.4758197,
              -34.6821355
            ],
            [
              -58.476552,
              -34.6828112
            ],
            [
              -58.4773228,
              -34.6835097
            ],
            [
              -58.4781068,
              -34.6842083
            ],
            [
              -58.4788315,
              -34.6848596
            ],
            [
              -58.4796365,
              -34.6855894
            ],
            [
              -58.4803938,
              -34.6862809
            ],
            [
              -58.4811191,
              -34.6869518
            ],
            [
              -58.4818699,
              -34.687644
            ],
            [
              -58.482434,
              -34.6881262
            ],
            [
              -58.4824528,
              -34.6881672
            ],
            [
              -58.4833788,
              -34.6891135
            ],
            [
              -58.483406,
              -34.6891409
            ],
            [
              -58.4829143,
              -34.6893428
            ],
            [
              -58.4827176,
              -34.6894308
            ],
            [
              -58.4824886,
              -34.6895513
            ],
            [
              -58.4823421,
              -34.6896358
            ],
            [
              -58.4821132,
              -34.6897875
            ],
            [
              -58.4812925,
              -34.6904309
            ],
            [
              -58.4811937,
              -34.6905084
            ],
            [
              -58.4811447,
              -34.6905468
            ],
            [
              -58.4810431,
              -34.6906223
            ],
            [
              -58.4809289,
              -34.6907079
            ],
            [
              -58.4807841,
              -34.6908117
            ],
            [
              -58.4801611,
              -34.691263
            ],
            [
              -58.4797415,
              -34.6915752
            ],
            [
              -58.4795706,
              -34.6917058
            ],
            [
              -58.4794299,
              -34.6918147
            ],
            [
              -58.4792845,
              -34.6919411
            ],
            [
              -58.4788214,
              -34.692278
            ],
            [
              -58.4781148,
              -34.692831
            ],
            [
              -58.477634,
              -34.6931976
            ],
            [
              -58.4773738,
              -34.6933961
            ],
            [
              -58.4771036,
              -34.6935808
            ],
            [
              -58.4768727,
              -34.6937525
            ],
            [
              -58.4762326,
              -34.6942345
            ],
            [
              -58.4759625,
              -34.6944451
            ],
            [
              -58.4759078,
              -34.6944836
            ],
            [
              -58.4757628,
              -34.6945947
            ],
            [
              -58.4739135,
              -34.6959928
            ],
            [
              -58.4737808,
              -34.6960929
            ],
            [
              -58.4737479,
              -34.6961179
            ],
            [
              -58.4735192,
              -34.6962889
            ],
            [
              -58.4734038,
              -34.696375
            ],
            [
              -58.4719978,
              -34.6974436
            ],
            [
              -58.4712954,
              -34.6979741
            ],
            [
              -58.4710816,
              -34.6981525
            ],
            [
              -58.4708602,
              -34.6982988
            ],
            [
              -58.4706533,
              -34.6984768
            ],
            [
              -58.4705097,
              -34.698589
            ],
            [
              -58.4699668,
              -34.698976
            ],
            [
              -58.4684326,
              -34.7001363
            ],
            [
              -58.468412,
              -34.7001519
            ],
            [
              -58.4672214,
              -34.701054
            ],
            [
              -58.4671073,
              -34.7011389
            ],
            [
              -58.4665949,
              -34.7015267
            ],
            [
              -58.466499,
              -34.7015982
            ],
            [
              -58.4663773,
              -34.7016916
            ],
            [
              -58.4659117,
              -34.7020404
            ],
            [
              -58.4644742,
              -34.7031199
            ],
            [
              -58.4643394,
              -34.7032329
            ],
            [
              -58.4642095,
              -34.7033617
            ],
            [
              -58.4640886,
              -34.7035126
            ],
            [
              -58.4639762,
              -34.70368
            ],
            [
              -58.4639267,
              -34.7038161
            ],
            [
              -58.4639147,
              -34.703881
            ],
            [
              -58.4639117,
              -34.7039503
            ],
            [
              -58.4639372,
              -34.7041787
            ],
            [
              -58.4639355,
              -34.7042226
            ],
            [
              -58.4639238,
              -34.7042767
            ],
            [
              -58.463904,
              -34.7043156
            ],
            [
              -58.4638768,
              -34.7043587
            ],
            [
              -58.4637968,
              -34.7044403
            ],
            [
              -58.4636982,
              -34.7045097
            ],
            [
              -58.4624951,
              -34.7052611
            ],
            [
              -58.4618224,
              -34.7056904
            ],
            [
              -58.4616273,
              -34.7058155
            ],
            [
              -58.4609639,
              -34.7051422
            ],
            [
              -58.4609638,
              -34.7051421
            ],
            [
              -58.4604759,
              -34.7046377
            ],
            [
              -58.457843,
              -34.7015929
            ],
            [
              -58.4551927,
              -34.6984979
            ],
            [
              -58.453319,
              -34.6963097
            ],
            [
              -58.4531067,
              -34.6960468
            ],
            [
              -58.4516408,
              -34.6942316
            ],
            [
              -58.4510245,
              -34.6934685
            ],
            [
              -58.4507483,
              -34.6931196
            ],
            [
              -58.4503498,
              -34.6926162
            ],
            [
              -58.4469,
              -34.6886143
            ],
            [
              -58.4465745,
              -34.6882438
            ],
            [
              -58.4439141,
              -34.6850519
            ],
            [
              -58.4443676,
              -34.684851
            ],
            [
              -58.444485,
              -34.6847582
            ],
            [
              -58.4462608,
              -34.6833544
            ],
            [
              -58.4492902,
              -34.6809864
            ],
            [
              -58.449884,
              -34.6805376
            ],
            [
              -58.4499778,
              -34.6804871
            ],
            [
              -58.4500985,
              -34.6804533
            ],
            [
              -58.450203,
              -34.6804532
            ],
            [
              -58.4503062,
              -34.6804712
            ],
            [
              -58.45041,
              -34.6805037
            ],
            [
              -58.4507457,
              -34.6808201
            ]
          ]
        ]
      },
      "id": "relation/2223176"
    },
    {
      "type": "Feature",
      "properties": {
        "@id": "way/1428187919",
        "@relations": [
          {
            "role": "",
            "rel": 2223126,
            "reltags": {
              "admin_level": "9",
              "boundary": "administrative",
              "name": "Villa Lugano",
              "type": "boundary",
              "wikidata": "Q731094",
              "wikipedia": "es:Villa Lugano"
            }
          },
          {
            "role": "",
            "rel": 2223172,
            "reltags": {
              "admin_level": "9",
              "boundary": "administrative",
              "name": "Villa Soldati",
              "type": "boundary",
              "wikidata": "Q1686228",
              "wikipedia": "es:Villa Soldati (Buenos Aires)"
            }
          }
        ]
      },
      "geometry": {
        "type": "LineString",
        "coordinates": [
          [
            -58.4622566,
            -34.6705378
          ],
          [
            -58.4600223,
            -34.6725629
          ]
        ]
      },
      "id": "way/1428187919"
    },
    {
      "type": "Feature",
      "properties": {
        "@id": "way/139517433",
        "@relations": [
          {
            "role": "",
            "rel": 2223126,
            "reltags": {
              "admin_level": "9",
              "boundary": "administrative",
              "name": "Villa Lugano",
              "type": "boundary",
              "wikidata": "Q731094",
              "wikipedia": "es:Villa Lugano"
            }
          },
          {
            "role": "",
            "rel": 2223172,
            "reltags": {
              "admin_level": "9",
              "boundary": "administrative",
              "name": "Villa Soldati",
              "type": "boundary",
              "wikidata": "Q1686228",
              "wikipedia": "es:Villa Soldati (Buenos Aires)"
            }
          }
        ]
      },
      "geometry": {
        "type": "LineString",
        "coordinates": [
          [
            -58.4622566,
            -34.6705378
          ],
          [
            -58.4623973,
            -34.6703948
          ],
          [
            -58.4625338,
            -34.6702371
          ],
          [
            -58.4629644,
            -34.6696936
          ]
        ]
      },
      "id": "way/139517433"
    },
    {
      "type": "Feature",
      "properties": {
        "@id": "way/226642572",
        "@relations": [
          {
            "role": "",
            "rel": 2223126,
            "reltags": {
              "admin_level": "9",
              "boundary": "administrative",
              "name": "Villa Lugano",
              "type": "boundary",
              "wikidata": "Q731094",
              "wikipedia": "es:Villa Lugano"
            }
          },
          {
            "role": "",
            "rel": 2223172,
            "reltags": {
              "admin_level": "9",
              "boundary": "administrative",
              "name": "Villa Soldati",
              "type": "boundary",
              "wikidata": "Q1686228",
              "wikipedia": "es:Villa Soldati (Buenos Aires)"
            }
          }
        ]
      },
      "geometry": {
        "type": "LineString",
        "coordinates": [
          [
            -58.4629644,
            -34.6696936
          ],
          [
            -58.4630034,
            -34.6696262
          ],
          [
            -58.4630488,
            -34.6695615
          ],
          [
            -58.463155,
            -34.6694447
          ],
          [
            -58.4632821,
            -34.6693428
          ],
          [
            -58.4634269,
            -34.6692585
          ],
          [
            -58.4635234,
            -34.6692161
          ],
          [
            -58.4636241,
            -34.6691808
          ]
        ]
      },
      "id": "way/226642572"
    },
    {
      "type": "Feature",
      "properties": {
        "@id": "way/1428187916",
        "@relations": [
          {
            "role": "",
            "rel": 2223126,
            "reltags": {
              "admin_level": "9",
              "boundary": "administrative",
              "name": "Villa Lugano",
              "type": "boundary",
              "wikidata": "Q731094",
              "wikipedia": "es:Villa Lugano"
            }
          },
          {
            "role": "",
            "rel": 2223172,
            "reltags": {
              "admin_level": "9",
              "boundary": "administrative",
              "name": "Villa Soldati",
              "type": "boundary",
              "wikidata": "Q1686228",
              "wikipedia": "es:Villa Soldati (Buenos Aires)"
            }
          }
        ]
      },
      "geometry": {
        "type": "LineString",
        "coordinates": [
          [
            -58.4649358,
            -34.6687155
          ],
          [
            -58.4636241,
            -34.6691808
          ]
        ]
      },
      "id": "way/1428187916"
    },
    {
      "type": "Feature",
      "properties": {
        "@id": "way/229361100",
        "@relations": [
          {
            "role": "",
            "rel": 2223126,
            "reltags": {
              "admin_level": "9",
              "boundary": "administrative",
              "name": "Villa Lugano",
              "type": "boundary",
              "wikidata": "Q731094",
              "wikipedia": "es:Villa Lugano"
            }
          },
          {
            "role": "",
            "rel": 2223172,
            "reltags": {
              "admin_level": "9",
              "boundary": "administrative",
              "name": "Villa Soldati",
              "type": "boundary",
              "wikidata": "Q1686228",
              "wikipedia": "es:Villa Soldati (Buenos Aires)"
            }
          }
        ]
      },
      "geometry": {
        "type": "LineString",
        "coordinates": [
          [
            -58.4697653,
            -34.6649432
          ],
          [
            -58.4691408,
            -34.6654621
          ],
          [
            -58.4684008,
            -34.6660074
          ]
        ]
      },
      "id": "way/229361100"
    },
    {
      "type": "Feature",
      "properties": {
        "@id": "way/1323264413",
        "@relations": [
          {
            "role": "",
            "rel": 2223126,
            "reltags": {
              "admin_level": "9",
              "boundary": "administrative",
              "name": "Villa Lugano",
              "type": "boundary",
              "wikidata": "Q731094",
              "wikipedia": "es:Villa Lugano"
            }
          },
          {
            "role": "",
            "rel": 2223172,
            "reltags": {
              "admin_level": "9",
              "boundary": "administrative",
              "name": "Villa Soldati",
              "type": "boundary",
              "wikidata": "Q1686228",
              "wikipedia": "es:Villa Soldati (Buenos Aires)"
            }
          }
        ]
      },
      "geometry": {
        "type": "LineString",
        "coordinates": [
          [
            -58.4701597,
            -34.6646472
          ],
          [
            -58.4697653,
            -34.6649432
          ]
        ]
      },
      "id": "way/1323264413"
    },
    {
      "type": "Feature",
      "properties": {
        "@id": "way/1323264412",
        "@relations": [
          {
            "role": "",
            "rel": 2223126,
            "reltags": {
              "admin_level": "9",
              "boundary": "administrative",
              "name": "Villa Lugano",
              "type": "boundary",
              "wikidata": "Q731094",
              "wikipedia": "es:Villa Lugano"
            }
          },
          {
            "role": "",
            "rel": 2223172,
            "reltags": {
              "admin_level": "9",
              "boundary": "administrative",
              "name": "Villa Soldati",
              "type": "boundary",
              "wikidata": "Q1686228",
              "wikipedia": "es:Villa Soldati (Buenos Aires)"
            }
          }
        ]
      },
      "geometry": {
        "type": "LineString",
        "coordinates": [
          [
            -58.4703439,
            -34.6644981
          ],
          [
            -58.4702526,
            -34.6645729
          ],
          [
            -58.4701597,
            -34.6646472
          ]
        ]
      },
      "id": "way/1323264412"
    },
    {
      "type": "Feature",
      "properties": {
        "@id": "way/28677479",
        "@relations": [
          {
            "role": "",
            "rel": 2223126,
            "reltags": {
              "admin_level": "9",
              "boundary": "administrative",
              "name": "Villa Lugano",
              "type": "boundary",
              "wikidata": "Q731094",
              "wikipedia": "es:Villa Lugano"
            }
          },
          {
            "role": "",
            "rel": 2223172,
            "reltags": {
              "admin_level": "9",
              "boundary": "administrative",
              "name": "Villa Soldati",
              "type": "boundary",
              "wikidata": "Q1686228",
              "wikipedia": "es:Villa Soldati (Buenos Aires)"
            }
          }
        ]
      },
      "geometry": {
        "type": "LineString",
        "coordinates": [
          [
            -58.4704224,
            -34.6642227
          ],
          [
            -58.4704251,
            -34.6643622
          ],
          [
            -58.4703439,
            -34.6644981
          ]
        ]
      },
      "id": "way/28677479"
    },
    {
      "type": "Feature",
      "properties": {
        "@id": "way/47035465",
        "@relations": [
          {
            "role": "",
            "rel": 2223126,
            "reltags": {
              "admin_level": "9",
              "boundary": "administrative",
              "name": "Villa Lugano",
              "type": "boundary",
              "wikidata": "Q731094",
              "wikipedia": "es:Villa Lugano"
            }
          },
          {
            "role": "",
            "rel": 2223172,
            "reltags": {
              "admin_level": "9",
              "boundary": "administrative",
              "name": "Villa Soldati",
              "type": "boundary",
              "wikidata": "Q1686228",
              "wikipedia": "es:Villa Soldati (Buenos Aires)"
            }
          }
        ]
      },
      "geometry": {
        "type": "LineString",
        "coordinates": [
          [
            -58.4703109,
            -34.6636754
          ],
          [
            -58.4703729,
            -34.6637529
          ],
          [
            -58.4704235,
            -34.6638283
          ],
          [
            -58.4704434,
            -34.6639113
          ],
          [
            -58.4704474,
            -34.6640217
          ],
          [
            -58.4704628,
            -34.6641514
          ],
          [
            -58.4704224,
            -34.6642227
          ]
        ]
      },
      "id": "way/47035465"
    },
    {
      "type": "Feature",
      "properties": {
        "@id": "way/474486752",
        "@relations": [
          {
            "role": "",
            "rel": 2223126,
            "reltags": {
              "admin_level": "9",
              "boundary": "administrative",
              "name": "Villa Lugano",
              "type": "boundary",
              "wikidata": "Q731094",
              "wikipedia": "es:Villa Lugano"
            }
          },
          {
            "role": "",
            "rel": 2223172,
            "reltags": {
              "admin_level": "9",
              "boundary": "administrative",
              "name": "Villa Soldati",
              "type": "boundary",
              "wikidata": "Q1686228",
              "wikipedia": "es:Villa Soldati (Buenos Aires)"
            }
          }
        ]
      },
      "geometry": {
        "type": "LineString",
        "coordinates": [
          [
            -58.4702665,
            -34.6636469
          ],
          [
            -58.4703109,
            -34.6636754
          ]
        ]
      },
      "id": "way/474486752"
    },
    {
      "type": "Feature",
      "properties": {
        "@id": "way/47035721",
        "@relations": [
          {
            "role": "",
            "rel": 2223126,
            "reltags": {
              "admin_level": "9",
              "boundary": "administrative",
              "name": "Villa Lugano",
              "type": "boundary",
              "wikidata": "Q731094",
              "wikipedia": "es:Villa Lugano"
            }
          },
          {
            "role": "",
            "rel": 2223172,
            "reltags": {
              "admin_level": "9",
              "boundary": "administrative",
              "name": "Villa Soldati",
              "type": "boundary",
              "wikidata": "Q1686228",
              "wikipedia": "es:Villa Soldati (Buenos Aires)"
            }
          }
        ]
      },
      "geometry": {
        "type": "LineString",
        "coordinates": [
          [
            -58.4695482,
            -34.6637056
          ],
          [
            -58.4696828,
            -34.663641
          ],
          [
            -58.4697932,
            -34.6636004
          ],
          [
            -58.4699102,
            -34.6635814
          ],
          [
            -58.4700452,
            -34.6635809
          ],
          [
            -58.4701253,
            -34.663603
          ],
          [
            -58.4702665,
            -34.6636469
          ]
        ]
      },
      "id": "way/47035721"
    },
    {
      "type": "Feature",
      "properties": {
        "@id": "way/1428187915",
        "@relations": [
          {
            "role": "",
            "rel": 2223126,
            "reltags": {
              "admin_level": "9",
              "boundary": "administrative",
              "name": "Villa Lugano",
              "type": "boundary",
              "wikidata": "Q731094",
              "wikipedia": "es:Villa Lugano"
            }
          },
          {
            "role": "",
            "rel": 2223172,
            "reltags": {
              "admin_level": "9",
              "boundary": "administrative",
              "name": "Villa Soldati",
              "type": "boundary",
              "wikidata": "Q1686228",
              "wikipedia": "es:Villa Soldati (Buenos Aires)"
            }
          }
        ]
      },
      "geometry": {
        "type": "LineString",
        "coordinates": [
          [
            -58.4694536,
            -34.6637777
          ],
          [
            -58.4695482,
            -34.6637056
          ]
        ]
      },
      "id": "way/1428187915"
    },
    {
      "type": "Feature",
      "properties": {
        "@id": "way/166756113",
        "@relations": [
          {
            "role": "",
            "rel": 2223126,
            "reltags": {
              "admin_level": "9",
              "boundary": "administrative",
              "name": "Villa Lugano",
              "type": "boundary",
              "wikidata": "Q731094",
              "wikipedia": "es:Villa Lugano"
            }
          },
          {
            "role": "",
            "rel": 2223172,
            "reltags": {
              "admin_level": "9",
              "boundary": "administrative",
              "name": "Villa Soldati",
              "type": "boundary",
              "wikidata": "Q1686228",
              "wikipedia": "es:Villa Soldati (Buenos Aires)"
            }
          }
        ]
      },
      "geometry": {
        "type": "LineString",
        "coordinates": [
          [
            -58.4507281,
            -34.6801367
          ],
          [
            -58.4508682,
            -34.680273
          ],
          [
            -58.4509603,
            -34.6803627
          ]
        ]
      },
      "id": "way/166756113"
    },
    {
      "type": "Feature",
      "properties": {
        "@id": "way/1428187920",
        "@relations": [
          {
            "role": "",
            "rel": 2223126,
            "reltags": {
              "admin_level": "9",
              "boundary": "administrative",
              "name": "Villa Lugano",
              "type": "boundary",
              "wikidata": "Q731094",
              "wikipedia": "es:Villa Lugano"
            }
          },
          {
            "role": "",
            "rel": 2223172,
            "reltags": {
              "admin_level": "9",
              "boundary": "administrative",
              "name": "Villa Soldati",
              "type": "boundary",
              "wikidata": "Q1686228",
              "wikipedia": "es:Villa Soldati (Buenos Aires)"
            }
          }
        ]
      },
      "geometry": {
        "type": "LineString",
        "coordinates": [
          [
            -58.4600223,
            -34.6725629
          ],
          [
            -58.4598912,
            -34.6727058
          ],
          [
            -58.4598641,
            -34.6727491
          ],
          [
            -58.4597891,
            -34.6728675
          ],
          [
            -58.4596593,
            -34.6731921
          ]
        ]
      },
      "id": "way/1428187920"
    },
    {
      "type": "Feature",
      "properties": {
        "@id": "way/28494917",
        "@relations": [
          {
            "role": "",
            "rel": 2223172,
            "reltags": {
              "admin_level": "9",
              "boundary": "administrative",
              "name": "Villa Soldati",
              "type": "boundary",
              "wikidata": "Q1686228",
              "wikipedia": "es:Villa Soldati (Buenos Aires)"
            }
          }
        ]
      },
      "geometry": {
        "type": "LineString",
        "coordinates": [
          [
            -58.4604738,
            -34.6568872
          ],
          [
            -58.4605658,
            -34.6569707
          ],
          [
            -58.4606955,
            -34.6571088
          ],
          [
            -58.460835,
            -34.6572519
          ],
          [
            -58.4613552,
            -34.6576783
          ],
          [
            -58.4619768,
            -34.6581691
          ]
        ]
      },
      "id": "way/28494917"
    },
    {
      "type": "Feature",
      "properties": {
        "@id": "way/1428186263",
        "@relations": [
          {
            "role": "",
            "rel": 2223172,
            "reltags": {
              "admin_level": "9",
              "boundary": "administrative",
              "name": "Villa Soldati",
              "type": "boundary",
              "wikidata": "Q1686228",
              "wikipedia": "es:Villa Soldati (Buenos Aires)"
            }
          }
        ]
      },
      "geometry": {
        "type": "LineString",
        "coordinates": [
          [
            -58.4604125,
            -34.6568349
          ],
          [
            -58.4604738,
            -34.6568872
          ]
        ]
      },
      "id": "way/1428186263"
    },
    {
      "type": "Feature",
      "properties": {
        "@id": "way/28494916",
        "@relations": [
          {
            "role": "",
            "rel": 2223172,
            "reltags": {
              "admin_level": "9",
              "boundary": "administrative",
              "name": "Villa Soldati",
              "type": "boundary",
              "wikidata": "Q1686228",
              "wikipedia": "es:Villa Soldati (Buenos Aires)"
            }
          }
        ]
      },
      "geometry": {
        "type": "LineString",
        "coordinates": [
          [
            -58.4592196,
            -34.6558166
          ],
          [
            -58.4604125,
            -34.6568349
          ]
        ]
      },
      "id": "way/28494916"
    },
    {
      "type": "Feature",
      "properties": {
        "@id": "way/137063148",
        "@relations": [
          {
            "role": "",
            "rel": 2223172,
            "reltags": {
              "admin_level": "9",
              "boundary": "administrative",
              "name": "Villa Soldati",
              "type": "boundary",
              "wikidata": "Q1686228",
              "wikipedia": "es:Villa Soldati (Buenos Aires)"
            }
          }
        ]
      },
      "geometry": {
        "type": "LineString",
        "coordinates": [
          [
            -58.4435979,
            -34.6511402
          ],
          [
            -58.4434413,
            -34.6511556
          ],
          [
            -58.4433097,
            -34.6511493
          ],
          [
            -58.443205,
            -34.6511346
          ],
          [
            -58.4431476,
            -34.6511266
          ]
        ]
      },
      "id": "way/137063148"
    },
    {
      "type": "Feature",
      "properties": {
        "@id": "way/221572911",
        "@relations": [
          {
            "role": "",
            "rel": 2223172,
            "reltags": {
              "admin_level": "9",
              "boundary": "administrative",
              "name": "Villa Soldati",
              "type": "boundary",
              "wikidata": "Q1686228",
              "wikipedia": "es:Villa Soldati (Buenos Aires)"
            }
          }
        ]
      },
      "geometry": {
        "type": "LineString",
        "coordinates": [
          [
            -58.4416686,
            -34.652918
          ],
          [
            -58.4417303,
            -34.6528698
          ],
          [
            -58.4430277,
            -34.6518767
          ],
          [
            -58.4431851,
            -34.6516922
          ],
          [
            -58.4432691,
            -34.651506
          ],
          [
            -58.4433023,
            -34.6514042
          ],
          [
            -58.443301,
            -34.6513094
          ],
          [
            -58.4432557,
            -34.6512223
          ],
          [
            -58.443238,
            -34.6512039
          ],
          [
            -58.4432088,
            -34.6511749
          ],
          [
            -58.4431983,
            -34.6511657
          ],
          [
            -58.4431476,
            -34.6511266
          ]
        ]
      },
      "id": "way/221572911"
    },
    {
      "type": "Feature",
      "properties": {
        "@id": "way/221572908",
        "@relations": [
          {
            "role": "",
            "rel": 2223172,
            "reltags": {
              "admin_level": "9",
              "boundary": "administrative",
              "name": "Villa Soldati",
              "type": "boundary",
              "wikidata": "Q1686228",
              "wikipedia": "es:Villa Soldati (Buenos Aires)"
            }
          }
        ]
      },
      "geometry": {
        "type": "LineString",
        "coordinates": [
          [
            -58.4415676,
            -34.653004
          ],
          [
            -58.4416686,
            -34.652918
          ]
        ]
      },
      "id": "way/221572908"
    },
    {
      "type": "Feature",
      "properties": {
        "@id": "way/221575214",
        "@relations": [
          {
            "role": "",
            "rel": 2223172,
            "reltags": {
              "admin_level": "9",
              "boundary": "administrative",
              "name": "Villa Soldati",
              "type": "boundary",
              "wikidata": "Q1686228",
              "wikipedia": "es:Villa Soldati (Buenos Aires)"
            }
          }
        ]
      },
      "geometry": {
        "type": "LineString",
        "coordinates": [
          [
            -58.4395133,
            -34.6545903
          ],
          [
            -58.4396156,
            -34.6545089
          ],
          [
            -58.4397215,
            -34.6544265
          ],
          [
            -58.4404265,
            -34.6538817
          ],
          [
            -58.4410386,
            -34.6534206
          ],
          [
            -58.4414991,
            -34.6530591
          ],
          [
            -58.4415676,
            -34.653004
          ]
        ]
      },
      "id": "way/221575214"
    },
    {
      "type": "Feature",
      "properties": {
        "@id": "way/1313640799",
        "@relations": [
          {
            "role": "",
            "rel": 2223172,
            "reltags": {
              "admin_level": "9",
              "boundary": "administrative",
              "name": "Villa Soldati",
              "type": "boundary",
              "wikidata": "Q1686228",
              "wikipedia": "es:Villa Soldati (Buenos Aires)"
            }
          }
        ]
      },
      "geometry": {
        "type": "LineString",
        "coordinates": [
          [
            -58.4384049,
            -34.6554813
          ],
          [
            -58.4385079,
            -34.6553994
          ],
          [
            -58.4393475,
            -34.6547239
          ],
          [
            -58.4395133,
            -34.6545903
          ]
        ]
      },
      "id": "way/1313640799"
    },
    {
      "type": "Feature",
      "properties": {
        "@id": "way/1313640798",
        "@relations": [
          {
            "role": "",
            "rel": 2223172,
            "reltags": {
              "admin_level": "9",
              "boundary": "administrative",
              "name": "Villa Soldati",
              "type": "boundary",
              "wikidata": "Q1686228",
              "wikipedia": "es:Villa Soldati (Buenos Aires)"
            }
          }
        ]
      },
      "geometry": {
        "type": "LineString",
        "coordinates": [
          [
            -58.4382226,
            -34.655621
          ],
          [
            -58.4384049,
            -34.6554813
          ]
        ]
      },
      "id": "way/1313640798"
    },
    {
      "type": "Feature",
      "properties": {
        "@id": "way/1313640796",
        "@relations": [
          {
            "role": "",
            "rel": 2223172,
            "reltags": {
              "admin_level": "9",
              "boundary": "administrative",
              "name": "Villa Soldati",
              "type": "boundary",
              "wikidata": "Q1686228",
              "wikipedia": "es:Villa Soldati (Buenos Aires)"
            }
          }
        ]
      },
      "geometry": {
        "type": "LineString",
        "coordinates": [
          [
            -58.4380019,
            -34.6557902
          ],
          [
            -58.4382226,
            -34.655621
          ]
        ]
      },
      "id": "way/1313640796"
    },
    {
      "type": "Feature",
      "properties": {
        "@id": "node/1626383510",
        "@relations": [
          {
            "role": "label",
            "rel": 2223172,
            "reltags": {
              "admin_level": "9",
              "boundary": "administrative",
              "name": "Villa Soldati",
              "type": "boundary",
              "wikidata": "Q1686228",
              "wikipedia": "es:Villa Soldati (Buenos Aires)"
            }
          }
        ]
      },
      "geometry": {
        "type": "Point",
        "coordinates": [
          -58.4459552,
          -34.6662898
        ]
      },
      "id": "node/1626383510"
    },
    {
      "type": "Feature",
      "properties": {
        "@id": "node/1627104825",
        "@relations": [
          {
            "role": "label",
            "rel": 2223126,
            "reltags": {
              "admin_level": "9",
              "boundary": "administrative",
              "name": "Villa Lugano",
              "type": "boundary",
              "wikidata": "Q731094",
              "wikipedia": "es:Villa Lugano"
            }
          }
        ]
      },
      "geometry": {
        "type": "Point",
        "coordinates": [
          -58.4776892,
          -34.6741532
        ]
      },
      "id": "node/1627104825"
    },
    {
      "type": "Feature",
      "properties": {
        "@id": "node/1627105982",
        "@relations": [
          {
            "role": "label",
            "rel": 2223176,
            "reltags": {
              "admin_level": "9",
              "boundary": "administrative",
              "name": "Villa Riachuelo",
              "type": "boundary",
              "wikidata": "Q1026678",
              "wikipedia": "es:Villa Riachuelo"
            }
          }
        ]
      },
      "geometry": {
        "type": "Point",
        "coordinates": [
          -58.47145,
          -34.6912065
        ]
      },
      "id": "node/1627105982"
    }
  ]
}