{
  "type": "FeatureCollection",
  "generator": "overpass-turbo",
  "copyright": "The data included in this document is from www.openstreetmap.org. The data is made available under ODbL.",
  "timestamp": "2025-10-13T18:43:15Z",
  "features": [
    {
      "type": "Feature",
      "properties": {
        "@id": "relation/2224562",
        "admin_level": "9",
        "boundary": "administrative",
        "name": "Puerto Madero",
        "type": "boundary",
        "wikidata": "Q781553",
        "wikipedia": "es:Puerto Madero"
      },
      "geometry": {
        "type": "Polygon",
        "coordinates": [
          [
            [
              -58.3621095,
              -34.6238615
            ],
            [
              -58.3620311,
              -34.6237833
            ],
            [
              -58.3620006,
              -34.6237491
            ],
            [
              -58.3617115,
              -34.6234573
            ],
            [
              -58.3616663,
              -34.623405
            ],
            [
              -58.361529,
              -34.6233344
            ],
            [
              -58.3613145,
              -34.6231587
            ],
            [
              -58.3603421,
              -34.6221407
            ],
            [
              -58.360229,
              -34.6220215
            ],
            [
              -58.3601327,
              -34.6219205
            ],
            [
              -58.3596979,
              -34.6214604
            ],
            [
              -58.3592377,
              -34.6209535
            ],
            [
              -58.3590908,
              -34.6207911
            ],
            [
              -58.3589526,
              -34.6206811
            ],
            [
              -58.3588133,
              -34.6205448
            ],
            [
              -58.3587656,
              -34.6204993
            ],
            [
              -58.3578412,
              -34.6194953
            ],
            [
              -58.3577657,
              -34.619389
            ],
            [
              -58.3576898,
              -34.6192382
            ],
            [
              -58.3575706,
              -34.6191784
            ],
            [
              -58.3575238,
              -34.6191475
            ],
            [
              -58.3574802,
              -34.6191131
            ],
            [
              -58.3572302,
              -34.6188783
            ],
            [
              -58.3568115,
              -34.6184343
            ],
            [
              -58.3560224,
              -34.6176076
            ],
            [
              -58.3556859,
              -34.6183511
            ],
            [
              -58.3552228,
              -34.6193844
            ],
            [
              -58.3539142,
              -34.6193432
            ],
            [
              -58.3530724,
              -34.6192856
            ],
            [
              -58.3528611,
              -34.619261
            ],
            [
              -58.3513536,
              -34.6190763
            ],
            [
              -58.3513933,
              -34.6190119
            ],
            [
              -58.3514567,
              -34.618909
            ],
            [
              -58.3514063,
              -34.6188886
            ],
            [
              -58.3512983,
              -34.6188391
            ],
            [
              -58.3511912,
              -34.6187568
            ],
            [
              -58.3510576,
              -34.6186112
            ],
            [
              -58.3508064,
              -34.6183316
            ],
            [
              -58.3506375,
              -34.6182834
            ],
            [
              -58.3504436,
              -34.6182282
            ],
            [
              -58.3502811,
              -34.6179266
            ],
            [
              -58.3504048,
              -34.617668
            ],
            [
              -58.3497893,
              -34.617146
            ],
            [
              -58.3483945,
              -34.6169455
            ],
            [
              -58.3470239,
              -34.6171312
            ],
            [
              -58.3460042,
              -34.6174246
            ],
            [
              -58.3458875,
              -34.6174555
            ],
            [
              -58.3451862,
              -34.6176429
            ],
            [
              -58.344816,
              -34.6177204
            ],
            [
              -58.3445127,
              -34.6176643
            ],
            [
              -58.3434075,
              -34.6173641
            ],
            [
              -58.3428272,
              -34.6171261
            ],
            [
              -58.3424837,
              -34.617063
            ],
            [
              -58.3418691,
              -34.6170757
            ],
            [
              -58.3413895,
              -34.6170424
            ],
            [
              -58.3408837,
              -34.6169768
            ],
            [
              -58.340589,
              -34.6168233
            ],
            [
              -58.3403224,
              -34.6166431
            ],
            [
              -58.3400816,
              -34.6164268
            ],
            [
              -58.3398522,
              -34.6162059
            ],
            [
              -58.3397927,
              -34.6160404
            ],
            [
              -58.3397706,
              -34.615914
            ],
            [
              -58.3397467,
              -34.6153852
            ],
            [
              -58.3398015,
              -34.6150137
            ],
            [
              -58.33992,
              -34.6141566
            ],
            [
              -58.3400297,
              -34.613599
            ],
            [
              -58.3401459,
              -34.6130971
            ],
            [
              -58.3403645,
              -34.6122345
            ],
            [
              -58.3408249,
              -34.6107094
            ],
            [
              -58.3409419,
              -34.6105187
            ],
            [
              -58.3411888,
              -34.6102341
            ],
            [
              -58.3412998,
              -34.6100634
            ],
            [
              -58.3414543,
              -34.6098967
            ],
            [
              -58.3417515,
              -34.6096452
            ],
            [
              -58.3428303,
              -34.6088508
            ],
            [
              -58.3430211,
              -34.6086673
            ],
            [
              -58.3432286,
              -34.6085225
            ],
            [
              -58.3436634,
              -34.6082005
            ],
            [
              -58.3439875,
              -34.6079333
            ],
            [
              -58.3442122,
              -34.6078197
            ],
            [
              -58.344405,
              -34.6077483
            ],
            [
              -58.3452173,
              -34.6072504
            ],
            [
              -58.3456001,
              -34.6070197
            ],
            [
              -58.3457379,
              -34.6068789
            ],
            [
              -58.3458588,
              -34.6066848
            ],
            [
              -58.345948,
              -34.6064761
            ],
            [
              -58.3460893,
              -34.6061984
            ],
            [
              -58.3461057,
              -34.6059697
            ],
            [
              -58.3461298,
              -34.6057075
            ],
            [
              -58.3460492,
              -34.6056271
            ],
            [
              -58.3460748,
              -34.6054963
            ],
            [
              -58.3461079,
              -34.6052861
            ],
            [
              -58.3461143,
              -34.6050826
            ],
            [
              -58.3461582,
              -34.6048864
            ],
            [
              -58.3462623,
              -34.6047292
            ],
            [
              -58.3463504,
              -34.6045765
            ],
            [
              -58.3464236,
              -34.6042019
            ],
            [
              -58.3464674,
              -34.6038139
            ],
            [
              -58.3465329,
              -34.6036394
            ],
            [
              -58.3465971,
              -34.6034377
            ],
            [
              -58.3467136,
              -34.6032615
            ],
            [
              -58.3467324,
              -34.6031657
            ],
            [
              -58.3467337,
              -34.602956
            ],
            [
              -58.3467255,
              -34.6025251
            ],
            [
              -58.3467637,
              -34.6023891
            ],
            [
              -58.3468575,
              -34.6022647
            ],
            [
              -58.3469313,
              -34.6021096
            ],
            [
              -58.3471507,
              -34.6018378
            ],
            [
              -58.3472852,
              -34.6016933
            ],
            [
              -58.3474934,
              -34.6015857
            ],
            [
              -58.3477238,
              -34.6015324
            ],
            [
              -58.347873,
              -34.601471
            ],
            [
              -58.3479658,
              -34.6013499
            ],
            [
              -58.3481136,
              -34.6011511
            ],
            [
              -58.3482623,
              -34.6010265
            ],
            [
              -58.3484192,
              -34.6009482
            ],
            [
              -58.3486031,
              -34.6008738
            ],
            [
              -58.3487143,
              -34.6008311
            ],
            [
              -58.3488514,
              -34.6007321
            ],
            [
              -58.349069,
              -34.6005428
            ],
            [
              -58.3493794,
              -34.6003081
            ],
            [
              -58.3496342,
              -34.6001695
            ],
            [
              -58.3497783,
              -34.6000584
            ],
            [
              -58.3499655,
              -34.5998812
            ],
            [
              -58.350439,
              -34.5994621
            ],
            [
              -58.350578,
              -34.5992781
            ],
            [
              -58.350737,
              -34.5991467
            ],
            [
              -58.3510177,
              -34.599123
            ],
            [
              -58.3512433,
              -34.5990154
            ],
            [
              -58.3516271,
              -34.5987668
            ],
            [
              -58.3521764,
              -34.5982579
            ],
            [
              -58.3524017,
              -34.5980725
            ],
            [
              -58.3524777,
              -34.5979655
            ],
            [
              -58.3525153,
              -34.5979004
            ],
            [
              -58.3525836,
              -34.5978143
            ],
            [
              -58.3526427,
              -34.5977249
            ],
            [
              -58.3527218,
              -34.5976564
            ],
            [
              -58.3527929,
              -34.5975791
            ],
            [
              -58.3528304,
              -34.597493
            ],
            [
              -58.3528693,
              -34.5973926
            ],
            [
              -58.3529404,
              -34.5972833
            ],
            [
              -58.3530115,
              -34.5971398
            ],
            [
              -58.3530732,
              -34.5970349
            ],
            [
              -58.3531536,
              -34.5969499
            ],
            [
              -58.353214,
              -34.596898
            ],
            [
              -58.3532716,
              -34.5968516
            ],
            [
              -58.3533762,
              -34.5967655
            ],
            [
              -58.3534567,
              -34.5966949
            ],
            [
              -58.3536015,
              -34.5966032
            ],
            [
              -58.3536914,
              -34.5965469
            ],
            [
              -58.3538269,
              -34.5964586
            ],
            [
              -58.3539596,
              -34.596399
            ],
            [
              -58.3540937,
              -34.5963107
            ],
            [
              -58.3542587,
              -34.5962213
            ],
            [
              -58.3543941,
              -34.5961385
            ],
            [
              -58.3545913,
              -34.5960292
            ],
            [
              -58.3547992,
              -34.5959077
            ],
            [
              -58.3549199,
              -34.5958106
            ],
            [
              -58.3549963,
              -34.5957388
            ],
            [
              -58.3550687,
              -34.5956538
            ],
            [
              -58.3551398,
              -34.595624
            ],
            [
              -58.3551478,
              -34.5955556
            ],
            [
              -58.3552068,
              -34.5954761
            ],
            [
              -58.3553047,
              -34.5954319
            ],
            [
              -58.3553906,
              -34.5953734
            ],
            [
              -58.3554362,
              -34.5953138
            ],
            [
              -58.3555099,
              -34.5952498
            ],
            [
              -58.3556078,
              -34.5951869
            ],
            [
              -58.3557111,
              -34.5951637
            ],
            [
              -58.3557956,
              -34.5951637
            ],
            [
              -58.3559082,
              -34.5951416
            ],
            [
              -58.3560531,
              -34.5950908
            ],
            [
              -58.3561939,
              -34.5950588
            ],
            [
              -58.3562824,
              -34.5950511
            ],
            [
              -58.3563625,
              -34.5950298
            ],
            [
              -58.3592572,
              -34.5952449
            ],
            [
              -58.3602858,
              -34.5957106
            ],
            [
              -58.3611986,
              -34.5961239
            ],
            [
              -58.3614906,
              -34.5962561
            ],
            [
              -58.3631569,
              -34.5970106
            ],
            [
              -58.3631837,
              -34.5970459
            ],
            [
              -58.3633205,
              -34.5971122
            ],
            [
              -58.3635151,
              -34.5971466
            ],
            [
              -58.3635057,
              -34.597174
            ],
            [
              -58.3634628,
              -34.5972871
            ],
            [
              -58.3633094,
              -34.5976984
            ],
            [
              -58.3632913,
              -34.5977383
            ],
            [
              -58.3632787,
              -34.5977713
            ],
            [
              -58.3632646,
              -34.5978152
            ],
            [
              -58.3632549,
              -34.5978701
            ],
            [
              -58.3632503,
              -34.5979172
            ],
            [
              -58.3632494,
              -34.5979266
            ],
            [
              -58.3632568,
              -34.5981303
            ],
            [
              -58.3640611,
              -34.5981757
            ],
            [
              -58.3641906,
              -34.598175
            ],
            [
              -58.364332,
              -34.5981864
            ],
            [
              -58.3651131,
              -34.5982404
            ],
            [
              -58.3654899,
              -34.5982752
            ],
            [
              -58.3657707,
              -34.5982923
            ],
            [
              -58.3659281,
              -34.5982939
            ],
            [
              -58.3660519,
              -34.5982652
            ],
            [
              -58.3660786,
              -34.5982672
            ],
            [
              -58.3665916,
              -34.598309
            ],
            [
              -58.3666948,
              -34.598317
            ],
            [
              -58.3669503,
              -34.5982933
            ],
            [
              -58.3671841,
              -34.5983132
            ],
            [
              -58.3673048,
              -34.5983755
            ],
            [
              -58.3676871,
              -34.5983963
            ],
            [
              -58.3681139,
              -34.5984214
            ],
            [
              -58.3681861,
              -34.5984236
            ],
            [
              -58.3682877,
              -34.5984149
            ],
            [
              -58.3683224,
              -34.598413
            ],
            [
              -58.3685617,
              -34.5983733
            ],
            [
              -58.3685755,
              -34.5983712
            ],
            [
              -58.36863,
              -34.5983629
            ],
            [
              -58.3687843,
              -34.5983394
            ],
            [
              -58.3688614,
              -34.5983269
            ],
            [
              -58.3689583,
              -34.5983111
            ],
            [
              -58.3691734,
              -34.5982828
            ],
            [
              -58.3693397,
              -34.5982629
            ],
            [
              -58.3695429,
              -34.5982653
            ],
            [
              -58.3695,
              -34.5984033
            ],
            [
              -58.3693871,
              -34.5987687
            ],
            [
              -58.3691795,
              -34.5992565
            ],
            [
              -58.3691368,
              -34.5993495
            ],
            [
              -58.3691006,
              -34.5994282
            ],
            [
              -58.3687248,
              -34.6003268
            ],
            [
              -58.3686883,
              -34.6004141
            ],
            [
              -58.368658,
              -34.6004877
            ],
            [
              -58.3685051,
              -34.6008503
            ],
            [
              -58.3684699,
              -34.6009462
            ],
            [
              -58.3684448,
              -34.6010352
            ],
            [
              -58.368428,
              -34.601116
            ],
            [
              -58.3683684,
              -34.6015753
            ],
            [
              -58.3683633,
              -34.6016135
            ],
            [
              -58.3683428,
              -34.6017375
            ],
            [
              -58.3683352,
              -34.6018256
            ],
            [
              -58.3683102,
              -34.6020429
            ],
            [
              -58.3682502,
              -34.6025656
            ],
            [
              -58.3682357,
              -34.6026915
            ],
            [
              -58.3682194,
              -34.6028376
            ],
            [
              -58.3680027,
              -34.6049993
            ],
            [
              -58.3679998,
              -34.6050274
            ],
            [
              -58.3679826,
              -34.6051688
            ],
            [
              -58.3679594,
              -34.6053154
            ],
            [
              -58.3679377,
              -34.6055423
            ],
            [
              -58.3678034,
              -34.6068545
            ],
            [
              -58.3677849,
              -34.607015
            ],
            [
              -58.3677481,
              -34.6073049
            ],
            [
              -58.367694,
              -34.6077311
            ],
            [
              -58.3676472,
              -34.6081185
            ],
            [
              -58.3675676,
              -34.6087953
            ],
            [
              -58.36752,
              -34.6091448
            ],
            [
              -58.3673265,
              -34.6108685
            ],
            [
              -58.3673103,
              -34.6110202
            ],
            [
              -58.3671761,
              -34.6121576
            ],
            [
              -58.3671342,
              -34.612532
            ],
            [
              -58.3671167,
              -34.6127163
            ],
            [
              -58.3670951,
              -34.6129314
            ],
            [
              -58.3670435,
              -34.6134013
            ],
            [
              -58.3670377,
              -34.6134815
            ],
            [
              -58.3669126,
              -34.6145758
            ],
            [
              -58.3669008,
              -34.6146802
            ],
            [
              -58.3667938,
              -34.6156225
            ],
            [
              -58.3667851,
              -34.6157048
            ],
            [
              -58.366749,
              -34.6160478
            ],
            [
              -58.3667195,
              -34.6162987
            ],
            [
              -58.3667057,
              -34.6164246
            ],
            [
              -58.3666711,
              -34.6167442
            ],
            [
              -58.3666583,
              -34.6168739
            ],
            [
              -58.3665118,
              -34.6181268
            ],
            [
              -58.3663886,
              -34.6191365
            ],
            [
              -58.366373,
              -34.6192488
            ],
            [
              -58.36638,
              -34.6193177
            ],
            [
              -58.3663514,
              -34.6195409
            ],
            [
              -58.3663228,
              -34.6197886
            ],
            [
              -58.3662843,
              -34.6201077
            ],
            [
              -58.3662577,
              -34.620301
            ],
            [
              -58.3662382,
              -34.6204429
            ],
            [
              -58.3662255,
              -34.6204998
            ],
            [
              -58.3661651,
              -34.6207707
            ],
            [
              -58.366089,
              -34.6214019
            ],
            [
              -58.3660799,
              -34.6215021
            ],
            [
              -58.3660331,
              -34.6219084
            ],
            [
              -58.3659755,
              -34.6224005
            ],
            [
              -58.3659636,
              -34.6225022
            ],
            [
              -58.3659517,
              -34.6225865
            ],
            [
              -58.3659425,
              -34.6226661
            ],
            [
              -58.3658646,
              -34.6233366
            ],
            [
              -58.3658794,
              -34.623467
            ],
            [
              -58.3658706,
              -34.6238273
            ],
            [
              -58.3658771,
              -34.6238768
            ],
            [
              -58.3658961,
              -34.62392
            ],
            [
              -58.3659283,
              -34.6239587
            ],
            [
              -58.3659761,
              -34.6239964
            ],
            [
              -58.3654409,
              -34.6239585
            ],
            [
              -58.3649986,
              -34.6242217
            ],
            [
              -58.3638891,
              -34.6248534
            ],
            [
              -58.3638107,
              -34.6248894
            ],
            [
              -58.3637351,
              -34.6249241
            ],
            [
              -58.3636554,
              -34.6249524
            ],
            [
              -58.3635847,
              -34.6249791
            ],
            [
              -58.3634281,
              -34.6250198
            ],
            [
              -58.3632681,
              -34.6250573
            ],
            [
              -58.3621095,
              -34.6238615
            ]
          ]
        ]
      },
      "id": "relation/2224562"
    },
    {
      "type": "Feature",
      "properties": {
        "@id": "node/349130752",
        "@relations": [
          {
            "role": "label",
            "rel": 2224562,
            "reltags": {
              "admin_level": "9",
              "boundary": "administrative",
              "name": "Puerto Madero",
              "type": "boundary",
              "wikidata": "Q781553",
              "wikipedia": "es:Puerto Madero"
            }
          }
        ]
      },
      "geometry": {
        "type": "Point",
        "coordinates": [
          -58.3622067,
          -34.6103764
        ]
      },
      "id": "node/349130752"
    }
  ]
}