{
  "type": "FeatureCollection",
  "features": [
    {
      "type": "Feature",
      "properties": {},
      "geometry": {
        "coordinates": [
          [
            -58.43556644075815,
            -34.60446074362838
          ],
          [
            -58.43569842442422,
            -34.60527665667861
          ],
          [
            -58.43548980735129,
            -34.60530184071783
          ],
          [
            -58.434931923060375,
            -34.60552815755711
          ],
          [
            -58.43456792490409,
            -34.60574590108234
          ],
          [
            -58.434390429375966,
            -34.60587157204859
          ],
          [
            -58.43423555721159,
            -34.60602993261103
          ],
          [
            -58.43406759007661,
            -34.60626949139946
          ],
          [
            -58.433990856080996,
            -34.606430348374005
          ],
          [
            -58.43406966697505,
            -34.60644332179088
          ],
          [
            -58.43398900170661,
            -34.60649826800543
          ],
          [
            -58.433959564549866,
            -34.60657716578947
          ],
          [
            -58.43411590475917,
            -34.6066153228243
          ],
          [
            -58.43427538092166,
            -34.60661684910512
          ],
          [
            -58.43439962397869,
            -34.60653748245257
          ],
          [
            -58.43453592046629,
            -34.60653366674733
          ],
          [
            -58.43451649692959,
            -34.606869135352085
          ],
          [
            -58.434573982523105,
            -34.606914160495045
          ],
          [
            -58.43483359487951,
            -34.60666628958003
          ],
          [
            -58.43496246356857,
            -34.60647841785012
          ],
          [
            -58.43547379895216,
            -34.60606186264218
          ],
          [
            -58.43565144694851,
            -34.60595264795513
          ],
          [
            -58.43573703497998,
            -34.605939968078495
          ],
          [
            -58.43591134613358,
            -34.60594454695934
          ],
          [
            -58.43619518382664,
            -34.60598194113842
          ],
          [
            -58.43633889781047,
            -34.60601551957122
          ],
          [
            -58.43642698057447,
            -34.60610786019195
          ],
          [
            -58.43645665055804,
            -34.60617879790058
          ],
          [
            -58.43645665055804,
            -34.60624442830573
          ],
          [
            -58.436423271826285,
            -34.60630624294211
          ],
          [
            -58.43634446093239,
            -34.60656777600978
          ],
          [
            -58.43631757250937,
            -34.606716588366474
          ],
          [
            -58.436210687425444,
            -34.60680602065184
          ],
          [
            -58.436206978676154,
            -34.60694636938885
          ],
          [
            -58.43624592052973,
            -34.60706787774786
          ],
          [
            -58.436365527652285,
            -34.607141371988334
          ],
          [
            -58.43627095457887,
            -34.607306411790546
          ],
          [
            -58.43618194462729,
            -34.607395996069066
          ],
          [
            -58.435922914339116,
            -34.60748847421361
          ],
          [
            -58.43555443065459,
            -34.607575661208394
          ],
          [
            -58.43536105756375,
            -34.60761763344326
          ],
          [
            -58.43504679268651,
            -34.607602370814476
          ],
          [
            -58.434832122112795,
            -34.60754818846305
          ]
        ],
        "type": "LineString"
      }
    },
    {
      "type": "Feature",
      "properties": {},
      "geometry": {
        "coordinates": [
          [
            -58.43569844160989,
            -34.60527669942966
          ],
          [
            -58.43608594611693,
            -34.60531097119513
          ],
          [
            -58.436297530873006,
            -34.60536424877974
          ],
          [
            -58.43648218330301,
            -34.60543546063274
          ],
          [
            -58.43696427331189,
            -34.60564514121075
          ],
          [
            -58.43719262176769,
            -34.6060496966574
          ],
          [
            -58.437257818657244,
            -34.60642621247672
          ],
          [
            -58.43723195034708,
            -34.60648456967864
          ],
          [
            -58.43722182796462,
            -34.60654474124307
          ],
          [
            -58.43722295267358,
            -34.606600284186975
          ],
          [
            -58.43707166804896,
            -34.60687705515171
          ],
          [
            -58.43686539514573,
            -34.607104934361224
          ],
          [
            -58.43668769110258,
            -34.60727156195587
          ],
          [
            -58.43653292612936,
            -34.60738291631694
          ],
          [
            -58.436322621768,
            -34.60748875126644
          ],
          [
            -58.43630125229413,
            -34.60747764279979
          ],
          [
            -58.436275383984366,
            -34.60747393997773
          ],
          [
            -58.43625176509252,
            -34.607476717093604
          ],
          [
            -58.436066313052905,
            -34.607260633462246
          ],
          [
            -58.435892470511675,
            -34.60702868978981
          ],
          [
            -58.43575209306661,
            -34.606779884115156
          ]
        ],
        "type": "LineString"
      }
    },
    {
      "type": "Feature",
      "properties": {},
      "geometry": {
        "coordinates": [
          [
            -58.434699787947224,
            -34.607706361715024
          ],
          [
            -58.43472191283202,
            -34.60764345404758
          ],
          [
            -58.43487477567322,
            -34.607493634278214
          ],
          [
            -58.434943562833624,
            -34.60742679471234
          ],
          [
            -58.43496870474769,
            -34.60736388683312
          ],
          [
            -58.43497373313069,
            -34.60731918910046
          ],
          [
            -58.43496971042492,
            -34.607261247558675
          ],
          [
            -58.434710805544086,
            -34.60734242033323
          ],
          [
            -58.43436611588798,
            -34.60754044936681
          ],
          [
            -58.43424653436209,
            -34.607411238986955
          ],
          [
            -58.43408272145598,
            -34.60719916499306
          ],
          [
            -58.434036649076376,
            -34.607142986361595
          ],
          [
            -58.43396668731461,
            -34.60699485717149
          ],
          [
            -58.433838708482284,
            -34.606622672109154
          ],
          [
            -58.43387567878668,
            -34.6064984506627
          ],
          [
            -58.43399031359158,
            -34.60649695300107
          ]
        ],
        "type": "LineString"
      }
    },
    {
      "type": "Feature",
      "properties": {},
      "geometry": {
        "coordinates": [
          [
            -58.43406934809374,
            -34.60644345824103
          ],
          [
            -58.43408029288534,
            -34.60644066254411
          ],
          [
            -58.434204067168025,
            -34.606267302866065
          ],
          [
            -58.434408068373486,
            -34.60605875339321
          ],
          [
            -58.43462638700113,
            -34.605878897825136
          ],
          [
            -58.434870841743816,
            -34.60571787204197
          ],
          [
            -58.43517106033916,
            -34.60558519205522
          ],
          [
            -58.435440564597755,
            -34.60550816985291
          ],
          [
            -58.43567825238232,
            -34.60547428006176
          ],
          [
            -58.43575338629866,
            -34.60547718786719
          ],
          [
            -58.43590300439358,
            -34.60544460903168
          ],
          [
            -58.43603520662509,
            -34.60545633741415
          ],
          [
            -58.43614761810379,
            -34.605520191909854
          ],
          [
            -58.43619669917199,
            -34.60560112560521
          ],
          [
            -58.43621015688477,
            -34.60571679032922
          ],
          [
            -58.436107244968085,
            -34.60571744190431
          ],
          [
            -58.435991666968704,
            -34.60576305212053
          ],
          [
            -58.43589112994208,
            -34.60572721552417
          ],
          [
            -58.435834924202425,
            -34.60566140646208
          ],
          [
            -58.43564151752676,
            -34.60567965056317
          ],
          [
            -58.43560035275989,
            -34.60573959544072
          ],
          [
            -58.43551213349711,
            -34.605764355271
          ],
          [
            -58.435467010579515,
            -34.605736337569944
          ],
          [
            -58.43541634625119,
            -34.60573177654825
          ],
          [
            -58.43537913963495,
            -34.60573959544265
          ],
          [
            -58.43525906077916,
            -34.6058119976481
          ],
          [
            -58.4350089056576,
            -34.60593449346044
          ],
          [
            -58.4348524628322,
            -34.6060258403244
          ],
          [
            -58.43470459532544,
            -34.606177795658674
          ],
          [
            -58.434535828297754,
            -34.606533534077585
          ]
        ],
        "type": "LineString"
      }
    },
    {
      "type": "Feature",
      "properties": {},
      "geometry": {
        "coordinates": [
          [
            -58.43692736464256,
            -34.604630903566395
          ],
          [
            -58.43659941700082,
            -34.605350716167955
          ],
          [
            -58.43648359323825,
            -34.605435349362025
          ],
          [
            -58.43636343044582,
            -34.60571430555082
          ],
          [
            -58.436240698393604,
            -34.60593879153365
          ],
          [
            -58.4361997012187,
            -34.60598193239773
          ],
          [
            -58.43616337460851,
            -34.60595416847804
          ],
          [
            -58.436113945047126,
            -34.60588498929571
          ],
          [
            -58.4360791752911,
            -34.60586875806379
          ],
          [
            -58.43602756613517,
            -34.60587388371166
          ],
          [
            -58.435992277427985,
            -34.60589652200801
          ],
          [
            -58.435925898331305,
            -34.60591318037287
          ],
          [
            -58.43582005527557,
            -34.60591061754646
          ],
          [
            -58.435776463342705,
            -34.605890969217924
          ],
          [
            -58.435729238748934,
            -34.60589609486973
          ],
          [
            -58.43565119823492,
            -34.60595202804526
          ]
        ],
        "type": "LineString"
      }
    },
    {
      "type": "Feature",
      "properties": {},
      "geometry": {
        "coordinates": [
          [
            -58.43722772908127,
            -34.60650989534284
          ],
          [
            -58.43668730983718,
            -34.60643657078335
          ],
          [
            -58.43659513792839,
            -34.606356834567244
          ],
          [
            -58.43642526955263,
            -34.60630343074286
          ],
          [
            -58.436290288883924,
            -34.60633966905712
          ],
          [
            -58.43625042485152,
            -34.6063182121626
          ],
          [
            -58.436125292557776,
            -34.60627768245786
          ],
          [
            -58.436085319740684,
            -34.60627958973822
          ],
          [
            -58.43605199232698,
            -34.606289602961326
          ],
          [
            -58.4360357714737,
            -34.60632441082104
          ],
          [
            -58.43603497072928,
            -34.606493846477385
          ],
          [
            -58.436001277699944,
            -34.60658878371921
          ],
          [
            -58.43598158095011,
            -34.60663932645309
          ],
          [
            -58.435934656341985,
            -34.606738785872395
          ],
          [
            -58.435879673443495,
            -34.60682318252872
          ],
          [
            -58.4358008870895,
            -34.60686542108938
          ],
          [
            -58.43567285821301,
            -34.606895460541615
          ],
          [
            -58.4352212168872,
            -34.60695261281988
          ],
          [
            -58.43509925216556,
            -34.60697946021964
          ],
          [
            -58.43503408553099,
            -34.607019705606895
          ],
          [
            -58.43497036075179,
            -34.60705498997658
          ],
          [
            -58.43480555238074,
            -34.60711106931272
          ],
          [
            -58.43465849425888,
            -34.6071317180637
          ],
          [
            -58.43457159683153,
            -34.60712694991088
          ],
          [
            -58.43450773881001,
            -34.60709166557198
          ],
          [
            -58.434492676588945,
            -34.60706401026904
          ],
          [
            -58.43448978000801,
            -34.60700822281923
          ],
          [
            -58.43452280103054,
            -34.6069639318992
          ],
          [
            -58.434573780853896,
            -34.606912912547614
          ]
        ],
        "type": "LineString"
      }
    },
    {
      "type": "Feature",
      "properties": {},
      "geometry": {
        "coordinates": [
          [
            -58.43580210977265,
            -34.60861658698224
          ],
          [
            -58.43605335807439,
            -34.60824025373317
          ],
          [
            -58.43601140241458,
            -34.608214370111504
          ],
          [
            -58.435985050855095,
            -34.608179025424185
          ],
          [
            -58.435960651264125,
            -34.60811395902838
          ],
          [
            -58.43596845913301,
            -34.60805531889868
          ],
          [
            -58.43600359454493,
            -34.60800872808236
          ],
          [
            -58.43604946577706,
            -34.607970973435606
          ],
          [
            -58.43611485668258,
            -34.6079452681345
          ],
          [
            -58.436179271603834,
            -34.60794205497174
          ],
          [
            -58.43623490267268,
            -34.607954907623146
          ],
          [
            -58.43629736560747,
            -34.60798543268157
          ],
          [
            -58.436333477002904,
            -34.60803282680258
          ],
          [
            -58.436352020692794,
            -34.608072991288935
          ],
          [
            -58.43635494864333,
            -34.608129221538896
          ],
          [
            -58.436337380937715,
            -34.60818384517284
          ],
          [
            -58.43629736560747,
            -34.60822240301139
          ],
          [
            -58.43624466248994,
            -34.60825292795425
          ],
          [
            -58.43619195937244,
            -34.60826738713273
          ],
          [
            -58.43612168854857,
            -34.608264173982455
          ],
          [
            -58.43605251243157,
            -34.608240688644514
          ]
        ],
        "type": "LineString"
      }
    },
    {
      "type": "Feature",
      "properties": {},
      "geometry": {
        "coordinates": [
          [
            -58.43625158149932,
            -34.607476506439035
          ],
          [
            -58.43623173477596,
            -34.60748977869657
          ],
          [
            -58.43622454033924,
            -34.60750672634653
          ],
          [
            -58.43622503650762,
            -34.60752428655764
          ],
          [
            -58.43623371944865,
            -34.60754041744632
          ],
          [
            -58.436251085330724,
            -34.60755144362214
          ],
          [
            -58.43627936690994,
            -34.60755593576628
          ],
          [
            -58.43629822129559,
            -34.60755144362214
          ],
          [
            -58.43631881226973,
            -34.60753715043159
          ],
          [
            -58.43632501437047,
            -34.607517548336986
          ],
          [
            -58.43632203736257,
            -34.60749672110815
          ],
          [
            -58.436322781614365,
            -34.607488757754325
          ]
        ],
        "type": "LineString"
      }
    },
    {
      "type": "Feature",
      "properties": {},
      "geometry": {
        "coordinates": [
          [
            -58.43623107309347,
            -34.6075357957044
          ],
          [
            -58.43564705093294,
            -34.60773935834951
          ],
          [
            -58.43555236882648,
            -34.607575707469046
          ],
          [
            -58.43560361119833,
            -34.60713594983679
          ],
          [
            -58.435135372971445,
            -34.60720493033577
          ],
          [
            -58.43505202852829,
            -34.60708852278486
          ],
          [
            -58.43497326718109,
            -34.60705499219384
          ]
        ],
        "type": "LineString"
      }
    },
    {
      "type": "Feature",
      "properties": {},
      "geometry": {
        "coordinates": [
          [
            -58.43428752928202,
            -34.605423099522156
          ],
          [
            -58.434292961098805,
            -34.60529512179484
          ],
          [
            -58.43424679065427,
            -34.6052478705809
          ],
          [
            -58.434322687115355,
            -34.60505292789602
          ],
          [
            -58.43447197305956,
            -34.604862669282
          ],
          [
            -58.434578552878364,
            -34.60481246207486
          ],
          [
            -58.43483378368833,
            -34.60516679511768
          ],
          [
            -58.434771179905695,
            -34.60520907469232
          ],
          [
            -58.43490194013394,
            -34.60549427297371
          ],
          [
            -58.434929550060346,
            -34.60552930769695
          ]
        ],
        "type": "LineString"
      }
    },
    {
      "type": "Feature",
      "properties": {},
      "geometry": {
        "coordinates": [
          [
            -58.434901364927654,
            -34.6054937995311
          ],
          [
            -58.43463698000646,
            -34.6056446121255
          ],
          [
            -58.43428770428082,
            -34.60542060971524
          ],
          [
            -58.43422577440825,
            -34.60545926532444
          ],
          [
            -58.434160519956066,
            -34.605473162260395
          ],
          [
            -58.43407294412246,
            -34.6054645236244
          ],
          [
            -58.433457931017216,
            -34.605527481539625
          ],
          [
            -58.43336430130819,
            -34.605503461311756
          ]
        ],
        "type": "LineString"
      }
    },
    {
      "type": "Feature",
      "properties": {},
      "geometry": {
        "coordinates": [
          [
            -58.4334591469883,
            -34.6055268710252
          ],
          [
            -58.43347009072008,
            -34.60554388535009
          ],
          [
            -58.43423538726384,
            -34.60602916800286
          ]
        ],
        "type": "LineString"
      }
    },
    {
      "type": "Feature",
      "properties": {},
      "geometry": {
        "coordinates": [
          [
            -58.43419304924679,
            -34.6059701258648
          ],
          [
            -58.43417468240894,
            -34.60598902251892
          ]
        ],
        "type": "LineString"
      }
    },
    {
      "type": "Feature",
      "properties": {},
      "geometry": {
        "coordinates": [
          [
            -58.43377379673542,
            -34.60566297539424
          ],
          [
            -58.43373553248989,
            -34.60571147698122
          ]
        ],
        "type": "LineString"
      }
    },
    {
      "type": "Feature",
      "properties": {},
      "geometry": {
        "coordinates": [
          [
            -58.43456629472945,
            -34.60574698776508
          ],
          [
            -58.43416190948031,
            -34.60547307189688
          ]
        ],
        "type": "LineString"
      }
    },
    {
      "type": "Feature",
      "properties": {},
      "geometry": {
        "coordinates": [
          [
            -58.43408185386306,
            -34.60840421820435
          ],
          [
            -58.43411141535424,
            -34.608375208547855
          ],
          [
            -58.434119374216934,
            -34.608041128861665
          ],
          [
            -58.43407095022104,
            -34.60802750362443
          ],
          [
            -58.434040251749636,
            -34.607994750636166
          ],
          [
            -58.434026607984734,
            -34.60796012603474
          ],
          [
            -58.434034566847444,
            -34.60792550141893
          ],
          [
            -58.43405503249478,
            -34.60789555579358
          ],
          [
            -58.43410619661441,
            -34.607874032368215
          ],
          [
            -58.434149401870414,
            -34.60786841756026
          ],
          [
            -58.43419260712646,
            -34.607883390379804
          ],
          [
            -58.43422557955927,
            -34.60791333600954
          ],
          [
            -58.43423808634388,
            -34.6079554470334
          ],
          [
            -58.43422899050006,
            -34.60799007163677
          ],
          [
            -58.43420283995056,
            -34.60801908142784
          ],
          [
            -58.434163045635316,
            -34.608037797417246
          ],
          [
            -58.43411923292231,
            -34.60804102098723
          ]
        ],
        "type": "LineString"
      }
    },
    {
      "type": "Feature",
      "properties": {},
      "geometry": {
        "coordinates": [
          [
            -58.433513789836056,
            -34.60805010648519
          ],
          [
            -58.43377608424325,
            -34.607862305495516
          ],
          [
            -58.434365759779766,
            -34.607540022227255
          ]
        ],
        "type": "LineString"
      }
    },
    {
      "type": "Feature",
      "properties": {},
      "geometry": {
        "coordinates": [
          [
            -58.4343645270412,
            -34.6075390374654
          ],
          [
            -58.434638314970314,
            -34.607692580772614
          ]
        ],
        "type": "LineString"
      }
    },
    {
      "type": "Feature",
      "properties": {},
      "geometry": {
        "coordinates": [
          [
            -58.43408306027737,
            -34.60788488718622
          ],
          [
            -58.433986171020095,
            -34.60774818050439
          ]
        ],
        "type": "LineString"
      }
    },
    {
      "type": "Feature",
      "properties": {},
      "geometry": {
        "coordinates": [
          [
            -58.43693017159434,
            -34.60848784580069
          ],
          [
            -58.4367982998522,
            -34.608297630496196
          ],
          [
            -58.43640905982228,
            -34.60773026350502
          ],
          [
            -58.43628816273683,
            -34.6075567082534
          ]
        ],
        "type": "LineString"
      }
    },
    {
      "type": "Feature",
      "properties": {},
      "geometry": {
        "coordinates": [
          [
            -58.436245427252715,
            -34.60754706864951
          ],
          [
            -58.436150667430184,
            -34.60763908301
          ],
          [
            -58.43614108497597,
            -34.60794396626953
          ]
        ],
        "type": "LineString"
      }
    },
    {
      "type": "Feature",
      "properties": {},
      "geometry": {
        "coordinates": [
          [
            -58.43602963756939,
            -34.608045501865504
          ],
          [
            -58.43600933667075,
            -34.60807334984333
          ],
          [
            -58.43600933667075,
            -34.60812208378205
          ],
          [
            -58.43602117886144,
            -34.60815967851483
          ],
          [
            -58.43598519731475,
            -34.608176976234745
          ]
        ],
        "type": "LineString"
      }
    },
    {
      "type": "Feature",
      "properties": {},
      "geometry": {
        "coordinates": [
          [
            -58.43629360874631,
            -34.60816578608458
          ],
          [
            -58.43631149804017,
            -34.608128681897085
          ],
          [
            -58.43631149804017,
            -34.60809393351473
          ],
          [
            -58.43629861774855,
            -34.608055651383246
          ],
          [
            -58.43633797419572,
            -34.60804387226202
          ]
        ],
        "type": "LineString"
      }
    },
    {
      "type": "Feature",
      "properties": {},
      "geometry": {
        "coordinates": [
          [
            -58.43606221776122,
            -34.60850758960087
          ],
          [
            -58.43600990217601,
            -34.608588509750746
          ],
          [
            -58.43599998025476,
            -34.60862488667292
          ]
        ],
        "type": "LineString"
      }
    },
    {
      "type": "Feature",
      "properties": {},
      "geometry": {
        "coordinates": [
          [
            -58.43600990217601,
            -34.608588509750746
          ],
          [
            -58.43588632915585,
            -34.608489772308786
          ]
        ],
        "type": "LineString"
      }
    },
    {
      "type": "Feature",
      "properties": {},
      "geometry": {
        "coordinates": [
          [
            -58.437575246928404,
            -34.60788444468917
          ],
          [
            -58.43740716588506,
            -34.60780877122733
          ],
          [
            -58.43706525743724,
            -34.607412666824814
          ],
          [
            -58.43708744939498,
            -34.60739149017963
          ],
          [
            -58.43710010727952,
            -34.607353538020256
          ],
          [
            -58.437089257664596,
            -34.60731112087987
          ],
          [
            -58.43704585920361,
            -34.6072820986137
          ],
          [
            -58.43700246074329,
            -34.60727316868373
          ],
          [
            -58.436977144974946,
            -34.60727465700527
          ],
          [
            -58.43695544574443,
            -34.60728135445243
          ],
          [
            -58.43692199276461,
            -34.60730665591712
          ],
          [
            -58.4369039100733,
            -34.60734535225861
          ],
          [
            -58.43691023901522,
            -34.60737660698281
          ],
          [
            -58.43693103413666,
            -34.60740116425991
          ],
          [
            -58.436960830327195,
            -34.607421190296
          ],
          [
            -58.43700603705712,
            -34.607432352688726
          ],
          [
            -58.43704401073144,
            -34.60742491109256
          ],
          [
            -58.437065476040644,
            -34.60741124040596
          ]
        ],
        "type": "LineString"
      }
    },
    {
      "type": "Feature",
      "properties": {},
      "geometry": {
        "coordinates": [
          [
            -58.436971016337424,
            -34.60727636072467
          ],
          [
            -58.436864258742204,
            -34.60710472084948
          ]
        ],
        "type": "LineString"
      }
    },
    {
      "type": "Feature",
      "properties": {},
      "geometry": {
        "coordinates": [
          [
            -58.436182286399585,
            -34.607395538658054
          ],
          [
            -58.43620860557543,
            -34.60738353468458
          ],
          [
            -58.43646336112272,
            -34.60725630014791
          ],
          [
            -58.43680978546796,
            -34.606942573019445
          ],
          [
            -58.4369177494642,
            -34.60680598785571
          ],
          [
            -58.43696592868422,
            -34.60668685065921
          ],
          [
            -58.436934848667676,
            -34.60646979024742
          ]
        ],
        "type": "LineString"
      }
    },
    {
      "type": "Feature",
      "properties": {},
      "geometry": {
        "coordinates": [
          [
            -58.436365298515994,
            -34.607141492063946
          ],
          [
            -58.43637382084829,
            -34.607137517215826
          ],
          [
            -58.43663369721395,
            -34.60672456389259
          ],
          [
            -58.436573156968464,
            -34.606646915069625
          ],
          [
            -58.43654288684682,
            -34.60657736221699
          ],
          [
            -58.436583247010304,
            -34.60649846637234
          ],
          [
            -58.4366871247143,
            -34.60643597273308
          ]
        ],
        "type": "LineString"
      }
    },
    {
      "type": "Feature",
      "properties": {},
      "geometry": {
        "coordinates": [
          [
            -58.43589191273344,
            -34.607028493112324
          ],
          [
            -58.43560298779258,
            -34.60713737788424
          ],
          [
            -58.43599668771209,
            -34.60726194188871
          ],
          [
            -58.43606653769814,
            -34.60726019973637
          ]
        ],
        "type": "LineString"
      }
    },
    {
      "type": "Feature",
      "properties": {},
      "geometry": {
        "coordinates": [
          [
            -58.435135068183186,
            -34.60720464661688
          ],
          [
            -58.434969610664,
            -34.60726123496521
          ]
        ],
        "type": "LineString"
      }
    },
    {
      "type": "Feature",
      "properties": {},
      "geometry": {
        "coordinates": [
          [
            -58.433966076066994,
            -34.606993345088206
          ],
          [
            -58.43451810912097,
            -34.60686225817287
          ]
        ],
        "type": "LineString"
      }
    },
    {
      "type": "Feature",
      "properties": {},
      "geometry": {
        "coordinates": [
          [
            -58.43496519899897,
            -34.606476204234994
          ],
          [
            -58.43463488339276,
            -34.60632568857687
          ]
        ],
        "type": "LineString"
      }
    },
    {
      "type": "Feature",
      "properties": {},
      "geometry": {
        "coordinates": [
          [
            -58.43547328466886,
            -34.60606212047128
          ],
          [
            -58.43526244146756,
            -34.60581020712974
          ]
        ],
        "type": "LineString"
      }
    },
    {
      "type": "Feature",
      "properties": {},
      "geometry": {
        "coordinates": [
          [
            -58.435415776493485,
            -34.605731170310385
          ],
          [
            -58.43550963572541,
            -34.605699821011555
          ],
          [
            -58.43559261272709,
            -34.6056315242829
          ],
          [
            -58.4356456635972,
            -34.605562107879145
          ],
          [
            -58.43567695000732,
            -34.60547253823867
          ],
          [
            -58.43562756259864,
            -34.6053213861644
          ],
          [
            -58.43562108775549,
            -34.60528496901627
          ]
        ],
        "type": "LineString"
      }
    },
    {
      "type": "Feature",
      "properties": {},
      "geometry": {
        "coordinates": [
          [
            -58.43548866149172,
            -34.60530146981388
          ],
          [
            -58.43532163508675,
            -34.6044824799213
          ]
        ],
        "type": "LineString"
      }
    },
    {
      "type": "Feature",
      "properties": {},
      "geometry": {
        "coordinates": [
          [
            -58.43494531928239,
            -34.6045581072132
          ],
          [
            -58.43494936726792,
            -34.60459475767709
          ],
          [
            -58.43494127129682,
            -34.60467805412685
          ],
          [
            -58.435004015070305,
            -34.604839648999324
          ]
        ],
        "type": "LineString"
      }
    },
    {
      "type": "Feature",
      "properties": {},
      "geometry": {
        "coordinates": [
          [
            -58.434577931257394,
            -34.60481237735541
          ],
          [
            -58.434506707981214,
            -34.6046942429003
          ]
        ],
        "type": "LineString"
      }
    },
    {
      "type": "Feature",
      "properties": {},
      "geometry": {
        "coordinates": [
          [
            -58.43825429785032,
            -34.6065780422224
          ],
          [
            -58.43725564082315,
            -34.60643056018781
          ]
        ],
        "type": "LineString"
      }
    },
    {
      "type": "Feature",
      "properties": {},
      "geometry": {
        "coordinates": [
          [
            -58.43825907611381,
            -34.60681204651234
          ],
          [
            -58.437215025585616,
            -34.60659967289862
          ]
        ],
        "type": "LineString"
      }
    },
    {
      "type": "Feature",
      "properties": {},
      "geometry": {
        "coordinates": [
          [
            -58.434033053913964,
            -34.60714277496088
          ],
          [
            -58.43310934501855,
            -34.60761379108187
          ]
        ],
        "type": "LineString"
      }
    },
    {
      "type": "Feature",
      "properties": {},
      "geometry": {
        "coordinates": [
          [
            -58.433837931411986,
            -34.60662196839989
          ],
          [
            -58.43289047678644,
            -34.606506656267825
          ]
        ],
        "type": "LineString"
      }
    },
    {
      "type": "Feature",
      "properties": {},
      "geometry": {
        "coordinates": [
          [
            -58.4382490024941,
            -34.606576894316184
          ],
          [
            -58.43837668784616,
            -34.60659641179536
          ],
          [
            -58.438432764575765,
            -34.60639489809174
          ],
          [
            -58.438750614677446,
            -34.60647423995354
          ],
          [
            -58.44013675086259,
            -34.606497828059055
          ],
          [
            -58.441594469899286,
            -34.60648496182009
          ],
          [
            -58.44162477427254,
            -34.60625918077026
          ],
          [
            -58.44531389781491,
            -34.60723645288165
          ],
          [
            -58.445757562250606,
            -34.607406351541336
          ],
          [
            -58.4462736178145,
            -34.60763996163292
          ],
          [
            -58.4473237837185,
            -34.60734794891703
          ],
          [
            -58.449194485136815,
            -34.60686479834715
          ]
        ],
        "type": "LineString"
      }
    }
  ]
}