{
  "type": "FeatureCollection",
  "generator": "overpass-turbo",
  "copyright": "The data included in this document is from www.openstreetmap.org. The data is made available under ODbL.",
  "timestamp": "2025-09-30T19:11:50Z",
  "features": [
    {
      "type": "Feature",
      "properties": {
        "@id": "way/148992639",
        "highway": "footway"
      },
      "geometry": {
        "type": "LineString",
        "coordinates": [
          [
            -58.4626508,
            -34.6827565
          ],
          [
            -58.4633201,
            -34.6828591
          ],
          [
            -58.4634331,
            -34.6828811
          ],
          [
            -58.4639351,
            -34.682921
          ],
          [
            -58.4640295,
            -34.6830212
          ],
          [
            -58.4643924,
            -34.683276
          ],
          [
            -58.4646678,
            -34.6834395
          ],
          [
            -58.4647623,
            -34.6834864
          ]
        ]
      },
      "id": "way/148992639"
    },
    {
      "type": "Feature",
      "properties": {
        "@id": "way/149011511",
        "highway": "footway",
        "surface": "concrete"
      },
      "geometry": {
        "type": "LineString",
        "coordinates": [
          [
            -58.4667491,
            -34.6813905
          ],
          [
            -58.4667215,
            -34.681366
          ],
          [
            -58.4665173,
            -34.681185
          ],
          [
            -58.4661252,
            -34.6808595
          ],
          [
            -58.4658628,
            -34.6806049
          ],
          [
            -58.4657769,
            -34.6805216
          ],
          [
            -58.4657305,
            -34.6805214
          ],
          [
            -58.4656183,
            -34.6805926
          ],
          [
            -58.4653206,
            -34.6808087
          ],
          [
            -58.4651531,
            -34.6809294
          ],
          [
            -58.4631197,
            -34.6824038
          ],
          [
            -58.4626508,
            -34.6827565
          ],
          [
            -58.4626308,
            -34.6827689
          ],
          [
            -58.4625608,
            -34.6828199
          ],
          [
            -58.4615426,
            -34.6835814
          ],
          [
            -58.4603397,
            -34.6844764
          ],
          [
            -58.4600045,
            -34.6847246
          ],
          [
            -58.4597249,
            -34.6849331
          ],
          [
            -58.4593235,
            -34.6852343
          ],
          [
            -58.4584306,
            -34.6859201
          ]
        ]
      },
      "id": "way/149011511"
    },
    {
      "type": "Feature",
      "properties": {
        "@id": "way/311231074",
        "highway": "footway"
      },
      "geometry": {
        "type": "LineString",
        "coordinates": [
          [
            -58.4645231,
            -34.6782709
          ],
          [
            -58.4645456,
            -34.6782593
          ],
          [
            -58.464572,
            -34.6782457
          ],
          [
            -58.464598,
            -34.6782322
          ]
        ]
      },
      "id": "way/311231074"
    },
    {
      "type": "Feature",
      "properties": {
        "@id": "way/324162353",
        "highway": "footway",
        "lit": "yes",
        "surface": "asphalt"
      },
      "geometry": {
        "type": "LineString",
        "coordinates": [
          [
            -58.4600095,
            -34.6744637
          ],
          [
            -58.460048,
            -34.6744969
          ]
        ]
      },
      "id": "way/324162353"
    },
    {
      "type": "Feature",
      "properties": {
        "@id": "way/324162363",
        "highway": "footway"
      },
      "geometry": {
        "type": "LineString",
        "coordinates": [
          [
            -58.4642541,
            -34.677989
          ],
          [
            -58.4643169,
            -34.6780458
          ]
        ]
      },
      "id": "way/324162363"
    },
    {
      "type": "Feature",
      "properties": {
        "@id": "way/324162366",
        "highway": "footway"
      },
      "geometry": {
        "type": "LineString",
        "coordinates": [
          [
            -58.4643873,
            -34.6780042
          ],
          [
            -58.4643273,
            -34.6779452
          ],
          [
            -58.464307,
            -34.6779573
          ],
          [
            -58.4642811,
            -34.6779728
          ],
          [
            -58.4642541,
            -34.677989
          ],
          [
            -58.4641573,
            -34.6779762
          ]
        ]
      },
      "id": "way/324162366"
    },
    {
      "type": "Feature",
      "properties": {
        "@id": "way/324162368",
        "highway": "footway"
      },
      "geometry": {
        "type": "LineString",
        "coordinates": [
          [
            -58.4643273,
            -34.6779452
          ],
          [
            -58.4643761,
            -34.6779255
          ],
          [
            -58.4644381,
            -34.6779006
          ],
          [
            -58.4644831,
            -34.6778667
          ]
        ]
      },
      "id": "way/324162368"
    },
    {
      "type": "Feature",
      "properties": {
        "@id": "way/324162371",
        "highway": "footway"
      },
      "geometry": {
        "type": "LineString",
        "coordinates": [
          [
            -58.4648049,
            -34.6779184
          ],
          [
            -58.4647593,
            -34.6779448
          ],
          [
            -58.4646266,
            -34.6780114
          ],
          [
            -58.4645792,
            -34.6780398
          ],
          [
            -58.4645134,
            -34.6780793
          ],
          [
            -58.4643761,
            -34.6779255
          ]
        ]
      },
      "id": "way/324162371"
    },
    {
      "type": "Feature",
      "properties": {
        "@id": "way/795454389",
        "highway": "footway"
      },
      "geometry": {
        "type": "LineString",
        "coordinates": [
          [
            -58.4624419,
            -34.682688
          ],
          [
            -58.4624513,
            -34.6826809
          ]
        ]
      },
      "id": "way/795454389"
    },
    {
      "type": "Feature",
      "properties": {
        "@id": "way/795454390",
        "highway": "footway"
      },
      "geometry": {
        "type": "LineString",
        "coordinates": [
          [
            -58.4624982,
            -34.6827436
          ],
          [
            -58.4625099,
            -34.6827348
          ]
        ]
      },
      "id": "way/795454390"
    },
    {
      "type": "Feature",
      "properties": {
        "@id": "way/795454391",
        "highway": "footway"
      },
      "geometry": {
        "type": "LineString",
        "coordinates": [
          [
            -58.4622036,
            -34.6828683
          ],
          [
            -58.4621843,
            -34.682883
          ]
        ]
      },
      "id": "way/795454391"
    },
    {
      "type": "Feature",
      "properties": {
        "@id": "way/795454392",
        "highway": "footway"
      },
      "geometry": {
        "type": "LineString",
        "coordinates": [
          [
            -58.462261,
            -34.6829228
          ],
          [
            -58.4622413,
            -34.6829377
          ]
        ]
      },
      "id": "way/795454392"
    },
    {
      "type": "Feature",
      "properties": {
        "@id": "way/795454393",
        "highway": "footway"
      },
      "geometry": {
        "type": "LineString",
        "coordinates": [
          [
            -58.4622755,
            -34.6829705
          ],
          [
            -58.4622413,
            -34.6829377
          ],
          [
            -58.4622265,
            -34.6829235
          ],
          [
            -58.4622032,
            -34.6829011
          ],
          [
            -58.4621843,
            -34.682883
          ],
          [
            -58.4621581,
            -34.6828556
          ]
        ]
      },
      "id": "way/795454393"
    },
    {
      "type": "Feature",
      "properties": {
        "@id": "way/795454394",
        "footway": "crossing",
        "highway": "footway"
      },
      "geometry": {
        "type": "LineString",
        "coordinates": [
          [
            -58.4625608,
            -34.6828199
          ],
          [
            -58.4625466,
            -34.6827685
          ],
          [
            -58.4625099,
            -34.6827348
          ],
          [
            -58.4624953,
            -34.6827214
          ],
          [
            -58.4624716,
            -34.6826996
          ],
          [
            -58.4624513,
            -34.6826809
          ],
          [
            -58.4624265,
            -34.6826553
          ]
        ]
      },
      "id": "way/795454394"
    },
    {
      "type": "Feature",
      "properties": {
        "@id": "way/795454829",
        "highway": "footway"
      },
      "geometry": {
        "type": "LineString",
        "coordinates": [
          [
            -58.4598445,
            -34.6845746
          ],
          [
            -58.4598119,
            -34.684544
          ]
        ]
      },
      "id": "way/795454829"
    },
    {
      "type": "Feature",
      "properties": {
        "@id": "way/795454830",
        "highway": "footway"
      },
      "geometry": {
        "type": "LineString",
        "coordinates": [
          [
            -58.4600045,
            -34.6847246
          ],
          [
            -58.4599675,
            -34.6846899
          ]
        ]
      },
      "id": "way/795454830"
    },
    {
      "type": "Feature",
      "properties": {
        "@id": "way/962667935",
        "highway": "footway"
      },
      "geometry": {
        "type": "LineString",
        "coordinates": [
          [
            -58.4529591,
            -34.6764933
          ],
          [
            -58.4529914,
            -34.6765384
          ],
          [
            -58.4530671,
            -34.6766309
          ],
          [
            -58.4531381,
            -34.6766553
          ],
          [
            -58.453533,
            -34.6770878
          ]
        ]
      },
      "id": "way/962667935"
    },
    {
      "type": "Feature",
      "properties": {
        "@id": "way/962667936",
        "highway": "footway"
      },
      "geometry": {
        "type": "LineString",
        "coordinates": [
          [
            -58.453533,
            -34.6770878
          ],
          [
            -58.4534516,
            -34.6772715
          ]
        ]
      },
      "id": "way/962667936"
    },
    {
      "type": "Feature",
      "properties": {
        "@id": "way/962667937",
        "highway": "footway"
      },
      "geometry": {
        "type": "LineString",
        "coordinates": [
          [
            -58.4538242,
            -34.6769337
          ],
          [
            -58.453533,
            -34.6770878
          ]
        ]
      },
      "id": "way/962667937"
    },
    {
      "type": "Feature",
      "properties": {
        "@id": "way/1153745346",
        "highway": "path",
        "name": "Ramona Martinez"
      },
      "geometry": {
        "type": "LineString",
        "coordinates": [
          [
            -58.4617839,
            -34.6744158
          ],
          [
            -58.461286,
            -34.674814
          ],
          [
            -58.461243,
            -34.6748484
          ]
        ]
      },
      "id": "way/1153745346"
    },
    {
      "type": "Feature",
      "properties": {
        "@id": "way/1153745347",
        "highway": "path",
        "name": "Florentina Gómez Miranda"
      },
      "geometry": {
        "type": "LineString",
        "coordinates": [
          [
            -58.4620942,
            -34.674676
          ],
          [
            -58.4616397,
            -34.675052
          ],
          [
            -58.4615684,
            -34.675111
          ],
          [
            -58.4616225,
            -34.6751552
          ],
          [
            -58.4615727,
            -34.6751965
          ]
        ]
      },
      "id": "way/1153745347"
    },
    {
      "type": "Feature",
      "properties": {
        "@id": "way/1153745348",
        "highway": "path",
        "name": "María Reiche"
      },
      "geometry": {
        "type": "LineString",
        "coordinates": [
          [
            -58.4627823,
            -34.6752626
          ],
          [
            -58.4622597,
            -34.6756799
          ],
          [
            -58.4622956,
            -34.6757103
          ],
          [
            -58.4622413,
            -34.6757536
          ]
        ]
      },
      "id": "way/1153745348"
    },
    {
      "type": "Feature",
      "properties": {
        "@id": "way/1153745349",
        "highway": "path",
        "name": "8 de Marzo de 1908"
      },
      "geometry": {
        "type": "LineString",
        "coordinates": [
          [
            -58.4630748,
            -34.6755145
          ],
          [
            -58.4625649,
            -34.6759201
          ],
          [
            -58.4626164,
            -34.6759639
          ],
          [
            -58.4625533,
            -34.6760142
          ]
        ]
      },
      "id": "way/1153745349"
    },
    {
      "type": "Feature",
      "properties": {
        "@id": "way/1153745482",
        "highway": "path",
        "name": "Amelia Celia Figueredo"
      },
      "geometry": {
        "type": "LineString",
        "coordinates": [
          [
            -58.4637357,
            -34.6760775
          ],
          [
            -58.4632262,
            -34.6764923
          ],
          [
            -58.463268,
            -34.6765271
          ],
          [
            -58.4632159,
            -34.6765694
          ]
        ]
      },
      "id": "way/1153745482"
    },
    {
      "type": "Feature",
      "properties": {
        "@id": "way/1153745483",
        "highway": "path",
        "name": "Leona Vicario"
      },
      "geometry": {
        "type": "LineString",
        "coordinates": [
          [
            -58.4640548,
            -34.6763372
          ],
          [
            -58.4635973,
            -34.6766858
          ],
          [
            -58.4635325,
            -34.6767352
          ],
          [
            -58.4635764,
            -34.6767741
          ],
          [
            -58.4635151,
            -34.6768208
          ]
        ]
      },
      "id": "way/1153745483"
    },
    {
      "type": "Feature",
      "properties": {
        "@id": "way/1153748439",
        "highway": "path",
        "name": "C. Falcone"
      },
      "geometry": {
        "type": "LineString",
        "coordinates": [
          [
            -58.4645138,
            -34.6771886
          ],
          [
            -58.4644235,
            -34.6771111
          ],
          [
            -58.4641962,
            -34.6772901
          ],
          [
            -58.4642325,
            -34.6773212
          ],
          [
            -58.4641722,
            -34.6773687
          ]
        ]
      },
      "id": "way/1153748439"
    },
    {
      "type": "Feature",
      "properties": {
        "@id": "way/1216052289",
        "crossing": "marked",
        "crossing:markings": "zebra",
        "footway": "crossing",
        "highway": "footway"
      },
      "geometry": {
        "type": "LineString",
        "coordinates": [
          [
            -58.4602284,
            -34.675873
          ],
          [
            -58.4602074,
            -34.6758526
          ],
          [
            -58.4601758,
            -34.6758222
          ]
        ]
      },
      "id": "way/1216052289"
    },
    {
      "type": "Feature",
      "properties": {
        "@id": "way/1216052290",
        "crossing": "marked",
        "crossing:markings": "zebra",
        "footway": "crossing",
        "highway": "footway"
      },
      "geometry": {
        "type": "LineString",
        "coordinates": [
          [
            -58.4599885,
            -34.6758125
          ],
          [
            -58.4599597,
            -34.6758334
          ],
          [
            -58.4599242,
            -34.67586
          ]
        ]
      },
      "id": "way/1216052290"
    },
    {
      "type": "Feature",
      "properties": {
        "@id": "way/1216052291",
        "crossing": "marked",
        "crossing:markings": "zebra",
        "footway": "crossing",
        "highway": "footway"
      },
      "geometry": {
        "type": "LineString",
        "coordinates": [
          [
            -58.4601175,
            -34.6758664
          ],
          [
            -58.4601491,
            -34.6758428
          ],
          [
            -58.4601758,
            -34.6758222
          ],
          [
            -58.4602796,
            -34.6757451
          ],
          [
            -58.460415,
            -34.6756436
          ],
          [
            -58.460458,
            -34.6756114
          ]
        ]
      },
      "id": "way/1216052291"
    },
    {
      "type": "Feature",
      "properties": {
        "@id": "way/1216052292",
        "footway": "crossing",
        "highway": "footway"
      },
      "geometry": {
        "type": "LineString",
        "coordinates": [
          [
            -58.4555066,
            -34.6756144
          ],
          [
            -58.4555656,
            -34.6755685
          ]
        ]
      },
      "id": "way/1216052292"
    },
    {
      "type": "Feature",
      "properties": {
        "@id": "way/1216052293",
        "footway": "crossing",
        "highway": "footway"
      },
      "geometry": {
        "type": "LineString",
        "coordinates": [
          [
            -58.4562905,
            -34.6750016
          ],
          [
            -58.4563272,
            -34.6749719
          ],
          [
            -58.4563909,
            -34.6749271
          ]
        ]
      },
      "id": "way/1216052293"
    },
    {
      "type": "Feature",
      "properties": {
        "@id": "way/1216052294",
        "highway": "footway"
      },
      "geometry": {
        "type": "LineString",
        "coordinates": [
          [
            -58.4555656,
            -34.6755685
          ],
          [
            -58.455738,
            -34.6755616
          ],
          [
            -58.456304,
            -34.6751225
          ],
          [
            -58.4562905,
            -34.6750016
          ]
        ]
      },
      "id": "way/1216052294"
    },
    {
      "type": "Feature",
      "properties": {
        "@id": "way/1216052295",
        "highway": "footway"
      },
      "geometry": {
        "type": "LineString",
        "coordinates": [
          [
            -58.4563909,
            -34.6749271
          ],
          [
            -58.4565354,
            -34.6749359
          ],
          [
            -58.4571031,
            -34.6744938
          ],
          [
            -58.4571184,
            -34.6743332
          ]
        ]
      },
      "id": "way/1216052295"
    },
    {
      "type": "Feature",
      "properties": {
        "@id": "way/1216052298",
        "highway": "footway"
      },
      "geometry": {
        "type": "LineString",
        "coordinates": [
          [
            -58.4578758,
            -34.6743434
          ],
          [
            -58.456668,
            -34.6752898
          ]
        ]
      },
      "id": "way/1216052298"
    },
    {
      "type": "Feature",
      "properties": {
        "@id": "way/1216052299",
        "footway": "crossing",
        "highway": "footway"
      },
      "geometry": {
        "type": "LineString",
        "coordinates": [
          [
            -58.456528,
            -34.6754105
          ],
          [
            -58.456668,
            -34.6752898
          ]
        ]
      },
      "id": "way/1216052299"
    },
    {
      "type": "Feature",
      "properties": {
        "@id": "way/1216052300",
        "crossing": "marked",
        "crossing:markings": "zebra",
        "footway": "crossing",
        "highway": "footway"
      },
      "geometry": {
        "type": "LineString",
        "coordinates": [
          [
            -58.4586638,
            -34.6747843
          ],
          [
            -58.4586781,
            -34.6747735
          ],
          [
            -58.4587256,
            -34.6747343
          ]
        ]
      },
      "id": "way/1216052300"
    },
    {
      "type": "Feature",
      "properties": {
        "@id": "way/1243249744",
        "highway": "footway"
      },
      "geometry": {
        "type": "LineString",
        "coordinates": [
          [
            -58.4539032,
            -34.6774822
          ],
          [
            -58.4539829,
            -34.6775483
          ],
          [
            -58.4542441,
            -34.6777648
          ],
          [
            -58.4542402,
            -34.6779052
          ],
          [
            -58.4542217,
            -34.6785722
          ],
          [
            -58.4539045,
            -34.6788262
          ],
          [
            -58.4538764,
            -34.6795297
          ],
          [
            -58.4535951,
            -34.6797735
          ]
        ]
      },
      "id": "way/1243249744"
    },
    {
      "type": "Feature",
      "properties": {
        "@id": "way/1243249745",
        "highway": "footway"
      },
      "geometry": {
        "type": "LineString",
        "coordinates": [
          [
            -58.4532806,
            -34.6779712
          ],
          [
            -58.4539032,
            -34.6774822
          ],
          [
            -58.4539614,
            -34.6774354
          ]
        ]
      },
      "id": "way/1243249745"
    },
    {
      "type": "Feature",
      "properties": {
        "@id": "way/1243249746",
        "highway": "footway"
      },
      "geometry": {
        "type": "LineString",
        "coordinates": [
          [
            -58.4532536,
            -34.6779701
          ],
          [
            -58.4532806,
            -34.6779712
          ],
          [
            -58.4533033,
            -34.6779832
          ],
          [
            -58.4533157,
            -34.678003
          ],
          [
            -58.4533144,
            -34.6780252
          ],
          [
            -58.4532997,
            -34.6780439
          ],
          [
            -58.4532757,
            -34.678054
          ],
          [
            -58.4532487,
            -34.6780529
          ],
          [
            -58.453226,
            -34.6780409
          ],
          [
            -58.4532137,
            -34.6780211
          ],
          [
            -58.4532151,
            -34.6779988
          ],
          [
            -58.4532296,
            -34.6779803
          ],
          [
            -58.4532536,
            -34.6779701
          ]
        ]
      },
      "id": "way/1243249746"
    },
    {
      "type": "Feature",
      "properties": {
        "@id": "way/1243249747",
        "highway": "footway"
      },
      "geometry": {
        "type": "LineString",
        "coordinates": [
          [
            -58.4531081,
            -34.6780895
          ],
          [
            -58.4531424,
            -34.678121
          ],
          [
            -58.4533932,
            -34.6783515
          ],
          [
            -58.4534015,
            -34.6783791
          ],
          [
            -58.4533918,
            -34.6784011
          ],
          [
            -58.452709,
            -34.6789281
          ],
          [
            -58.4527646,
            -34.6789765
          ]
        ]
      },
      "id": "way/1243249747"
    },
    {
      "type": "Feature",
      "properties": {
        "@id": "way/1243249748",
        "highway": "footway"
      },
      "geometry": {
        "type": "LineString",
        "coordinates": [
          [
            -58.4515953,
            -34.6792759
          ],
          [
            -58.4531081,
            -34.6780895
          ]
        ]
      },
      "id": "way/1243249748"
    },
    {
      "type": "Feature",
      "properties": {
        "@id": "way/1243249749",
        "highway": "footway"
      },
      "geometry": {
        "type": "LineString",
        "coordinates": [
          [
            -58.4521556,
            -34.6798705
          ],
          [
            -58.452219,
            -34.6798105
          ],
          [
            -58.4515953,
            -34.6792759
          ]
        ]
      },
      "id": "way/1243249749"
    },
    {
      "type": "Feature",
      "properties": {
        "@id": "way/1243249750",
        "highway": "footway"
      },
      "geometry": {
        "type": "LineString",
        "coordinates": [
          [
            -58.4529643,
            -34.6794638
          ],
          [
            -58.4529182,
            -34.679436
          ],
          [
            -58.4524119,
            -34.6798313
          ],
          [
            -58.4524495,
            -34.6798622
          ]
        ]
      },
      "id": "way/1243249750"
    },
    {
      "type": "Feature",
      "properties": {
        "@id": "way/1243249751",
        "footway": "crossing",
        "highway": "footway"
      },
      "geometry": {
        "type": "LineString",
        "coordinates": [
          [
            -58.4532137,
            -34.6780211
          ],
          [
            -58.4531543,
            -34.6780569
          ],
          [
            -58.4531081,
            -34.6780895
          ]
        ]
      },
      "id": "way/1243249751"
    },
    {
      "type": "Feature",
      "properties": {
        "@id": "way/1243249761",
        "highway": "footway"
      },
      "geometry": {
        "type": "LineString",
        "coordinates": [
          [
            -58.4530349,
            -34.6795521
          ],
          [
            -58.4530577,
            -34.6795748
          ],
          [
            -58.4525822,
            -34.679956
          ],
          [
            -58.4525471,
            -34.6799294
          ]
        ]
      },
      "id": "way/1243249761"
    },
    {
      "type": "Feature",
      "properties": {
        "@id": "way/1243249763",
        "highway": "footway"
      },
      "geometry": {
        "type": "LineString",
        "coordinates": [
          [
            -58.4531911,
            -34.6807537
          ],
          [
            -58.4535092,
            -34.6805054
          ],
          [
            -58.4535329,
            -34.6797217
          ]
        ]
      },
      "id": "way/1243249763"
    },
    {
      "type": "Feature",
      "properties": {
        "@id": "way/1243249899",
        "footway": "crossing",
        "highway": "footway"
      },
      "geometry": {
        "type": "LineString",
        "coordinates": [
          [
            -58.4532151,
            -34.6779988
          ],
          [
            -58.453146,
            -34.6779424
          ],
          [
            -58.4529937,
            -34.677818
          ]
        ]
      },
      "id": "way/1243249899"
    },
    {
      "type": "Feature",
      "properties": {
        "@id": "way/1243272996",
        "highway": "footway"
      },
      "geometry": {
        "type": "LineString",
        "coordinates": [
          [
            -58.4607673,
            -34.6828039
          ],
          [
            -58.4607274,
            -34.6827832
          ]
        ]
      },
      "id": "way/1243272996"
    },
    {
      "type": "Feature",
      "properties": {
        "@id": "way/1243272997",
        "highway": "footway"
      },
      "geometry": {
        "type": "LineString",
        "coordinates": [
          [
            -58.4642867,
            -34.680023
          ],
          [
            -58.4642116,
            -34.6800766
          ],
          [
            -58.4635921,
            -34.6805337
          ],
          [
            -58.4635704,
            -34.680565
          ],
          [
            -58.4635685,
            -34.6806039
          ],
          [
            -58.4638965,
            -34.6809127
          ],
          [
            -58.4638025,
            -34.6809816
          ]
        ]
      },
      "id": "way/1243272997"
    },
    {
      "type": "Feature",
      "properties": {
        "@id": "way/1243272998",
        "highway": "footway"
      },
      "geometry": {
        "type": "LineString",
        "coordinates": [
          [
            -58.4634233,
            -34.6792541
          ],
          [
            -58.4633652,
            -34.6792068
          ],
          [
            -58.4631181,
            -34.6794165
          ],
          [
            -58.463065,
            -34.6801473
          ],
          [
            -58.4629887,
            -34.6802016
          ]
        ]
      },
      "id": "way/1243272998"
    },
    {
      "type": "Feature",
      "properties": {
        "@id": "way/1243272999",
        "highway": "footway"
      },
      "geometry": {
        "type": "LineString",
        "coordinates": [
          [
            -58.4627512,
            -34.6807302
          ],
          [
            -58.4628093,
            -34.6807457
          ],
          [
            -58.4629009,
            -34.6807541
          ]
        ]
      },
      "id": "way/1243272999"
    },
    {
      "type": "Feature",
      "properties": {
        "@id": "way/1243273000",
        "highway": "footway"
      },
      "geometry": {
        "type": "LineString",
        "coordinates": [
          [
            -58.4622317,
            -34.6805945
          ],
          [
            -58.4622628,
            -34.6805905
          ],
          [
            -58.4622825,
            -34.6806107
          ],
          [
            -58.4622711,
            -34.6806348
          ],
          [
            -58.46224,
            -34.6806388
          ],
          [
            -58.4622203,
            -34.6806186
          ],
          [
            -58.4622317,
            -34.6805945
          ]
        ]
      },
      "id": "way/1243273000"
    },
    {
      "type": "Feature",
      "properties": {
        "@id": "way/1243273001",
        "highway": "footway"
      },
      "geometry": {
        "type": "LineString",
        "coordinates": [
          [
            -58.4626592,
            -34.6807489
          ],
          [
            -58.4625694,
            -34.6807923
          ],
          [
            -58.4625185,
            -34.6808055
          ],
          [
            -58.4624734,
            -34.6807911
          ],
          [
            -58.4624298,
            -34.6807732
          ],
          [
            -58.4623222,
            -34.6808043
          ]
        ]
      },
      "id": "way/1243273001"
    },
    {
      "type": "Feature",
      "properties": {
        "@id": "way/1243273002",
        "highway": "footway"
      },
      "geometry": {
        "type": "LineString",
        "coordinates": [
          [
            -58.462741,
            -34.6807541
          ],
          [
            -58.4627512,
            -34.6807302
          ],
          [
            -58.4627919,
            -34.6806345
          ]
        ]
      },
      "id": "way/1243273002"
    },
    {
      "type": "Feature",
      "properties": {
        "@id": "way/1243273003",
        "highway": "footway"
      },
      "geometry": {
        "type": "LineString",
        "coordinates": [
          [
            -58.4626592,
            -34.6807489
          ],
          [
            -58.462741,
            -34.6807541
          ],
          [
            -58.4627686,
            -34.6808844
          ]
        ]
      },
      "id": "way/1243273003"
    },
    {
      "type": "Feature",
      "properties": {
        "@id": "way/1243273004",
        "highway": "footway"
      },
      "geometry": {
        "type": "LineString",
        "coordinates": [
          [
            -58.4626592,
            -34.6807489
          ],
          [
            -58.4624327,
            -34.6806907
          ],
          [
            -58.46236,
            -34.6806859
          ],
          [
            -58.4622711,
            -34.6806348
          ]
        ]
      },
      "id": "way/1243273004"
    },
    {
      "type": "Feature",
      "properties": {
        "@id": "way/1243273005",
        "highway": "footway"
      },
      "geometry": {
        "type": "LineString",
        "coordinates": [
          [
            -58.4629887,
            -34.6802016
          ],
          [
            -58.4626974,
            -34.6804061
          ],
          [
            -58.4626592,
            -34.6807489
          ]
        ]
      },
      "id": "way/1243273005"
    },
    {
      "type": "Feature",
      "properties": {
        "@id": "way/1243273006",
        "highway": "footway"
      },
      "geometry": {
        "type": "LineString",
        "coordinates": [
          [
            -58.4623687,
            -34.6817453
          ],
          [
            -58.4624487,
            -34.6817262
          ],
          [
            -58.4625738,
            -34.6817357
          ],
          [
            -58.4626403,
            -34.6817663
          ]
        ]
      },
      "id": "way/1243273006"
    },
    {
      "type": "Feature",
      "properties": {
        "@id": "way/1243273007",
        "highway": "footway"
      },
      "geometry": {
        "type": "LineString",
        "coordinates": [
          [
            -58.4620918,
            -34.681734
          ],
          [
            -58.4620452,
            -34.6818194
          ]
        ]
      },
      "id": "way/1243273007"
    },
    {
      "type": "Feature",
      "properties": {
        "@id": "way/1243273008",
        "highway": "footway"
      },
      "geometry": {
        "type": "LineString",
        "coordinates": [
          [
            -58.4619972,
            -34.6817658
          ],
          [
            -58.4619296,
            -34.6817346
          ]
        ]
      },
      "id": "way/1243273008"
    },
    {
      "type": "Feature",
      "properties": {
        "@id": "way/1243273009",
        "highway": "footway"
      },
      "geometry": {
        "type": "LineString",
        "coordinates": [
          [
            -58.4620532,
            -34.6817244
          ],
          [
            -58.4619972,
            -34.6817658
          ],
          [
            -58.4619456,
            -34.6818039
          ]
        ]
      },
      "id": "way/1243273009"
    },
    {
      "type": "Feature",
      "properties": {
        "@id": "way/1243273010",
        "highway": "footway"
      },
      "geometry": {
        "type": "LineString",
        "coordinates": [
          [
            -58.4625549,
            -34.6819115
          ],
          [
            -58.4624734,
            -34.6818577
          ],
          [
            -58.4623687,
            -34.6817453
          ],
          [
            -58.4622548,
            -34.6817435
          ],
          [
            -58.4620918,
            -34.681734
          ],
          [
            -58.4620532,
            -34.6817244
          ],
          [
            -58.4619616,
            -34.6816825
          ]
        ]
      },
      "id": "way/1243273010"
    },
    {
      "type": "Feature",
      "properties": {
        "@id": "way/1243273011",
        "highway": "footway"
      },
      "geometry": {
        "type": "LineString",
        "coordinates": [
          [
            -58.4570063,
            -34.6836294
          ],
          [
            -58.456967,
            -34.6837364
          ],
          [
            -58.4568689,
            -34.6838375
          ],
          [
            -58.4569022,
            -34.6839288
          ]
        ]
      },
      "id": "way/1243273011"
    },
    {
      "type": "Feature",
      "properties": {
        "@id": "way/1243273012",
        "highway": "footway"
      },
      "geometry": {
        "type": "LineString",
        "coordinates": [
          [
            -58.4594677,
            -34.6830722
          ],
          [
            -58.4594839,
            -34.6829906
          ],
          [
            -58.4595289,
            -34.6829602
          ]
        ]
      },
      "id": "way/1243273012"
    },
    {
      "type": "Feature",
      "properties": {
        "@id": "way/1243273013",
        "highway": "footway"
      },
      "geometry": {
        "type": "LineString",
        "coordinates": [
          [
            -58.4594493,
            -34.683224
          ],
          [
            -58.4591284,
            -34.6833208
          ]
        ]
      },
      "id": "way/1243273013"
    },
    {
      "type": "Feature",
      "properties": {
        "@id": "way/1243273014",
        "highway": "footway"
      },
      "geometry": {
        "type": "LineString",
        "coordinates": [
          [
            -58.4595012,
            -34.6832838
          ],
          [
            -58.4594447,
            -34.6833313
          ]
        ]
      },
      "id": "way/1243273014"
    },
    {
      "type": "Feature",
      "properties": {
        "@id": "way/1243273015",
        "highway": "footway"
      },
      "geometry": {
        "type": "LineString",
        "coordinates": [
          [
            -58.4593581,
            -34.6829944
          ],
          [
            -58.4594677,
            -34.6830722
          ],
          [
            -58.4594605,
            -34.6831629
          ],
          [
            -58.4594493,
            -34.683224
          ],
          [
            -58.4595012,
            -34.6832838
          ],
          [
            -58.4595797,
            -34.6832772
          ]
        ]
      },
      "id": "way/1243273015"
    },
    {
      "type": "Feature",
      "properties": {
        "@id": "way/1243273016",
        "highway": "footway"
      },
      "geometry": {
        "type": "LineString",
        "coordinates": [
          [
            -58.4607251,
            -34.6832179
          ],
          [
            -58.4607526,
            -34.6832449
          ],
          [
            -58.4607853,
            -34.683277
          ],
          [
            -58.4608056,
            -34.6832669
          ],
          [
            -58.460792,
            -34.6832115
          ]
        ]
      },
      "id": "way/1243273016"
    },
    {
      "type": "Feature",
      "properties": {
        "@id": "way/1243273018",
        "highway": "footway"
      },
      "geometry": {
        "type": "LineString",
        "coordinates": [
          [
            -58.4607612,
            -34.6831076
          ],
          [
            -58.4607995,
            -34.6831098
          ],
          [
            -58.4608688,
            -34.6831302
          ],
          [
            -58.4608041,
            -34.6832103
          ],
          [
            -58.460792,
            -34.6832115
          ],
          [
            -58.4607251,
            -34.6832179
          ]
        ]
      },
      "id": "way/1243273018"
    },
    {
      "type": "Feature",
      "properties": {
        "@id": "way/1243273019",
        "highway": "footway"
      },
      "geometry": {
        "type": "LineString",
        "coordinates": [
          [
            -58.4607614,
            -34.6827552
          ],
          [
            -58.4608038,
            -34.6826978
          ]
        ]
      },
      "id": "way/1243273019"
    },
    {
      "type": "Feature",
      "properties": {
        "@id": "way/1243273020",
        "highway": "footway"
      },
      "geometry": {
        "type": "LineString",
        "coordinates": [
          [
            -58.4608038,
            -34.6826978
          ],
          [
            -58.4607941,
            -34.6826782
          ],
          [
            -58.4608066,
            -34.6826597
          ],
          [
            -58.460832,
            -34.6826563
          ],
          [
            -58.4608511,
            -34.6826704
          ],
          [
            -58.4608495,
            -34.6826915
          ],
          [
            -58.4608285,
            -34.6827037
          ],
          [
            -58.4608038,
            -34.6826978
          ]
        ]
      },
      "id": "way/1243273020"
    },
    {
      "type": "Feature",
      "properties": {
        "@id": "way/1243273021",
        "highway": "footway"
      },
      "geometry": {
        "type": "LineString",
        "coordinates": [
          [
            -58.460725,
            -34.6830108
          ],
          [
            -58.4607612,
            -34.6831076
          ],
          [
            -58.4607708,
            -34.683147
          ],
          [
            -58.4607251,
            -34.6832179
          ],
          [
            -58.460649,
            -34.6832321
          ],
          [
            -58.460567,
            -34.6831656
          ],
          [
            -58.460725,
            -34.6830108
          ],
          [
            -58.4607739,
            -34.6829566
          ],
          [
            -58.4607823,
            -34.6829239
          ],
          [
            -58.4607673,
            -34.6828039
          ],
          [
            -58.4607614,
            -34.6827552
          ],
          [
            -58.4607274,
            -34.6827832
          ]
        ]
      },
      "id": "way/1243273021"
    },
    {
      "type": "Feature",
      "properties": {
        "@id": "way/1243273023",
        "highway": "footway"
      },
      "geometry": {
        "type": "LineString",
        "coordinates": [
          [
            -58.4626276,
            -34.6812228
          ],
          [
            -58.4626592,
            -34.6807489
          ]
        ]
      },
      "id": "way/1243273023"
    },
    {
      "type": "Feature",
      "properties": {
        "@id": "way/1243273024",
        "footway": "crossing",
        "highway": "footway"
      },
      "geometry": {
        "type": "LineString",
        "coordinates": [
          [
            -58.4624046,
            -34.6826339
          ],
          [
            -58.4624265,
            -34.6826553
          ]
        ]
      },
      "id": "way/1243273024"
    },
    {
      "type": "Feature",
      "properties": {
        "@id": "way/1243273025",
        "highway": "footway"
      },
      "geometry": {
        "type": "LineString",
        "coordinates": [
          [
            -58.4626105,
            -34.6824439
          ],
          [
            -58.4626385,
            -34.6824708
          ],
          [
            -58.4624046,
            -34.6826339
          ]
        ]
      },
      "id": "way/1243273025"
    },
    {
      "type": "Feature",
      "properties": {
        "@id": "way/1243273026",
        "highway": "footway"
      },
      "geometry": {
        "type": "LineString",
        "coordinates": [
          [
            -58.4625281,
            -34.6812041
          ],
          [
            -58.4622899,
            -34.681379
          ],
          [
            -58.4622548,
            -34.6817435
          ],
          [
            -58.4622397,
            -34.6821158
          ],
          [
            -58.4626105,
            -34.6824439
          ],
          [
            -58.4633255,
            -34.6819285
          ]
        ]
      },
      "id": "way/1243273026"
    },
    {
      "type": "Feature",
      "properties": {
        "@id": "way/1243273027",
        "highway": "footway"
      },
      "geometry": {
        "type": "LineString",
        "coordinates": [
          [
            -58.4633718,
            -34.6818911
          ],
          [
            -58.4633255,
            -34.6819285
          ],
          [
            -58.4625281,
            -34.6812041
          ],
          [
            -58.4625157,
            -34.6811943
          ],
          [
            -58.4625629,
            -34.6811651
          ]
        ]
      },
      "id": "way/1243273027"
    },
    {
      "type": "Feature",
      "properties": {
        "@id": "way/1243273028",
        "highway": "footway"
      },
      "geometry": {
        "type": "LineString",
        "coordinates": [
          [
            -58.4599274,
            -34.6831477
          ],
          [
            -58.4602529,
            -34.6829007
          ],
          [
            -58.4607823,
            -34.6829239
          ],
          [
            -58.4610913,
            -34.6829339
          ],
          [
            -58.4615559,
            -34.6833055
          ]
        ]
      },
      "id": "way/1243273028"
    },
    {
      "type": "Feature",
      "properties": {
        "@id": "way/1243273029",
        "highway": "footway"
      },
      "geometry": {
        "type": "LineString",
        "coordinates": [
          [
            -58.4587332,
            -34.6833575
          ],
          [
            -58.459007,
            -34.6831411
          ],
          [
            -58.4594605,
            -34.6831629
          ],
          [
            -58.4598718,
            -34.6831834
          ],
          [
            -58.4599274,
            -34.6831477
          ]
        ]
      },
      "id": "way/1243273029"
    },
    {
      "type": "Feature",
      "properties": {
        "@id": "way/1243273030",
        "highway": "footway"
      },
      "geometry": {
        "type": "LineString",
        "coordinates": [
          [
            -58.4587332,
            -34.6833575
          ],
          [
            -58.4586677,
            -34.6834028
          ],
          [
            -58.4582065,
            -34.6833893
          ],
          [
            -58.4578032,
            -34.6833775
          ],
          [
            -58.4574947,
            -34.6835954
          ]
        ]
      },
      "id": "way/1243273030"
    },
    {
      "type": "Feature",
      "properties": {
        "@id": "way/1243273031",
        "highway": "footway"
      },
      "geometry": {
        "type": "LineString",
        "coordinates": [
          [
            -58.4569022,
            -34.6839288
          ],
          [
            -58.456897,
            -34.6839408
          ],
          [
            -58.4568957,
            -34.683954
          ],
          [
            -58.4569049,
            -34.6839695
          ],
          [
            -58.4569258,
            -34.6839836
          ],
          [
            -58.4569434,
            -34.6839813
          ],
          [
            -58.4569591,
            -34.6839692
          ],
          [
            -58.4569615,
            -34.6839523
          ],
          [
            -58.4569512,
            -34.6839368
          ],
          [
            -58.456937,
            -34.6839258
          ],
          [
            -58.4569209,
            -34.6839222
          ],
          [
            -58.4569022,
            -34.6839288
          ]
        ]
      },
      "id": "way/1243273031"
    },
    {
      "type": "Feature",
      "properties": {
        "@id": "way/1243273032",
        "highway": "footway"
      },
      "geometry": {
        "type": "LineString",
        "coordinates": [
          [
            -58.456253,
            -34.6838653
          ],
          [
            -58.4565668,
            -34.6836029
          ],
          [
            -58.4570063,
            -34.6836294
          ],
          [
            -58.4574044,
            -34.6836534
          ],
          [
            -58.4574947,
            -34.6835954
          ]
        ]
      },
      "id": "way/1243273032"
    },
    {
      "type": "Feature",
      "properties": {
        "@id": "way/1243273034",
        "highway": "footway"
      },
      "geometry": {
        "type": "LineString",
        "coordinates": [
          [
            -58.4552884,
            -34.6763886
          ],
          [
            -58.4560258,
            -34.6758271
          ]
        ]
      },
      "id": "way/1243273034"
    },
    {
      "type": "Feature",
      "properties": {
        "@id": "way/1315193659",
        "crossing": "marked",
        "crossing:markings": "zebra",
        "footway": "crossing",
        "highway": "footway"
      },
      "geometry": {
        "type": "LineString",
        "coordinates": [
          [
            -58.4597617,
            -34.6757189
          ],
          [
            -58.4597967,
            -34.6756924
          ],
          [
            -58.4598176,
            -34.6756754
          ],
          [
            -58.4599031,
            -34.6756094
          ],
          [
            -58.4600181,
            -34.6755204
          ],
          [
            -58.4601473,
            -34.67542
          ],
          [
            -58.4602948,
            -34.675306
          ],
          [
            -58.4604122,
            -34.6752151
          ],
          [
            -58.4604684,
            -34.6751716
          ]
        ]
      },
      "id": "way/1315193659"
    },
    {
      "type": "Feature",
      "properties": {
        "@id": "way/1320811062",
        "highway": "path",
        "name": "C. Falcone"
      },
      "geometry": {
        "type": "LineString",
        "coordinates": [
          [
            -58.4641962,
            -34.6772901
          ],
          [
            -58.4641623,
            -34.677261
          ],
          [
            -58.4641008,
            -34.6773094
          ]
        ]
      },
      "id": "way/1320811062"
    },
    {
      "type": "Feature",
      "properties": {
        "@id": "way/1320811063",
        "highway": "path",
        "name": "Leona Vicario"
      },
      "geometry": {
        "type": "LineString",
        "coordinates": [
          [
            -58.4635325,
            -34.6767352
          ],
          [
            -58.4634941,
            -34.6767012
          ],
          [
            -58.4634305,
            -34.6767497
          ]
        ]
      },
      "id": "way/1320811063"
    },
    {
      "type": "Feature",
      "properties": {
        "@id": "way/1320811064",
        "highway": "path",
        "name": "Amelia Celia Figueredo"
      },
      "geometry": {
        "type": "LineString",
        "coordinates": [
          [
            -58.4632262,
            -34.6764923
          ],
          [
            -58.4631866,
            -34.6764594
          ],
          [
            -58.463135,
            -34.6765014
          ]
        ]
      },
      "id": "way/1320811064"
    },
    {
      "type": "Feature",
      "properties": {
        "@id": "way/1320811065",
        "highway": "path",
        "name": "8 de Marzo de 1908"
      },
      "geometry": {
        "type": "LineString",
        "coordinates": [
          [
            -58.4625649,
            -34.6759201
          ],
          [
            -58.4625172,
            -34.6758796
          ],
          [
            -58.4624531,
            -34.6759306
          ]
        ]
      },
      "id": "way/1320811065"
    },
    {
      "type": "Feature",
      "properties": {
        "@id": "way/1320811066",
        "highway": "path",
        "name": "María Reiche"
      },
      "geometry": {
        "type": "LineString",
        "coordinates": [
          [
            -58.4622597,
            -34.6756799
          ],
          [
            -58.4622219,
            -34.6756479
          ],
          [
            -58.4621671,
            -34.6756917
          ]
        ]
      },
      "id": "way/1320811066"
    },
    {
      "type": "Feature",
      "properties": {
        "@id": "way/1320811067",
        "highway": "path",
        "name": "Florentina Gómez Miranda"
      },
      "geometry": {
        "type": "LineString",
        "coordinates": [
          [
            -58.4615684,
            -34.675111
          ],
          [
            -58.4615156,
            -34.6750678
          ],
          [
            -58.4614666,
            -34.6751083
          ]
        ]
      },
      "id": "way/1320811067"
    },
    {
      "type": "Feature",
      "properties": {
        "@id": "way/1320811068",
        "highway": "path",
        "name": "Teresa Rodríguez"
      },
      "geometry": {
        "type": "LineString",
        "coordinates": [
          [
            -58.4612322,
            -34.6749136
          ],
          [
            -58.4612774,
            -34.6748775
          ],
          [
            -58.461243,
            -34.6748484
          ],
          [
            -58.461213,
            -34.674823
          ],
          [
            -58.4611677,
            -34.6748592
          ]
        ]
      },
      "id": "way/1320811068"
    },
    {
      "type": "Feature",
      "properties": {
        "@id": "way/1365393701",
        "crossing": "traffic_signals",
        "crossing:markings": "zebra",
        "footway": "crossing",
        "highway": "footway"
      },
      "geometry": {
        "type": "LineString",
        "coordinates": [
          [
            -58.459977,
            -34.6744896
          ],
          [
            -58.4599514,
            -34.6745147
          ],
          [
            -58.4599148,
            -34.6745414
          ]
        ]
      },
      "id": "way/1365393701"
    },
    {
      "type": "Feature",
      "properties": {
        "@id": "way/1365393702",
        "footway": "traffic_island",
        "highway": "footway"
      },
      "geometry": {
        "type": "LineString",
        "coordinates": [
          [
            -58.4600152,
            -34.6744592
          ],
          [
            -58.4600095,
            -34.6744637
          ],
          [
            -58.459977,
            -34.6744896
          ]
        ]
      },
      "id": "way/1365393702"
    },
    {
      "type": "Feature",
      "properties": {
        "@id": "way/1365395616",
        "highway": "footway"
      },
      "geometry": {
        "type": "LineString",
        "coordinates": [
          [
            -58.4600132,
            -34.675794
          ],
          [
            -58.4599885,
            -34.6758125
          ]
        ]
      },
      "id": "way/1365395616"
    },
    {
      "type": "Feature",
      "properties": {
        "@id": "way/1365395617",
        "highway": "footway"
      },
      "geometry": {
        "type": "LineString",
        "coordinates": [
          [
            -58.4598176,
            -34.6756754
          ],
          [
            -58.4599885,
            -34.6758125
          ],
          [
            -58.4600845,
            -34.675893
          ],
          [
            -58.4601175,
            -34.6758664
          ]
        ]
      },
      "id": "way/1365395617"
    },
    {
      "type": "Feature",
      "properties": {
        "@id": "way/1365396463",
        "highway": "footway"
      },
      "geometry": {
        "type": "LineString",
        "coordinates": [
          [
            -58.4578758,
            -34.6743434
          ],
          [
            -58.4579817,
            -34.6743555
          ],
          [
            -58.4580883,
            -34.674393
          ],
          [
            -58.4582078,
            -34.6744464
          ],
          [
            -58.4584524,
            -34.6746511
          ],
          [
            -58.4585242,
            -34.6746511
          ],
          [
            -58.4586781,
            -34.6747735
          ],
          [
            -58.4588258,
            -34.6748883
          ],
          [
            -58.4588536,
            -34.6749472
          ],
          [
            -58.4590898,
            -34.6751479
          ],
          [
            -58.4597617,
            -34.6757189
          ]
        ]
      },
      "id": "way/1365396463"
    },
    {
      "type": "Feature",
      "properties": {
        "@id": "way/1374184024",
        "highway": "footway"
      },
      "geometry": {
        "type": "LineString",
        "coordinates": [
          [
            -58.4607274,
            -34.6827832
          ],
          [
            -58.4606696,
            -34.682762
          ],
          [
            -58.4605794,
            -34.6827518
          ]
        ]
      },
      "id": "way/1374184024"
    },
    {
      "type": "Feature",
      "properties": {
        "@id": "way/1374184025",
        "highway": "footway"
      },
      "geometry": {
        "type": "LineString",
        "coordinates": [
          [
            -58.4607526,
            -34.6832449
          ],
          [
            -58.4607336,
            -34.6832729
          ],
          [
            -58.4607072,
            -34.6832763
          ],
          [
            -58.4607,
            -34.6832646
          ],
          [
            -58.460649,
            -34.6832321
          ]
        ]
      },
      "id": "way/1374184025"
    },
    {
      "type": "Feature",
      "properties": {
        "@id": "way/1374184026",
        "highway": "footway"
      },
      "geometry": {
        "type": "LineString",
        "coordinates": [
          [
            -58.4607251,
            -34.6832179
          ],
          [
            -58.4607,
            -34.6832646
          ]
        ]
      },
      "id": "way/1374184026"
    },
    {
      "type": "Feature",
      "properties": {
        "@id": "way/1374184027",
        "highway": "footway"
      },
      "geometry": {
        "type": "LineString",
        "coordinates": [
          [
            -58.4607072,
            -34.6832763
          ],
          [
            -58.4607112,
            -34.6833103
          ],
          [
            -58.4607112,
            -34.6833808
          ],
          [
            -58.4607204,
            -34.6833916
          ],
          [
            -58.4607377,
            -34.6833983
          ],
          [
            -58.4607509,
            -34.6833925
          ],
          [
            -58.4608068,
            -34.683359
          ],
          [
            -58.4608942,
            -34.683364
          ],
          [
            -58.4609115,
            -34.6833582
          ],
          [
            -58.4609186,
            -34.6833465
          ],
          [
            -58.4609115,
            -34.6833323
          ],
          [
            -58.4608056,
            -34.6832669
          ]
        ]
      },
      "id": "way/1374184027"
    },
    {
      "type": "Feature",
      "properties": {
        "@id": "way/1374184028",
        "highway": "footway"
      },
      "geometry": {
        "type": "LineString",
        "coordinates": [
          [
            -58.4607853,
            -34.683277
          ],
          [
            -58.4607112,
            -34.6833103
          ]
        ]
      },
      "id": "way/1374184028"
    },
    {
      "type": "Feature",
      "properties": {
        "@id": "way/1374184030",
        "highway": "footway"
      },
      "geometry": {
        "type": "LineString",
        "coordinates": [
          [
            -58.4593581,
            -34.6829944
          ],
          [
            -58.4593261,
            -34.6830059
          ],
          [
            -58.4592969,
            -34.6830011
          ],
          [
            -58.4592747,
            -34.6829858
          ],
          [
            -58.4592759,
            -34.6829704
          ],
          [
            -58.4592911,
            -34.682956
          ],
          [
            -58.4593179,
            -34.6829474
          ],
          [
            -58.4593752,
            -34.6829829
          ],
          [
            -58.4593581,
            -34.6829944
          ]
        ]
      },
      "id": "way/1374184030"
    },
    {
      "type": "Feature",
      "properties": {
        "@id": "way/1374184034",
        "highway": "footway"
      },
      "geometry": {
        "type": "LineString",
        "coordinates": [
          [
            -58.4582065,
            -34.6833893
          ],
          [
            -58.4581392,
            -34.683327
          ],
          [
            -58.4580934,
            -34.6833119
          ]
        ]
      },
      "id": "way/1374184034"
    },
    {
      "type": "Feature",
      "properties": {
        "@id": "way/1374184035",
        "highway": "footway"
      },
      "geometry": {
        "type": "LineString",
        "coordinates": [
          [
            -58.4582065,
            -34.6833893
          ],
          [
            -58.4582542,
            -34.6833052
          ],
          [
            -58.4583905,
            -34.6832542
          ]
        ]
      },
      "id": "way/1374184035"
    },
    {
      "type": "Feature",
      "properties": {
        "@id": "way/1374184041",
        "highway": "footway"
      },
      "geometry": {
        "type": "LineString",
        "coordinates": [
          [
            -58.4535367,
            -34.6779837
          ],
          [
            -58.4534494,
            -34.6780509
          ],
          [
            -58.4537341,
            -34.6782999
          ],
          [
            -58.4540164,
            -34.6785488
          ],
          [
            -58.4540225,
            -34.6779018
          ],
          [
            -58.4539412,
            -34.6778233
          ],
          [
            -58.4538985,
            -34.6776477
          ],
          [
            -58.4539005,
            -34.677621
          ],
          [
            -58.4539829,
            -34.6775483
          ]
        ]
      },
      "id": "way/1374184041"
    },
    {
      "type": "Feature",
      "properties": {
        "@id": "way/1374184042",
        "highway": "footway"
      },
      "geometry": {
        "type": "LineString",
        "coordinates": [
          [
            -58.4540164,
            -34.6785488
          ],
          [
            -58.4540519,
            -34.6785853
          ],
          [
            -58.4538992,
            -34.6787091
          ]
        ]
      },
      "id": "way/1374184042"
    },
    {
      "type": "Feature",
      "properties": {
        "@id": "way/1374184043",
        "highway": "footway"
      },
      "geometry": {
        "type": "LineString",
        "coordinates": [
          [
            -58.4540225,
            -34.6779018
          ],
          [
            -58.4542402,
            -34.6779052
          ]
        ]
      },
      "id": "way/1374184043"
    },
    {
      "type": "Feature",
      "properties": {
        "@id": "way/1387368947",
        "highway": "footway",
        "indoor": "yes",
        "layer": "-1",
        "name": "Salida de Emergencia"
      },
      "geometry": {
        "type": "LineString",
        "coordinates": [
          [
            -58.4589429,
            -34.6752588
          ],
          [
            -58.4590227,
            -34.6751994
          ]
        ]
      },
      "id": "way/1387368947"
    },
    {
      "type": "Feature",
      "properties": {
        "@id": "way/1387368952",
        "highway": "footway",
        "indoor": "yes",
        "layer": "-1"
      },
      "geometry": {
        "type": "LineString",
        "coordinates": [
          [
            -58.459269,
            -34.6760949
          ],
          [
            -58.4593249,
            -34.6761512
          ],
          [
            -58.4593249,
            -34.6762397
          ]
        ]
      },
      "id": "way/1387368952"
    },
    {
      "type": "Feature",
      "properties": {
        "@id": "way/1387370127",
        "highway": "footway",
        "layer": "-1"
      },
      "geometry": {
        "type": "LineString",
        "coordinates": [
          [
            -58.4593249,
            -34.6762397
          ],
          [
            -58.4593252,
            -34.6762622
          ]
        ]
      },
      "id": "way/1387370127"
    },
    {
      "type": "Feature",
      "properties": {
        "@id": "way/1387370129",
        "highway": "footway",
        "layer": "-1",
        "name": "Salida de Emergencia"
      },
      "geometry": {
        "type": "LineString",
        "coordinates": [
          [
            -58.4590227,
            -34.6751994
          ],
          [
            -58.4590898,
            -34.6751479
          ]
        ]
      },
      "id": "way/1387370129"
    },
    {
      "type": "Feature",
      "properties": {
        "@id": "way/1387555729",
        "highway": "footway",
        "name": "Salida de Emergencia"
      },
      "geometry": {
        "type": "LineString",
        "coordinates": [
          [
            -58.4588439,
            -34.6760206
          ],
          [
            -58.4587361,
            -34.6760997
          ],
          [
            -58.4587338,
            -34.6762646
          ]
        ]
      },
      "id": "way/1387555729"
    }
  ]
}