{
  "type": "FeatureCollection",
  "features": [
    {
      "type": "Feature",
      "properties": {
        "@id": "way/23648273",
        "highway": "footway",
        "lit": "yes",
        "name": "Puente de la Mujer",
        "name:de": "Frauenbrücke",
        "name:en": "Women's Bridge",
        "name:uk": "Жіночий міст",
        "surface": "paved"
      },
      "geometry": {
        "type": "LineString",
        "coordinates": [
          [-58.3641917, -34.6079405],
          [-58.364244, -34.6079452]
        ]
      },
      "id": "way/23648273"
    },
    {
      "type": "Feature",
      "properties": {
        "@id": "way/28734485",
        "bicycle": "no",
        "highway": "pedestrian",
        "name": "Pierina Dealessi",
        "surface": "sett"
      },
      "geometry": {
        "type": "LineString",
        "coordinates": [
          [-58.3638683, -34.6119572],
          [-58.3638916, -34.6117535],
          [-58.3637668, -34.6116514],
          [-58.363877, -34.6106091],
          [-58.363994, -34.6095017],
          [-58.3641604, -34.6082094],
          [-58.3641917, -34.6079405],
          [-58.3642519, -34.6074552],
          [-58.364359, -34.6066526],
          [-58.3644948, -34.6054403],
          [-58.3644562, -34.6053966],
          [-58.3644397, -34.6052997]
        ]
      },
      "id": "way/28734485"
    },
    {
      "type": "Feature",
      "properties": {
        "@id": "way/83432711",
        "highway": "pedestrian",
        "lit": "yes",
        "name": "Carola Lorenzini",
        "oneway": "yes",
        "surface": "concrete"
      },
      "geometry": {
        "type": "LineString",
        "coordinates": [
          [-58.3641604, -34.6082094],
          [-58.3637938, -34.6081793],
          [-58.3631226, -34.6081219],
          [-58.3631364, -34.6080125],
          [-58.3630044, -34.6080011]
        ]
      },
      "id": "way/83432711"
    },
    {
      "type": "Feature",
      "properties": {
        "@id": "way/83432731",
        "highway": "pedestrian",
        "lit": "yes",
        "name": "Olga Cossettini",
        "name:etymology:wikidata": "Q9052012",
        "surface": "paving_stones"
      },
      "geometry": {
        "type": "LineString",
        "coordinates": [
          [-58.3641439, -34.6052556],
          [-58.3641191, -34.6054561],
          [-58.3641064, -34.6055101],
          [-58.3640871, -34.6055574],
          [-58.3639799, -34.6066181],
          [-58.3638658, -34.6075448],
          [-58.3638365, -34.6077823],
          [-58.3637938, -34.6081793],
          [-58.3637582, -34.6088528],
          [-58.363704, -34.6094807]
        ]
      },
      "id": "way/83432731"
    },
    {
      "type": "Feature",
      "properties": {
        "@id": "way/83432737",
        "highway": "pedestrian",
        "lit": "yes",
        "name": "Manuela Sáenz",
        "surface": "paving_stones"
      },
      "geometry": {
        "type": "LineString",
        "coordinates": [
          [-58.364359, -34.6066526],
          [-58.3639799, -34.6066181]
        ]
      },
      "id": "way/83432737"
    },
    {
      "type": "Feature",
      "properties": {
        "@id": "way/83432742",
        "highway": "pedestrian",
        "lit": "yes",
        "name": "Marta Lynch",
        "oneway": "yes",
        "surface": "concrete"
      },
      "geometry": {
        "type": "LineString",
        "coordinates": [
          [-58.363994, -34.6095017],
          [-58.363704, -34.6094807],
          [-58.3636269, -34.6094757]
        ]
      },
      "id": "way/83432742"
    },
    {
      "type": "Feature",
      "properties": {
        "@id": "way/99009499",
        "bicycle": "no",
        "highway": "pedestrian",
        "lit": "yes",
        "name": "Juana Manuela Gorriti",
        "name:etymology:wikidata": "Q14077",
        "surface": "sett"
      },
      "geometry": {
        "type": "LineString",
        "coordinates": [
          [-58.3646697, -34.6234647],
          [-58.3647099, -34.6232937],
          [-58.3643398, -34.623263],
          [-58.364605, -34.6209136],
          [-58.3647445, -34.6196797],
          [-58.3648747, -34.6185272],
          [-58.3649407, -34.6179547],
          [-58.3649516, -34.6178422],
          [-58.3650022, -34.6173832],
          [-58.3651021, -34.6164548],
          [-58.3651306, -34.6162092],
          [-58.3652656, -34.615044],
          [-58.3654057, -34.6138343],
          [-58.3655389, -34.6126847],
          [-58.3656105, -34.6120816],
          [-58.3656389, -34.6118355],
          [-58.3656947, -34.6113935],
          [-58.3658317, -34.6103092],
          [-58.3659356, -34.6092536],
          [-58.3659484, -34.6091198],
          [-58.3659975, -34.6086059],
          [-58.3660311, -34.6082541],
          [-58.366048, -34.6080892],
          [-58.3660526, -34.6080457],
          [-58.3661849, -34.6069624],
          [-58.3663771, -34.6052839]
        ]
      },
      "id": "way/99009499"
    },
    {
      "type": "Feature",
      "properties": {
        "@id": "way/185738987",
        "highway": "footway",
        "lit": "yes",
        "smoothness": "excellent",
        "surface": "concrete"
      },
      "geometry": {
        "type": "LineString",
        "coordinates": [
          [-58.368623, -34.6081378],
          [-58.3686407, -34.6082268],
          [-58.3686722, -34.6083298],
          [-58.3687366, -34.6084826],
          [-58.368811, -34.6086156],
          [-58.3688868, -34.608726],
          [-58.3689525, -34.6088011],
          [-58.3690256, -34.6088822],
          [-58.3691745, -34.609002],
          [-58.3692321, -34.6090334],
          [-58.3693487, -34.6090566],
          [-58.369392, -34.6090327],
          [-58.3694454, -34.6089963],
          [-58.3696079, -34.6087805],
          [-58.3696576, -34.6087417],
          [-58.3697308, -34.6087308],
          [-58.3698316, -34.6087305],
          [-58.370688, -34.6087604],
          [-58.3707679, -34.6087644],
          [-58.3708343, -34.6087618],
          [-58.3708776, -34.6087442],
          [-58.3709054, -34.6087162],
          [-58.370922, -34.6086698],
          [-58.3709474, -34.6083397],
          [-58.3709774, -34.6079493],
          [-58.37099, -34.6078239],
          [-58.3709299, -34.6077339],
          [-58.3708699, -34.6076553],
          [-58.3707605, -34.6075104],
          [-58.3706926, -34.6074423],
          [-58.3706138, -34.6073898],
          [-58.3705571, -34.6073645],
          [-58.3705074, -34.6073525],
          [-58.3704284, -34.6073456],
          [-58.3703692, -34.6073436],
          [-58.3703112, -34.6072857],
          [-58.37014, -34.6071166],
          [-58.3701199, -34.6070295],
          [-58.3701052, -34.6069434],
          [-58.3700703, -34.6068871],
          [-58.370018, -34.6068264],
          [-58.3699268, -34.6067601],
          [-58.3697675, -34.6066784],
          [-58.3696543, -34.6066385],
          [-58.3696034, -34.6066244],
          [-58.3695487, -34.6066165],
          [-58.3694923, -34.6066149],
          [-58.3694117, -34.6066183]
        ]
      },
      "id": "way/185738987"
    },
    {
      "type": "Feature",
      "properties": {
        "@id": "way/204265437",
        "bridge": "yes",
        "highway": "footway",
        "layer": 1
      },
      "geometry": {
        "type": "LineString",
        "coordinates": [
          [-58.3659001, -34.6091169],
          [-58.3657045, -34.6091071]
        ]
      },
      "id": "way/204265437"
    },
    {
      "type": "Feature",
      "properties": {
        "@id": "way/259109135",
        "highway": "footway"
      },
      "geometry": {
        "type": "LineString",
        "coordinates": [
          [-58.3661849, -34.6069624],
          [-58.3664829, -34.6069699],
          [-58.3667246, -34.6070564],
          [-58.3668007, -34.6070615],
          [-58.3668838, -34.6070681]
        ]
      },
      "id": "way/259109135"
    },
    {
      "type": "Feature",
      "properties": {
        "@id": "way/259109136",
        "highway": "footway"
      },
      "geometry": {
        "type": "LineString",
        "coordinates": [
          [-58.3660311, -34.6082541],
          [-58.3664655, -34.6082554]
        ]
      },
      "id": "way/259109136"
    },
    {
      "type": "Feature",
      "properties": {
        "@id": "way/259109137",
        "highway": "footway"
      },
      "geometry": {
        "type": "LineString",
        "coordinates": [
          [-58.3659356, -34.6092536],
          [-58.3664632, -34.6092821],
          [-58.3663123, -34.6091112],
          [-58.3661672, -34.6089715],
          [-58.3661326, -34.6088197],
          [-58.3661246, -34.6087846],
          [-58.3661235, -34.6086425],
          [-58.3661828, -34.6085031],
          [-58.366285, -34.6083606],
          [-58.3663581, -34.6082845],
          [-58.3664655, -34.6082554]
        ]
      },
      "id": "way/259109137"
    },
    {
      "type": "Feature",
      "properties": {
        "@id": "way/265137396",
        "highway": "footway"
      },
      "geometry": {
        "type": "LineString",
        "coordinates": [
          [-58.3666155, -34.60799],
          [-58.3665311, -34.6079843],
          [-58.3665264, -34.6080428],
          [-58.3664627, -34.6080312],
          [-58.3663588, -34.6080764],
          [-58.3660526, -34.6080457]
        ]
      },
      "id": "way/265137396"
    },
    {
      "type": "Feature",
      "properties": {
        "@id": "way/265137397",
        "highway": "footway"
      },
      "geometry": {
        "type": "LineString",
        "coordinates": [
          [-58.3658317, -34.6103092],
          [-58.3663583, -34.6103528]
        ]
      },
      "id": "way/265137397"
    },
    {
      "type": "Feature",
      "properties": {
        "@id": "way/265137401",
        "highway": "footway",
        "lit": "yes"
      },
      "geometry": {
        "type": "LineString",
        "coordinates": [
          [-58.3662273, -34.6114226],
          [-58.3656947, -34.6113935]
        ]
      },
      "id": "way/265137401"
    },
    {
      "type": "Feature",
      "properties": {
        "@id": "way/265137402",
        "highway": "footway"
      },
      "geometry": {
        "type": "LineString",
        "coordinates": [
          [-58.3665332, -34.6087498],
          [-58.3664002, -34.60872],
          [-58.3661235, -34.6086425],
          [-58.3659975, -34.6086059]
        ]
      },
      "id": "way/265137402"
    },
    {
      "type": "Feature",
      "properties": {
        "@id": "way/307155460",
        "highway": "footway",
        "lit": "yes",
        "name": "Puente de la Mujer",
        "name:de": "Frauenbrücke",
        "name:en": "Women's Bridge",
        "name:uk": "Жіночий міст"
      },
      "geometry": {
        "type": "LineString",
        "coordinates": [
          [-58.3660141, -34.6080874],
          [-58.366048, -34.6080892]
        ]
      },
      "id": "way/307155460"
    },
    {
      "type": "Feature",
      "properties": {
        "@id": "way/307155462",
        "bridge": "movable",
        "bridge:movable": "swing",
        "highway": "footway",
        "layer": 1,
        "lit": "yes",
        "name": "Puente de la Mujer",
        "name:de": "Frauenbrücke",
        "name:en": "Women's Bridge",
        "name:uk": "Жіночий міст",
        "surface": "wood",
        "tourism": "attraction",
        "wikidata": "Q2336867",
        "wikimedia_commons": "Category:Puente de la Mujer",
        "wikipedia": "es:Puente de la Mujer"
      },
      "geometry": {
        "type": "LineString",
        "coordinates": [
          [-58.364244, -34.6079452],
          [-58.3660141, -34.6080874]
        ]
      },
      "id": "way/307155462"
    },
    {
      "type": "Feature",
      "properties": {
        "@id": "way/411190384",
        "highway": "pedestrian",
        "lit": "yes",
        "name": "Azucena Maizani",
        "surface": "concrete"
      },
      "geometry": {
        "type": "LineString",
        "coordinates": [
          [-58.3635138, -34.6105846],
          [-58.363877, -34.6106091]
        ]
      },
      "id": "way/411190384"
    },
    {
      "type": "Feature",
      "properties": {
        "@id": "way/455427312",
        "access": "permissive",
        "highway": "footway"
      },
      "geometry": {
        "type": "LineString",
        "coordinates": [
          [-58.3683672, -34.6096893],
          [-58.3683459, -34.6096885],
          [-58.3681428, -34.6096726]
        ]
      },
      "id": "way/455427312"
    },
    {
      "type": "Feature",
      "properties": {
        "@id": "way/455427313",
        "access": "permissive",
        "highway": "footway"
      },
      "geometry": {
        "type": "LineString",
        "coordinates": [
          [-58.3683168, -34.6101413],
          [-58.3682954, -34.6101398],
          [-58.3680929, -34.6101254]
        ]
      },
      "id": "way/455427313"
    },
    {
      "type": "Feature",
      "properties": {
        "@id": "way/680656714",
        "highway": "footway"
      },
      "geometry": {
        "type": "LineString",
        "coordinates": [
          [-58.3659484, -34.6091198],
          [-58.3659001, -34.6091169]
        ]
      },
      "id": "way/680656714"
    },
    {
      "type": "Feature",
      "properties": {
        "@id": "way/692672629",
        "highway": "footway",
        "lit": "yes",
        "surface": "concrete"
      },
      "geometry": {
        "type": "LineString",
        "coordinates": [
          [-58.3682583, -34.6081464],
          [-58.3681961, -34.6081435],
          [-58.3681438, -34.608141],
          [-58.3680749, -34.6081378],
          [-58.3677867, -34.6081242],
          [-58.3676472, -34.6081185],
          [-58.3675669, -34.6081154],
          [-58.3671829, -34.6080957]
        ]
      },
      "id": "way/692672629"
    },
    {
      "type": "Feature",
      "properties": {
        "@id": "way/692672631",
        "highway": "footway"
      },
      "geometry": {
        "type": "LineString",
        "coordinates": [
          [-58.3668289, -34.6080825],
          [-58.3667605, -34.6080041],
          [-58.3667044, -34.6079987],
          [-58.3666155, -34.60799]
        ]
      },
      "id": "way/692672631"
    },
    {
      "type": "Feature",
      "properties": {
        "@id": "way/692672632",
        "bridge": "yes",
        "highway": "footway",
        "layer": 1
      },
      "geometry": {
        "type": "LineString",
        "coordinates": [
          [-58.3671829, -34.6080957],
          [-58.3670729, -34.6080913]
        ]
      },
      "id": "way/692672632"
    },
    {
      "type": "Feature",
      "properties": {
        "@id": "way/692672634",
        "footway": "crossing",
        "highway": "footway",
        "lit": "yes",
        "surface": "concrete"
      },
      "geometry": {
        "type": "LineString",
        "coordinates": [
          [-58.368623, -34.6081378],
          [-58.3685036, -34.6081406],
          [-58.3684416, -34.6081421],
          [-58.3683726, -34.6081437],
          [-58.3682931, -34.6081456],
          [-58.3682583, -34.6081464]
        ]
      },
      "id": "way/692672634"
    },
    {
      "type": "Feature",
      "properties": {
        "@id": "way/694903646",
        "highway": "footway",
        "lit": "yes",
        "surface": "concrete"
      },
      "geometry": {
        "type": "LineString",
        "coordinates": [
          [-58.368583, -34.6090516],
          [-58.3685712, -34.6091738],
          [-58.3685235, -34.6096687],
          [-58.368506, -34.6098491],
          [-58.3684912, -34.6100026],
          [-58.3684693, -34.6102303],
          [-58.3683993, -34.6109568],
          [-58.3683819, -34.6111124]
        ]
      },
      "id": "way/694903646"
    },
    {
      "type": "Feature",
      "properties": {
        "@id": "way/694903648",
        "highway": "footway",
        "lit": "yes",
        "surface": "concrete"
      },
      "geometry": {
        "type": "LineString",
        "coordinates": [
          [-58.3682343, -34.6085075],
          [-58.3682044, -34.6088494],
          [-58.3681785, -34.6091447]
        ]
      },
      "id": "way/694903648"
    },
    {
      "type": "Feature",
      "properties": {
        "@id": "way/694903650",
        "highway": "footway",
        "lit": "yes",
        "surface": "concrete"
      },
      "geometry": {
        "type": "LineString",
        "coordinates": [
          [-58.3687837, -34.6053407],
          [-58.3687628, -34.6055608],
          [-58.3687377, -34.6058051],
          [-58.3687112, -34.6060593],
          [-58.368683, -34.606318],
          [-58.368674, -34.6065491],
          [-58.3686716, -34.6065761],
          [-58.3685957, -34.6066577],
          [-58.3685086, -34.6067546],
          [-58.3684241, -34.6068531],
          [-58.368379, -34.6069153],
          [-58.3683313, -34.6069905],
          [-58.3682721, -34.6071033],
          [-58.3682341, -34.6071851],
          [-58.3682015, -34.6072706],
          [-58.3681839, -34.6073498],
          [-58.3681621, -34.6074833],
          [-58.3681515, -34.6075644],
          [-58.368144, -34.6076742],
          [-58.368143, -34.607714],
          [-58.3681415, -34.607776],
          [-58.3681392, -34.607919],
          [-58.3681438, -34.608141],
          [-58.3681518, -34.6082107],
          [-58.3681687, -34.6082959],
          [-58.3682012, -34.6084078],
          [-58.3682343, -34.6085075],
          [-58.3683336, -34.6087161],
          [-58.3684816, -34.60893],
          [-58.368583, -34.6090516],
          [-58.368707, -34.6091853],
          [-58.3687386, -34.6092194],
          [-58.3688957, -34.6093182],
          [-58.3689317, -34.6093408],
          [-58.369087, -34.609414],
          [-58.3691312, -34.6094349],
          [-58.3692184, -34.6094383]
        ]
      },
      "id": "way/694903650"
    },
    {
      "type": "Feature",
      "properties": {
        "@id": "way/709703200",
        "highway": "footway",
        "lit": "yes"
      },
      "geometry": {
        "type": "LineString",
        "coordinates": [
          [-58.3641917, -34.6079405],
          [-58.3638365, -34.6077823]
        ]
      },
      "id": "way/709703200"
    },
    {
      "type": "Feature",
      "properties": {
        "@id": "way/709703201",
        "highway": "footway",
        "lit": "yes"
      },
      "geometry": {
        "type": "LineString",
        "coordinates": [
          [-58.3638658, -34.6075448],
          [-58.3642519, -34.6074552]
        ]
      },
      "id": "way/709703201"
    },
    {
      "type": "Feature",
      "properties": {
        "@id": "way/709703202",
        "highway": "footway"
      },
      "geometry": {
        "type": "LineString",
        "coordinates": [
          [-58.3668572, -34.6061321],
          [-58.3665894, -34.6058467],
          [-58.3665427, -34.6057975],
          [-58.3664857, -34.6057187],
          [-58.3664633, -34.6056668],
          [-58.3665064, -34.6051946]
        ]
      },
      "id": "way/709703202"
    },
    {
      "type": "Feature",
      "properties": {
        "@id": "way/709703203",
        "highway": "footway"
      },
      "geometry": {
        "type": "LineString",
        "coordinates": [
          [-58.3665894, -34.6058467],
          [-58.3665874, -34.6057975],
          [-58.3666017, -34.6057522],
          [-58.3666424, -34.6057254],
          [-58.3667095, -34.6057104],
          [-58.3667916, -34.6057055],
          [-58.3669006, -34.605713]
        ]
      },
      "id": "way/709703203"
    },
    {
      "type": "Feature",
      "properties": {
        "@id": "way/794572552",
        "highway": "footway",
        "lit": "yes"
      },
      "geometry": {
        "type": "LineString",
        "coordinates": [
          [-58.3661677, -34.611044],
          [-58.3662704, -34.6110521],
          [-58.3663564, -34.6110578],
          [-58.3664413, -34.6110638]
        ]
      },
      "id": "way/794572552"
    },
    {
      "type": "Feature",
      "properties": {
        "@id": "way/794572553",
        "highway": "footway",
        "lit": "yes"
      },
      "geometry": {
        "type": "LineString",
        "coordinates": [
          [-58.3664426, -34.6108486],
          [-58.3663843, -34.6108465],
          [-58.3662943, -34.6108409],
          [-58.3662079, -34.6108353]
        ]
      },
      "id": "way/794572553"
    },
    {
      "type": "Feature",
      "properties": {
        "@id": "way/847017670",
        "highway": "footway",
        "lit": "yes",
        "surface": "concrete"
      },
      "geometry": {
        "type": "LineString",
        "coordinates": [
          [-58.3682015, -34.6072706],
          [-58.3682116, -34.6070329],
          [-58.3682296, -34.606965],
          [-58.3682528, -34.6067457],
          [-58.3682705, -34.6065786],
          [-58.3682776, -34.6065359],
          [-58.3683044, -34.6063749],
          [-58.368313, -34.6062929],
          [-58.3683258, -34.6061826],
          [-58.3683403, -34.6060365],
          [-58.3683652, -34.6057866],
          [-58.3683672, -34.6057658],
          [-58.3683742, -34.6057126],
          [-58.3683897, -34.6056581],
          [-58.3684152, -34.6055992],
          [-58.3684452, -34.6055344],
          [-58.3684733, -34.6054856],
          [-58.3685093, -34.60543],
          [-58.3685491, -34.6053879],
          [-58.3685847, -34.6053546],
          [-58.3686025, -34.6053414],
          [-58.3686595, -34.6053318],
          [-58.3687231, -34.6053345]
        ]
      },
      "id": "way/847017670"
    },
    {
      "type": "Feature",
      "properties": {
        "@id": "way/847017672",
        "highway": "footway",
        "lit": "yes",
        "surface": "paving_stones"
      },
      "geometry": {
        "type": "LineString",
        "coordinates": [
          [-58.3682528, -34.6067457],
          [-58.3684044, -34.606751],
          [-58.3685086, -34.6067546]
        ]
      },
      "id": "way/847017672"
    },
    {
      "type": "Feature",
      "properties": {
        "@id": "way/847017673",
        "highway": "footway",
        "lit": "yes",
        "surface": "paving_stones"
      },
      "geometry": {
        "type": "LineString",
        "coordinates": [
          [-58.3682776, -34.6065359],
          [-58.3684174, -34.6065406],
          [-58.3685978, -34.6065445]
        ]
      },
      "id": "way/847017673"
    },
    {
      "type": "Feature",
      "properties": {
        "@id": "way/847017680",
        "highway": "footway",
        "lit": "yes",
        "surface": "paving_stones"
      },
      "geometry": {
        "type": "LineString",
        "coordinates": [
          [-58.3684174, -34.6065406],
          [-58.3684044, -34.606751]
        ]
      },
      "id": "way/847017680"
    },
    {
      "type": "Feature",
      "properties": {
        "@id": "way/847017686",
        "highway": "footway",
        "lit": "yes",
        "surface": "paving_stones"
      },
      "geometry": {
        "type": "LineString",
        "coordinates": [
          [-58.3682296, -34.606965],
          [-58.3678994, -34.6069379]
        ]
      },
      "id": "way/847017686"
    },
    {
      "type": "Feature",
      "properties": {
        "@id": "way/847017692",
        "highway": "footway",
        "surface": "concrete"
      },
      "geometry": {
        "type": "LineString",
        "coordinates": [
          [-58.3679782, -34.606049],
          [-58.3679119, -34.6067974],
          [-58.3678994, -34.6069379]
        ]
      },
      "id": "way/847017692"
    },
    {
      "type": "Feature",
      "properties": {
        "@id": "way/847017693",
        "highway": "footway",
        "lit": "yes",
        "surface": "concrete"
      },
      "geometry": {
        "type": "LineString",
        "coordinates": [
          [-58.3678994, -34.6069379],
          [-58.3678748, -34.6071978],
          [-58.3678359, -34.6076758],
          [-58.3677867, -34.6081242]
        ]
      },
      "id": "way/847017693"
    },
    {
      "type": "Feature",
      "properties": {
        "@id": "way/847017694",
        "highway": "footway",
        "lit": "yes",
        "surface": "paving_stones"
      },
      "geometry": {
        "type": "LineString",
        "coordinates": [
          [-58.3678359, -34.6076758],
          [-58.368143, -34.607714]
        ]
      },
      "id": "way/847017694"
    },
    {
      "type": "Feature",
      "properties": {
        "@id": "way/847017696",
        "highway": "footway",
        "lit": "yes",
        "surface": "concrete"
      },
      "geometry": {
        "type": "LineString",
        "coordinates": [
          [-58.3680749, -34.6081378],
          [-58.3680178, -34.6086023],
          [-58.3679894, -34.6088333],
          [-58.3679532, -34.6091279]
        ]
      },
      "id": "way/847017696"
    },
    {
      "type": "Feature",
      "properties": {
        "@id": "way/847017697",
        "highway": "footway",
        "lit": "yes",
        "surface": "concrete"
      },
      "geometry": {
        "type": "LineString",
        "coordinates": [
          [-58.3681785, -34.6091447],
          [-58.3679532, -34.6091279],
          [-58.3676696, -34.6091075]
        ]
      },
      "id": "way/847017697"
    },
    {
      "type": "Feature",
      "properties": {
        "@id": "way/847017698",
        "highway": "footway",
        "lit": "yes",
        "surface": "concrete"
      },
      "geometry": {
        "type": "LineString",
        "coordinates": [
          [-58.3681785, -34.6091447],
          [-58.3684636, -34.6091658],
          [-58.3685712, -34.6091738]
        ]
      },
      "id": "way/847017698"
    },
    {
      "type": "Feature",
      "properties": {
        "@id": "way/847017699",
        "highway": "footway",
        "lit": "yes",
        "surface": "concrete"
      },
      "geometry": {
        "type": "LineString",
        "coordinates": [
          [-58.3676696, -34.6091075],
          [-58.3677326, -34.6085786],
          [-58.3677867, -34.6081242]
        ]
      },
      "id": "way/847017699"
    },
    {
      "type": "Feature",
      "properties": {
        "@id": "way/847328334",
        "highway": "footway",
        "lit": "yes",
        "surface": "concrete"
      },
      "geometry": {
        "type": "LineString",
        "coordinates": [
          [-58.3689644, -34.611145],
          [-58.3690275, -34.6102535],
          [-58.369067, -34.6096969],
          [-58.369087, -34.609414]
        ]
      },
      "id": "way/847328334"
    },
    {
      "type": "Feature",
      "properties": {
        "@id": "way/847328335",
        "highway": "footway",
        "lit": "yes",
        "surface": "concrete"
      },
      "geometry": {
        "type": "LineString",
        "coordinates": [
          [-58.3687368, -34.6111377],
          [-58.3688127, -34.6102455],
          [-58.3688329, -34.6100198],
          [-58.3688465, -34.6098684],
          [-58.3688628, -34.6096863],
          [-58.3688957, -34.6093182]
        ]
      },
      "id": "way/847328335"
    },
    {
      "type": "Feature",
      "properties": {
        "@id": "way/847328336",
        "highway": "footway",
        "lit": "yes",
        "surface": "concrete"
      },
      "geometry": {
        "type": "LineString",
        "coordinates": [
          [-58.3685064, -34.6111261],
          [-58.3685971, -34.6102366],
          [-58.3686208, -34.6100091],
          [-58.3686368, -34.6098565],
          [-58.3686557, -34.6096755],
          [-58.368707, -34.6091853]
        ]
      },
      "id": "way/847328336"
    },
    {
      "type": "Feature",
      "properties": {
        "@id": "way/847328337",
        "highway": "footway",
        "lit": "yes",
        "surface": "concrete"
      },
      "geometry": {
        "type": "LineString",
        "coordinates": [
          [-58.369207, -34.6102596],
          [-58.3690275, -34.6102535],
          [-58.3688127, -34.6102455],
          [-58.3685971, -34.6102366],
          [-58.3684693, -34.6102303]
        ]
      },
      "id": "way/847328337"
    },
    {
      "type": "Feature",
      "properties": {
        "@id": "way/847328338",
        "highway": "footway",
        "lit": "yes",
        "surface": "concrete"
      },
      "geometry": {
        "type": "LineString",
        "coordinates": [
          [-58.3688465, -34.6098684],
          [-58.3686368, -34.6098565],
          [-58.368506, -34.6098491],
          [-58.3684114, -34.6098438]
        ]
      },
      "id": "way/847328338"
    },
    {
      "type": "Feature",
      "properties": {
        "@id": "way/847328339",
        "highway": "footway",
        "lit": "yes"
      },
      "geometry": {
        "type": "LineString",
        "coordinates": [
          [-58.3684693, -34.6102303],
          [-58.3683859, -34.6101532],
          [-58.3683168, -34.6101413]
        ]
      },
      "id": "way/847328339"
    },
    {
      "type": "Feature",
      "properties": {
        "@id": "way/847328340",
        "highway": "footway",
        "lit": "yes",
        "surface": "concrete"
      },
      "geometry": {
        "type": "LineString",
        "coordinates": [
          [-58.3688329, -34.6100198],
          [-58.3686208, -34.6100091],
          [-58.3684912, -34.6100026],
          [-58.3683996, -34.609998]
        ]
      },
      "id": "way/847328340"
    },
    {
      "type": "Feature",
      "properties": {
        "@id": "way/847328341",
        "highway": "footway",
        "lit": "yes",
        "surface": "concrete"
      },
      "geometry": {
        "type": "LineString",
        "coordinates": [
          [-58.369067, -34.6096969],
          [-58.3688628, -34.6096863],
          [-58.3686557, -34.6096755],
          [-58.3685235, -34.6096687],
          [-58.3684253, -34.6096636],
          [-58.3683672, -34.6096893]
        ]
      },
      "id": "way/847328341"
    },
    {
      "type": "Feature",
      "properties": {
        "@id": "way/847328343",
        "highway": "footway",
        "lit": "yes",
        "surface": "grass_paver"
      },
      "geometry": {
        "type": "LineString",
        "coordinates": [
          [-58.3680178, -34.6086023],
          [-58.3677326, -34.6085786]
        ]
      },
      "id": "way/847328343"
    },
    {
      "type": "Feature",
      "properties": {
        "@id": "way/847328344",
        "highway": "footway",
        "lit": "yes",
        "surface": "grass_paver"
      },
      "geometry": {
        "type": "LineString",
        "coordinates": [
          [-58.3679894, -34.6088333],
          [-58.3682044, -34.6088494]
        ]
      },
      "id": "way/847328344"
    },
    {
      "type": "Feature",
      "properties": {
        "@id": "way/1238243854",
        "access": "private",
        "highway": "footway",
        "surface": "concrete"
      },
      "geometry": {
        "type": "LineString",
        "coordinates": [
          [-58.3691932, -34.6068595],
          [-58.3690175, -34.607141],
          [-58.3688821, -34.607429],
          [-58.3688794, -34.6077547],
          [-58.3688284, -34.6079467],
          [-58.368811, -34.6081278],
          [-58.3688191, -34.6081741],
          [-58.368862, -34.6082282],
          [-58.368925, -34.6082547],
          [-58.369389, -34.6082823]
        ]
      },
      "id": "way/1238243854"
    },
    {
      "type": "Feature",
      "properties": {
        "@id": "way/1322739345",
        "highway": "footway",
        "lit": "yes",
        "smoothness": "excellent",
        "surface": "concrete"
      },
      "geometry": {
        "type": "LineString",
        "coordinates": [
          [-58.3701086, -34.6064429],
          [-58.3700079, -34.606525],
          [-58.3698993, -34.6064268],
          [-58.3698242, -34.6064466],
          [-58.3694117, -34.6066183],
          [-58.369334, -34.6066569],
          [-58.3691517, -34.6067767],
          [-58.369047, -34.6068567],
          [-58.3688901, -34.6070195],
          [-58.3687936, -34.6071691],
          [-58.3687272, -34.6072911],
          [-58.3686642, -34.6074495],
          [-58.3686373, -34.6075913],
          [-58.3686219, -34.6077149],
          [-58.3686119, -34.6079164],
          [-58.368623, -34.6081378]
        ]
      },
      "id": "way/1322739345"
    },
    {
      "type": "Feature",
      "properties": {},
      "geometry": {
        "coordinates": [
          [-58.36638933014491, -34.60516131377744],
          [-58.366486362642135, -34.60434049880299],
          [-58.366604574399034, -34.60338412436155],
          [-58.3667555174608, -34.6020851221124],
          [-58.366911704183266, -34.60075393671165],
          [-58.36707073696448, -34.5992292689413]
        ],
        "type": "LineString"
      }
    },
    {
      "type": "Feature",
      "properties": {},
      "geometry": {
        "coordinates": [
          [-58.367070867628186, -34.59922906579816],
          [-58.36707146728715, -34.599223389330064],
          [-58.3676109869655, -34.59928316274603],
          [-58.36766060657412, -34.599291331556586],
          [-58.36771164391968, -34.59927791135288],
          [-58.36772085899004, -34.59928316273218]
        ],
        "type": "LineString"
      }
    },
    {
      "type": "Feature",
      "properties": {},
      "geometry": {
        "coordinates": [
          [-58.367602480780704, -34.59928141227214],
          [-58.36739478727583, -34.59938702326851],
          [-58.367036823233676, -34.59956210209397]
        ],
        "type": "LineString"
      }
    },
    {
      "type": "Feature",
      "properties": {},
      "geometry": {
        "coordinates": [
          [-58.36761561049991, -34.599283842610355],
          [-58.367521790703506, -34.59957068582548]
        ],
        "type": "LineString"
      }
    },
    {
      "type": "Feature",
      "properties": {},
      "geometry": {
        "coordinates": [
          [-58.367261426148346, -34.60212142814958],
          [-58.36675624684899, -34.6020870685779]
        ],
        "type": "LineString"
      }
    },
    {
      "type": "Feature",
      "properties": {},
      "geometry": {
        "coordinates": [
          [-58.36712069929524, -34.60340397985477],
          [-58.366604494392234, -34.60338427482753]
        ],
        "type": "LineString"
      }
    },
    {
      "type": "Feature",
      "properties": {},
      "geometry": {
        "coordinates": [
          [-58.366453337230084, -34.60461887721184],
          [-58.36658684004199, -34.60466035985687],
          [-58.36664206409617, -34.604656829420726],
          [-58.36675733760772, -34.60466609681661],
          [-58.366811489351335, -34.60471243378748],
          [-58.366831903225815, -34.60476517543601],
          [-58.366777300922365, -34.60483258925311],
          [-58.36668471440693, -34.60485408350238],
          [-58.36661468101724, -34.6048374743104],
          [-58.36658381884574, -34.604781784642455],
          [-58.366568387759514, -34.60472609493642],
          [-58.366591806155455, -34.60466010542381]
        ],
        "type": "LineString"
      }
    },
    {
      "type": "Feature",
      "properties": {},
      "geometry": {
        "coordinates": [
          [-58.36682949683801, -34.604758910420145],
          [-58.36688959695945, -34.604777149927855],
          [-58.3668889254499, -34.60486199122091],
          [-58.36685250252117, -34.60499080081479],
          [-58.36683503924081, -34.605022161821495],
          [-58.36679058725471, -34.605069856662496],
          [-58.36677347676675, -34.60507116336876],
          [-58.36666393437257, -34.605086843858885],
          [-58.36645596258077, -34.60508945727282],
          [-58.3663972224559, -34.605088150565905]
        ],
        "type": "LineString"
      }
    },
    {
      "type": "Feature",
      "properties": {},
      "geometry": {
        "coordinates": [
          [-58.366791733667256, -34.605117404362076],
          [-58.366791733667256, -34.60506905619374]
        ],
        "type": "LineString"
      }
    },
    {
      "type": "Feature",
      "properties": {},
      "geometry": {
        "coordinates": [
          [-58.36678977635613, -34.6051859007098],
          [-58.36678977635613, -34.60522444852061]
        ],
        "type": "LineString"
      }
    },
    {
      "type": "Feature",
      "properties": {},
      "geometry": {
        "coordinates": [
          [-58.366786601213875, -34.605291090458145],
          [-58.366783426072274, -34.60535903904379]
        ],
        "type": "LineString"
      }
    },
    {
      "type": "Feature",
      "properties": {},
      "geometry": {
        "coordinates": [
          [-58.36597681039427, -34.61213169106466],
          [-58.36592586053965, -34.612478089677],
          [-58.365919214906626, -34.61260206356547],
          [-58.365901493217976, -34.61271327527918],
          [-58.36553905478935, -34.61268492849667]
        ],
        "type": "LineString"
      }
    },
    {
      "type": "Feature",
      "properties": {},
      "geometry": {
        "coordinates": [
          [-58.365901467302976, -34.61271349392902],
          [-58.3662600999745, -34.61275041575637]
        ],
        "type": "LineString"
      }
    },
    {
      "type": "Feature",
      "properties": {},
      "geometry": {
        "coordinates": [
          [-58.366451798441986, -34.61225920930022],
          [-58.36621848768044, -34.612251855409994],
          [-58.36622940860977, -34.6123932133975],
          [-58.36615196929387, -34.61243406826241],
          [-58.365919998924824, -34.61259514839749]
        ],
        "type": "LineString"
      }
    },
    {
      "type": "Feature",
      "properties": {},
      "geometry": {
        "coordinates": [
          [-58.36591989794201, -34.61259479081463],
          [-58.36579296885225, -34.61255613086137],
          [-58.36568692739327, -34.612353124161544],
          [-58.36561147825958, -34.612081234597085]
        ],
        "type": "LineString"
      }
    },
    {
      "type": "Feature",
      "properties": {},
      "geometry": {
        "coordinates": [
          [-58.36561139751241, -34.61208146828871],
          [-58.36561089459835, -34.61207912281655]
        ],
        "type": "LineString"
      }
    },
    {
      "type": "Feature",
      "properties": {},
      "geometry": {
        "coordinates": [
          [-58.36612427906006, -34.61388771058567],
          [-58.36540569629243, -34.613833818617955]
        ],
        "type": "LineString"
      }
    },
    {
      "type": "Feature",
      "properties": {},
      "geometry": {
        "coordinates": [
          [-58.36599345626013, -34.61509260177438],
          [-58.365265997185304, -34.61504274535726]
        ],
        "type": "LineString"
      }
    },
    {
      "type": "Feature",
      "properties": {},
      "geometry": {
        "coordinates": [
          [-58.36585296291449, -34.61626446990116],
          [-58.365130565933825, -34.616209304196815]
        ],
        "type": "LineString"
      }
    },
    {
      "type": "Feature",
      "properties": {},
      "geometry": {
        "coordinates": [
          [-58.365716547504164, -34.617447379996754],
          [-58.36500280206886, -34.61738324501476]
        ],
        "type": "LineString"
      }
    },
    {
      "type": "Feature",
      "properties": {},
      "geometry": {
        "coordinates": [
          [-58.36569739140111, -34.61760554627373],
          [-58.36566432845473, -34.61760403463166],
          [-58.365594528901596, -34.617666011903125],
          [-58.36539890646954, -34.61772345421103],
          [-58.365357577786725, -34.61774612879477],
          [-58.36521797868048, -34.61785950162256],
          [-58.36495128089939, -34.61784179261659]
        ],
        "type": "LineString"
      }
    },
    {
      "type": "Feature",
      "properties": {},
      "geometry": {
        "coordinates": [
          [-58.365644083873576, -34.61858258754269],
          [-58.364874562574855, -34.61852828257997]
        ],
        "type": "LineString"
      }
    },
    {
      "type": "Feature",
      "properties": {},
      "geometry": {
        "coordinates": [
          [-58.36552733256542, -34.61975149592042],
          [-58.36474422129041, -34.619679596039255]
        ],
        "type": "LineString"
      }
    },
    {
      "type": "Feature",
      "properties": {},
      "geometry": {
        "coordinates": [
          [-58.36538689682318, -34.62097002576901],
          [-58.364604561451955, -34.62091294603702]
        ],
        "type": "LineString"
      }
    },
    {
      "type": "Feature",
      "properties": {},
      "geometry": {
        "coordinates": [
          [-58.37011562584884, -34.607404289733886],
          [-58.3701040394087, -34.607283892977705],
          [-58.37008303898642, -34.60720640982368],
          [-58.37003811735697, -34.6071534201331],
          [-58.37000479711638, -34.60712883243209],
          [-58.369959987137136, -34.607111337333],
          [-58.36983730226342, -34.60707434280332],
          [-58.36980857791771, -34.60705637485122],
          [-58.369771810755495, -34.60700152529076],
          [-58.36971091769446, -34.60685109125062],
          [-58.36964546703891, -34.60676266973861]
        ],
        "type": "LineString"
      }
    },
    {
      "type": "Feature",
      "properties": {},
      "geometry": {
        "coordinates": [
          [-58.3700079080709, -34.606524636568146],
          [-58.3700177911615, -34.60682614878314]
        ],
        "type": "LineString"
      }
    },
    {
      "type": "Feature",
      "properties": {},
      "geometry": {
        "coordinates": [
          [-58.36433884659638, -34.60519366315778],
          [-58.364318000113045, -34.60517345504758],
          [-58.364358920989844, -34.60511689575727],
          [-58.36436973027806, -34.60503872948368],
          [-58.364349655885846, -34.604996151076044],
          [-58.364331125675434, -34.60497402794939],
          [-58.36437281864464, -34.60494161749658]
        ],
        "type": "LineString"
      }
    },
    {
      "type": "Feature",
      "properties": {},
      "geometry": {
        "coordinates": [
          [-58.364364699086266, -34.60507634243402],
          [-58.36364886645079, -34.60501648718938],
          [-58.36367273608981, -34.604844860036486]
        ],
        "type": "LineString"
      }
    },
    {
      "type": "Feature",
      "properties": {},
      "geometry": {
        "coordinates": [
          [-58.36364890934385, -34.60501619884942],
          [-58.363625660939036, -34.60520082657114]
        ],
        "type": "LineString"
      }
    },
    {
      "type": "Feature",
      "properties": {},
      "geometry": {
        "coordinates": [
          [-58.364465487485276, -34.60488629547617],
          [-58.36453296072058, -34.60484085658558],
          [-58.36469837203951, -34.60329667181083]
        ],
        "type": "LineString"
      }
    },
    {
      "type": "Feature",
      "properties": {},
      "geometry": {
        "coordinates": [
          [-58.36470411611377, -34.60325128329286],
          [-58.36484667364586, -34.602030496425876],
          [-58.36496110411815, -34.60203368929289]
        ],
        "type": "LineString"
      }
    },
    {
      "type": "Feature",
      "properties": {},
      "geometry": {
        "coordinates": [
          [-58.36485140431043, -34.60199842853982],
          [-58.365212112625116, -34.59903669044643]
        ],
        "type": "LineString"
      }
    },
    {
      "type": "Feature",
      "properties": {},
      "geometry": {
        "coordinates": [
          [-58.363863694984005, -34.612021033147656],
          [-58.363807769368265, -34.61224685646105],
          [-58.36363824484603, -34.61227274699231],
          [-58.363083421379415, -34.617408392401614],
          [-58.3630775804688, -34.61752215463217],
          [-58.363186610802, -34.61752535919889],
          [-58.363225550206465, -34.61754298431854],
          [-58.36326059567082, -34.61758784824233],
          [-58.36326448961097, -34.617635916705545],
          [-58.36323333808754, -34.61766636005125],
          [-58.36319245171261, -34.617674371456395],
          [-58.36316324715884, -34.617751280903256]
        ],
        "type": "LineString"
      }
    }
  ]
}
